<!DOCTYPE html>
<html lang="es">
<head>
  <meta charset="utf-8" />
  <meta name="viewport" content="width=device-width, initial-scale=1" />
  <title>POM OGIMET — Argentina SYNOP / AEROMET</title>
  <script src="https://cdn.plot.ly/plotly-2.35.2.min.js"></script>
  <style>
    :root {
      --bg: #0f1419;
      --panel: #1a2332;
      --border: #2d3a4f;
      --text: #e8eef7;
      --muted: #8fa3bf;
      --accent: #3b9eff;
      --accent-dim: #2563a8;
      --ok: #3dd68c;
      --warn: #f5a623;
    }
    * { box-sizing: border-box; }
    body {
      margin: 0;
      font-family: "Segoe UI", system-ui, sans-serif;
      background: var(--bg);
      color: var(--text);
      min-height: 100vh;
    }
    header {
      padding: 12px 20px;
      border-bottom: 1px solid var(--border);
      display: flex;
      flex-wrap: wrap;
      gap: 16px;
      align-items: center;
      background: var(--panel);
    }
    header h1 {
      margin: 0;
      font-size: 1.15rem;
      font-weight: 600;
    }
    header p {
      margin: 0;
      font-size: 0.85rem;
      color: var(--muted);
    }
    .controls {
      display: flex;
      flex-wrap: wrap;
      gap: 10px;
      align-items: center;
      margin-left: auto;
    }
    label { font-size: 0.85rem; color: var(--muted); }
    input[type="number"] {
      width: 64px;
      padding: 6px 8px;
      border: 1px solid var(--border);
      border-radius: 6px;
      background: var(--bg);
      color: var(--text);
    }
    button {
      padding: 7px 14px;
      border: none;
      border-radius: 6px;
      background: var(--accent);
      color: #fff;
      font-weight: 600;
      cursor: pointer;
    }
    button:hover { background: var(--accent-dim); }
    button:disabled { opacity: 0.5; cursor: wait; }
    main {
      display: grid;
      grid-template-columns: 1fr 380px;
      height: calc(100vh - 64px);
    }
    @media (max-width: 960px) {
      main { grid-template-columns: 1fr; grid-template-rows: 55vh auto; }
    }
    #map { width: 100%; height: 100%; }
    aside {
      border-left: 1px solid var(--border);
      overflow-y: auto;
      padding: 16px;
      background: var(--panel);
    }
    aside h2 {
      margin: 0 0 4px;
      font-size: 1rem;
    }
    .station-meta {
      font-size: 0.8rem;
      color: var(--muted);
      margin-bottom: 12px;
    }
    .placeholder {
      color: var(--muted);
      font-size: 0.9rem;
      line-height: 1.5;
    }
    .report-card {
      border: 1px solid var(--border);
      border-radius: 8px;
      padding: 12px;
      margin-bottom: 10px;
      background: var(--bg);
    }
    .report-card time {
      display: block;
      font-size: 0.75rem;
      color: var(--muted);
      margin-bottom: 6px;
    }
    .aeromet {
      font-family: "Consolas", "Monaco", monospace;
      font-size: 0.95rem;
      color: var(--ok);
      word-break: break-word;
      margin-bottom: 8px;
    }
    .synop-raw {
      font-family: monospace;
      font-size: 0.7rem;
      color: var(--muted);
      word-break: break-all;
      line-height: 1.4;
    }
    .status {
      font-size: 0.8rem;
      padding: 8px 12px;
      border-radius: 6px;
      margin-bottom: 12px;
    }
    .status.loading { background: #1e3a5f; color: var(--accent); }
    .status.error { background: #4a2020; color: #ff8a8a; }
    .status.ok { background: #1a3d2e; color: var(--ok); }
    .debug-panel {
      font-family: monospace;
      font-size: 0.68rem;
      color: var(--muted);
      background: var(--bg);
      border: 1px solid var(--border);
      border-radius: 6px;
      padding: 8px;
      margin-bottom: 12px;
      white-space: pre-wrap;
      word-break: break-all;
      max-height: 160px;
      overflow-y: auto;
      display: none;
    }
    .debug-panel.visible { display: block; }
    .debug-toggle { font-size: 0.75rem; color: var(--muted); cursor: pointer; margin-bottom: 8px; }
    .debug-toggle input { margin-right: 6px; }
  </style>
</head>
<body>
  <header>
    <div>
      <h1>POM OGIMET — Estaciones Argentina</h1>
      <p>114 estaciones · generado 2026-07-24 13:23 UTC · clic en un punto para ver SYNOP/AEROMET</p>
    </div>
    <div class="controls">
      <label for="hours">Horas hacia atrás</label>
      <input id="hours" type="number" min="1" max="72" value="3" />
      <button id="refreshBtn" type="button">Actualizar estación</button>
    </div>
  </header>
  <main>
    <div id="map"></div>
    <aside>
      <h2 id="panelTitle">Seleccioná una estación</h2>
      <div class="station-meta" id="panelMeta"></div>
      <div id="panelStatus" class="placeholder">
        Hacé clic en un punto del mapa para cargar los SYNOP de las últimas
        <span id="hoursLabel">3</span> horas y ver el AEROMET decodificado.
      </div>
      <label class="debug-toggle"><input type="checkbox" id="debugToggle" /> Mostrar debug de red</label>
      <pre id="debugPanel" class="debug-panel"></pre>
      <div id="reports"></div>
    </aside>
  </main>

  <script>
/**
 * SYNOP (FM-12) → AEROMET decoder for Argentina SMN-style reports.
 * Cloud base: hh × 50 m (national convention), height in AEROMET rounded up to 100 ft.
 */

const CLOUD_TYPE_C = {
  0: 'Ci', 1: 'Cc', 2: 'Cs', 3: 'Ac', 4: 'As', 5: 'Ns', 6: 'Sc', 7: 'St', 8: 'Cu', 9: 'Cb',
};

function visibilityKm(vv) {
  const code = Number(vv);
  if (Number.isNaN(code)) return null;
  if (code <= 49) return Math.max(0.1, (code * 100) / 1000);
  if (code >= 50 && code <= 80) return code - 50;
  if (code === 81) return 30;
  if (code === 82) return 40;
  if (code === 83) return 50;
  if (code === 84) return 60;
  if (code === 85) return 70;
  if (code === 86) return 80;
  if (code === 87) return 90;
  if (code >= 88) return 100;
  return null;
}

function cloudBaseFeet(hh) {
  const code = Number(hh);
  if (Number.isNaN(code)) return null;
  if (code === 0) return 0;
  const meters = code * 50;
  const feet = meters * 3.280839895;
  return Math.ceil(feet / 100) * 100;
}

function signedTemp(sn, ttt) {
  const sign = Number(sn) === 1 ? -1 : 1;
  return sign * Number(ttt) / 10;
}

function parseGroups(report) {
  const tokens = report.replace(/=/g, ' ').trim().split(/\s+/).filter(Boolean);
  const idx333 = tokens.indexOf('333');
  const idx555 = tokens.indexOf('555');
  const section1End = idx333 >= 0 ? idx333 : tokens.length;
  const section3End = idx555 >= 0 ? idx555 : tokens.length;

  return {
    tokens,
    section1: tokens.slice(0, section1End),
    section3: idx333 >= 0 ? tokens.slice(idx333 + 1, section3End) : [],
    section555: idx555 >= 0 ? tokens.slice(idx555 + 1) : [],
  };
}

function isFiveDigitGroup(token) {
  return token.length === 5 && /^\d+$/.test(token);
}

function headerEndIndex(section1) {
  const aaxx = section1.indexOf('AAXX');
  if (aaxx >= 0 && aaxx + 3 < section1.length) return aaxx + 3;
  return Math.min(3, section1.length);
}

function isTemperatureGroup(g) {
  return g[0] === '1' && (g[1] === '0' || g[1] === '1');
}

function isIrixhvvGroup(g) {
  return g[0] === '1' && !isTemperatureGroup(g);
}

function isNddffGroup(g) {
  const n = Number(g[0]);
  return n >= 0 && n <= 4 && Number(g.slice(1, 3)) <= 36;
}

function extractSection1Fields(section1) {
  const fields = {
    irixhvv: null,
    nddff: null,
    tempC: null,
    dewpointC: null,
    stationPressureHpa: null,
    seaLevelPressureHpa: null,
    cloudLayers8: [],
  };

  const body = section1.slice(headerEndIndex(section1));
  let seenIrixhvv = false;

  for (const token of body) {
    if (!isFiveDigitGroup(token)) continue;
    const g = token;
    const ind = g[0];

    if (!seenIrixhvv && isIrixhvvGroup(g)) {
      fields.irixhvv = {
        ir: Number(g[1]),
        ix: Number(g[2]),
        h: Number(g[3]),
        vv: Number(g.slice(3, 5)),
      };
      seenIrixhvv = true;
      continue;
    }

    if (seenIrixhvv && fields.nddff === null && isNddffGroup(g)) {
      fields.nddff = { n: Number(g[0]), dd: Number(g.slice(1, 3)), ff: Number(g.slice(3)) };
      continue;
    }

    if (ind === '1' && isTemperatureGroup(g)) {
      fields.tempC = signedTemp(g[1], g.slice(2));
      continue;
    }

    if (ind === '2' && (g[1] === '0' || g[1] === '1')) {
      fields.dewpointC = signedTemp(g[1], g.slice(2));
      continue;
    }

    if (ind === '3') {
      fields.stationPressureHpa = 1000 + Number(g.slice(1)) / 10;
      continue;
    }

    if (ind === '4') {
      fields.seaLevelPressureHpa = 1000 + Number(g.slice(1)) / 10;
      continue;
    }

    if (ind === '8' && g[3] !== '/' && g[4] !== '/') {
      const amount = Number(g[1]);
      const typeCode = Number(g[2]);
      const hh = Number(g.slice(3));
      if (amount > 0) fields.cloudLayers8.push({ amount, typeCode, hh, section: 1 });
    }
  }

  return fields;
}

function extractCloudLayers(groups, section) {
  const layers = [];
  for (const token of groups) {
    if (!isFiveDigitGroup(token) || token[0] !== '8') continue;
    if (token[3] === '/' || token[4] === '/') continue;
    const amount = Number(token[1]);
    const typeCode = Number(token[2]);
    const hh = Number(token.slice(3));
    if (amount > 0 && !Number.isNaN(typeCode) && !Number.isNaN(hh)) {
      layers.push({ amount, typeCode, hh, section });
    }
  }
  return layers;
}

function pickAerometCloud(layers) {
  if (!layers.length) return null;
  const sorted = [...layers].sort((a, b) => {
    const ha = cloudBaseFeet(a.hh) ?? 99999;
    const hb = cloudBaseFeet(b.hh) ?? 99999;
    return ha - hb;
  });
  const layer = sorted[0];
  const type = CLOUD_TYPE_C[layer.typeCode] || 'XX';
  const heightFt = cloudBaseFeet(layer.hh);
  if (heightFt === null) return null;
  return { amount: layer.amount, type, heightFt, text: `${layer.amount}${type}${heightFt}FT` };
}

function formatTemp(value) {
  if (value === null || Number.isNaN(value)) return '//';
  const rounded = Math.round(value);
  const sign = rounded < 0 ? 'M' : '';
  const abs = Math.abs(rounded).toString().padStart(2, '0');
  return `${sign}${abs}`;
}

function formatWind(nddff) {
  if (!nddff) return '///KT';
  if (nddff.ff === 0) return '00000KT';
  const dir = (nddff.dd * 10).toString().padStart(3, '0');
  const spd = nddff.ff.toString().padStart(2, '0');
  return `${dir}/${spd}KT`;
}

function formatVisibilityKm(irixhvv) {
  if (!irixhvv) return '////';
  const km = visibilityKm(irixhvv.vv);
  if (km === null) return '////';
  if (km >= 10) return `${Math.round(km)}KM`;
  return `${km.toFixed(1)}KM`;
}

function formatQnh(seaLevelPressureHpa) {
  if (seaLevelPressureHpa === null || Number.isNaN(seaLevelPressureHpa)) return 'Q////';
  return `Q${seaLevelPressureHpa.toFixed(1)}`;
}

function synopToAeromet(report, stationName = 'ESTACION', stationAltM = 0) {
  const { section1, section3, section555 } = parseGroups(report);
  const s1 = extractSection1Fields(section1);
  const layers = [
    ...extractCloudLayers(section3, 3),
    ...extractCloudLayers(section555, 555),
    ...s1.cloudLayers8,
  ];
  const cloud = pickAerometCloud(layers);

  const parts = [
    stationName.toUpperCase(),
    formatWind(s1.nddff),
    formatVisibilityKm(s1.irixhvv),
    cloud ? cloud.text : 'SKC',
    `${formatTemp(s1.tempC)}/${formatTemp(s1.dewpointC)}`,
    formatQnh(s1.seaLevelPressureHpa),
  ];

  return {
    aeromet: parts.join(' '),
    fields: { ...s1, cloud, layers },
    raw: report.trim(),
    stationAltM,
  };
}

function parseOgimetCsv(csvText) {
  const lines = csvText.trim().split(/\r?\n/);
  if (lines.length < 2) return [];
  const rows = [];
  for (let i = 1; i < lines.length; i += 1) {
    const line = lines[i];
    const commaIdx = [];
    for (let j = 0; j < line.length; j += 1) {
      if (line[j] === ',') commaIdx.push(j);
    }
    if (commaIdx.length < 6) continue;
    const sixth = commaIdx[5];
    const meta = line.slice(0, sixth).split(',');
    const report = line.slice(sixth + 1);
    if (!report || report.includes('NIL')) continue;
    const wmoId = meta[0];
    rows.push({
      wmoId,
      year: Number(meta[1]),
      month: Number(meta[2]),
      day: Number(meta[3]),
      hour: Number(meta[4]),
      minute: Number(meta[5]),
      report,
      datetimeUtc: new Date(Date.UTC(Number(meta[1]), Number(meta[2]) - 1, Number(meta[3]), Number(meta[4]), Number(meta[5]))),
    });
  }
  return rows.sort((a, b) => b.datetimeUtc - a.datetimeUtc);
}

if (typeof module !== 'undefined' && module.exports) {
  module.exports = { synopToAeromet, parseOgimetCsv, cloudBaseFeet, visibilityKm };
}

  </script>
  <script>
    const STATIONS = [{"wmo_id": "87007", "name": "La Quiaca Observatorio (Argentina", "lat": -22.10333, "lon": -65.60056, "alt": 3459}, {"wmo_id": "87016", "name": "Oran Aerodrome (Argentina", "lat": -23.15444, "lon": -64.32806, "alt": 357}, {"wmo_id": "87022", "name": "Tartagal Aerodrome (Argentina", "lat": -22.61639, "lon": -63.79639, "alt": 450}, {"wmo_id": "87043", "name": "Jujuy Un (Argentina", "lat": -24.17861, "lon": -65.32639, "alt": 1302}, {"wmo_id": "87046", "name": "Jujuy Aerodrome (Argentina", "lat": -24.38389, "lon": -65.09528, "alt": 907}, {"wmo_id": "87047", "name": "Salta Aerodrome (Argentina", "lat": -24.84417, "lon": -65.47556, "alt": 1221}, {"wmo_id": "87050", "name": "Metan (Argentina", "lat": -25.52417, "lon": -64.97306, "alt": 855}, {"wmo_id": "87065", "name": "Rivadavia (Argentina", "lat": -24.18528, "lon": -62.88639, "alt": 205}, {"wmo_id": "87078", "name": "Las Lomitas (Argentina", "lat": -24.70222, "lon": -60.59389, "alt": 130}, {"wmo_id": "87097", "name": "Iguazu Aerodrome (Argentina", "lat": -25.73083, "lon": -54.47889, "alt": 270}, {"wmo_id": "87121", "name": "Tucuman Aerodrome (Argentina", "lat": -26.83722, "lon": -65.10833, "alt": 440}, {"wmo_id": "87127", "name": "Termas De Rio Hondo (Argentina", "lat": -27.50611, "lon": -64.93444, "alt": 280}, {"wmo_id": "87129", "name": "Santiago Del Estero Aero. (Argentina", "lat": -27.75472, "lon": -64.29972, "alt": 198}, {"wmo_id": "87148", "name": "Presidencia Roque Saenz Pena Aero (Argentina", "lat": -26.74611, "lon": -60.48667, "alt": 91}, {"wmo_id": "87155", "name": "Resistencia Aero. (Argentina", "lat": -27.43861, "lon": -59.04583, "alt": 53}, {"wmo_id": "87162", "name": "Formosa Aerodrome (Argentina", "lat": -26.21222, "lon": -58.22917, "alt": 59}, {"wmo_id": "87163", "name": "B.De Irigoyen Aero (Argentina", "lat": -26.27778, "lon": -53.67111, "alt": 815}, {"wmo_id": "87166", "name": "Corrientes Aero. (Argentina", "lat": -27.44972, "lon": -58.75972, "alt": 62}, {"wmo_id": "87173", "name": "Ituzaingo (Argentina", "lat": -27.58556, "lon": -56.67722, "alt": 72}, {"wmo_id": "87178", "name": "Posadas Aero. (Argentina", "lat": -27.39083, "lon": -55.96694, "alt": 131}, {"wmo_id": "87187", "name": "Obera (Argentina", "lat": -27.48361, "lon": -55.13139, "alt": 303}, {"wmo_id": "87211", "name": "Tinogasta (Argentina", "lat": -28.06722, "lon": -67.565, "alt": 1214}, {"wmo_id": "87213", "name": "Chilecito Aerodrome (Argentina", "lat": -29.21833, "lon": -67.44222, "alt": 925}, {"wmo_id": "87217", "name": "La Rioja Aero. (Argentina", "lat": -29.38167, "lon": -66.79333, "alt": 438}, {"wmo_id": "87222", "name": "Catamarca Aero. (Argentina", "lat": -28.59333, "lon": -65.75528, "alt": 464}, {"wmo_id": "87244", "name": "Villa De Maria Del Rio Seco (Argentina", "lat": -29.90556, "lon": -63.7275, "alt": 341}, {"wmo_id": "87257", "name": "Ceres Aerodrome (Argentina", "lat": -29.87556, "lon": -61.93583, "alt": 87}, {"wmo_id": "87270", "name": "Reconquista Aerodrome (Argentina", "lat": -29.205, "lon": -59.69333, "alt": 48}, {"wmo_id": "87281", "name": "Mercedes Aero (Argentina", "lat": -29.22611, "lon": -58.08556, "alt": 107}, {"wmo_id": "87289", "name": "Paso De Los Libres Aerodrome (Argentina", "lat": -29.68917, "lon": -57.14833, "alt": 69}, {"wmo_id": "87305", "name": "Jachal (Argentina", "lat": -30.22917, "lon": -68.73889, "alt": 1178}, {"wmo_id": "87311", "name": "San Juan Aero (Argentina", "lat": -31.57444, "lon": -68.42222, "alt": 597}, {"wmo_id": "87320", "name": "Chamical Aerodrome (Argentina", "lat": -30.3475, "lon": -66.29639, "alt": 461}, {"wmo_id": "87322", "name": "Chepes (Argentina", "lat": -31.34472, "lon": -66.57778, "alt": 646}, {"wmo_id": "87328", "name": "Villa Dolores Aerodrome (Argentina", "lat": -31.95111, "lon": -65.14889, "alt": 561}, {"wmo_id": "87344", "name": "Cordoba Aerodrome (Argentina", "lat": -31.29639, "lon": -64.21167, "alt": 493}, {"wmo_id": "87345", "name": "Cordoba Observatorio (Argentina", "lat": -31.42056, "lon": -64.19806, "alt": 426}, {"wmo_id": "87347", "name": "Escuela De Avicion Militar (Argentina", "lat": -31.44194, "lon": -64.28056, "alt": 502}, {"wmo_id": "87349", "name": "Pilar Observatorio (Argentina", "lat": -31.66806, "lon": -63.88194, "alt": 338}, {"wmo_id": "87356", "name": "Sunchales Aero (Argentina", "lat": -30.95667, "lon": -61.53222, "alt": 92}, {"wmo_id": "87360", "name": "Rafaela Aero (Argentina", "lat": -31.2775, "lon": -61.50944, "alt": 59}, {"wmo_id": "87371", "name": "Sauce Viejo Aerodrome (Argentina", "lat": -31.70778, "lon": -60.80528, "alt": 17}, {"wmo_id": "87374", "name": "Parana Aerodrome (Argentina", "lat": -31.79028, "lon": -60.48389, "alt": 74}, {"wmo_id": "87393", "name": "Monte Caseros Aerodrome (Argentina", "lat": -30.26167, "lon": -57.63889, "alt": 53}, {"wmo_id": "87395", "name": "Concordia Aerodrome (Argentina", "lat": -31.29861, "lon": -58.0, "alt": 37}, {"wmo_id": "87405", "name": "Uspallata (Argentina", "lat": -32.59444, "lon": -69.34, "alt": 1891}, {"wmo_id": "87416", "name": "San Martin (Argentina", "lat": -33.07306, "lon": -68.46472, "alt": 653}, {"wmo_id": "87418", "name": "Mendoza Aerodrome (Argentina", "lat": -32.84361, "lon": -68.79611, "alt": 705}, {"wmo_id": "87420", "name": "Mendoza Observatorio (Argentina", "lat": -32.89472, "lon": -68.87278, "alt": 827}, {"wmo_id": "87436", "name": "San Luis Aerodrome (Argentina", "lat": -33.27444, "lon": -66.35139, "alt": 710}, {"wmo_id": "87444", "name": "Santa Rosa De Conlara (Argentina", "lat": -32.37889, "lon": -65.17972, "alt": 615}, {"wmo_id": "87448", "name": "Villa Reynolds Aerodrome (Argentina", "lat": -33.71806, "lon": -65.37361, "alt": 485}, {"wmo_id": "87453", "name": "Rio Cuarto Aerodrome (Argentina", "lat": -33.09528, "lon": -64.27694, "alt": 420}, {"wmo_id": "87467", "name": "Marcos Juarez Aerodrome (Argentina", "lat": -32.67944, "lon": -62.15028, "alt": 110}, {"wmo_id": "87468", "name": "Venado Tuerto Aerodrome (Argentina", "lat": -33.68222, "lon": -61.96111, "alt": 112}, {"wmo_id": "87480", "name": "Rosario Aerodrome (Argentina", "lat": -32.90806, "lon": -60.78194, "alt": 25}, {"wmo_id": "87497", "name": "Gualeguaychu Aerodrome (Argentina", "lat": -33.01222, "lon": -58.61056, "alt": 23}, {"wmo_id": "87506", "name": "Malargue Aerodrome (Argentina", "lat": -35.48111, "lon": -69.58333, "alt": 1429}, {"wmo_id": "87509", "name": "San Rafael Aerodrome (Argentina", "lat": -34.59083, "lon": -68.40139, "alt": 751}, {"wmo_id": "87532", "name": "General Pico Aerodrome (Argentina", "lat": -35.68806, "lon": -63.75917, "alt": 139}, {"wmo_id": "87534", "name": "Laboulaye (Argentina", "lat": -34.12778, "lon": -63.3675, "alt": 136}, {"wmo_id": "87540", "name": "Trenque Lauquen - Th (Argentina", "lat": -35.96667, "lon": -62.71667, "alt": 80}, {"wmo_id": "87544", "name": "Pehuajo Aerodrome (Argentina", "lat": -35.84056, "lon": -61.85972, "alt": 87}, {"wmo_id": "87548", "name": "Junin Aerodrome (Argentina", "lat": -34.5525, "lon": -60.93111, "alt": 82}, {"wmo_id": "87550", "name": "Nueve De Julio (Argentina", "lat": -35.43889, "lon": -60.88167, "alt": 76}, {"wmo_id": "87553", "name": "San Fernando Aero (Argentina", "lat": -34.455, "lon": -58.58444, "alt": 3}, {"wmo_id": "87563", "name": "Las Flores Aerodrome (Argentina", "lat": -36.04139, "lon": -59.13722, "alt": 38}, {"wmo_id": "87570", "name": "Campo De Mayo Aero (Argentina", "lat": -34.53583, "lon": -58.675, "alt": 26}, {"wmo_id": "87571", "name": "El Palomar Aerodrome (Argentina", "lat": -34.60278, "lon": -58.6125, "alt": 12}, {"wmo_id": "87572", "name": "Mariano Moreno Aero (Argentina", "lat": -34.55778, "lon": -58.78667, "alt": 32}, {"wmo_id": "87573", "name": "Merlo Aero (Argentina", "lat": -34.68472, "lon": -58.74472, "alt": 36}, {"wmo_id": "87574", "name": "Moron Aero - H24 (Argentina", "lat": -34.67111, "lon": -58.63833, "alt": 24}, {"wmo_id": "87576", "name": "Ezeiza Aerodrome (Argentina", "lat": -34.81833, "lon": -58.54222, "alt": 20}, {"wmo_id": "87582", "name": "Aeroparque Bs. As. Aerodrome (Argentina", "lat": -34.55889, "lon": -58.41972, "alt": 6}, {"wmo_id": "87585", "name": "Buenos Aires Observatorio (Argentina", "lat": -34.59, "lon": -58.48389, "alt": 25}, {"wmo_id": "87593", "name": "La Plata Aerodrome (Argentina", "lat": -34.96611, "lon": -57.89583, "alt": 19}, {"wmo_id": "87596", "name": "Punta Indio B. A. (Argentina", "lat": -35.35111, "lon": -57.2925, "alt": 17}, {"wmo_id": "87616", "name": "Victorica (Argentina", "lat": -36.21278, "lon": -65.43167, "alt": 312}, {"wmo_id": "87623", "name": "Santa Rosa Aerodrome (Argentina", "lat": -36.59306, "lon": -64.27972, "alt": 190}, {"wmo_id": "87637", "name": "Coronel Suarez Aerodrome (Argentina", "lat": -37.45333, "lon": -61.89056, "alt": 233}, {"wmo_id": "87640", "name": "Bolivar Aerodrome (Argentina", "lat": -36.18611, "lon": -61.0725, "alt": 94}, {"wmo_id": "87641", "name": "Azul Aerodrome (Argentina", "lat": -36.83194, "lon": -59.88639, "alt": 146}, {"wmo_id": "87643", "name": "Olovarria Aerodrome (Argentina", "lat": -36.89056, "lon": -60.22278, "alt": 166}, {"wmo_id": "87645", "name": "Tandil Aerodrome (Argentina", "lat": -37.24111, "lon": -59.23306, "alt": 175}, {"wmo_id": "87648", "name": "Dolores Aerodrome (Argentina", "lat": -36.31694, "lon": -57.71667, "alt": 10}, {"wmo_id": "87649", "name": "Benito Juarez (Argentina", "lat": -37.70111, "lon": -59.79083, "alt": 210}, {"wmo_id": "87663", "name": "Villa Gesell (Argentina", "lat": -37.23333, "lon": -57.03333, "alt": 7}, {"wmo_id": "87679", "name": "Pigue Aerodrome (Argentina", "lat": -37.60806, "lon": -62.38639, "alt": 304}, {"wmo_id": "87688", "name": "Tres Arroyos (Argentina", "lat": -38.35944, "lon": -60.28444, "alt": 115}, {"wmo_id": "87692", "name": "Mar Del Plata Aerodrome (Argentina", "lat": -37.93194, "lon": -57.58139, "alt": 18}, {"wmo_id": "87715", "name": "Neuquen Aerodrome (Argentina", "lat": -38.95194, "lon": -68.13667, "alt": 270}, {"wmo_id": "87719", "name": "Cipolletti (Argentina", "lat": -38.93333, "lon": -67.98333, "alt": 265}, {"wmo_id": "87736", "name": "Rio Colorado (Argentina", "lat": -38.99083, "lon": -64.08694, "alt": 79}, {"wmo_id": "87750", "name": "Bahia Blanca Aerodrome (Argentina", "lat": -38.71472, "lon": -62.16278, "alt": 75}, {"wmo_id": "87761", "name": "Chapelco (Argentina", "lat": -40.08333, "lon": -71.13333, "alt": 779}, {"wmo_id": "87765", "name": "Bariloche Aerodrome (Argentina", "lat": -41.1475, "lon": -71.16417, "alt": 835}, {"wmo_id": "87774", "name": "Maquinchao (Argentina", "lat": -41.24389, "lon": -68.70639, "alt": 888}, {"wmo_id": "87784", "name": "San Antonio Oeste Aerodrome (Argentina", "lat": -40.75694, "lon": -65.03083, "alt": 20}, {"wmo_id": "87791", "name": "Viedma Aerodrome (Argentina", "lat": -40.86333, "lon": -63.00694, "alt": 6}, {"wmo_id": "87800", "name": "El Bolson Aerodrome (Argentina", "lat": -41.95389, "lon": -71.53389, "alt": 337}, {"wmo_id": "87803", "name": "Esquel Aerodrome (Argentina", "lat": -42.90583, "lon": -71.14472, "alt": 799}, {"wmo_id": "87814", "name": "Paso De Indios (Argentina", "lat": -43.86167, "lon": -69.0475, "alt": 460}, {"wmo_id": "87823", "name": "P. Madryn Aerodrome (Argentina", "lat": -42.75528, "lon": -65.10139, "alt": 136}, {"wmo_id": "87828", "name": "Trelew Aerodrome (Argentina", "lat": -43.20889, "lon": -65.28194, "alt": 39}, {"wmo_id": "87852", "name": "Perito Moreno Aerodrome (Argentina", "lat": -46.53833, "lon": -70.98472, "alt": 429}, {"wmo_id": "87860", "name": "Comodoro Rivadavia Aerodrome (Argentina", "lat": -45.79222, "lon": -67.46167, "alt": 58}, {"wmo_id": "87880", "name": "Gobernador Gregores Aerodrome (Argentina", "lat": -48.78222, "lon": -70.1625, "alt": 358}, {"wmo_id": "87896", "name": "Puerto Deseado Aerodrome (Argentina", "lat": -47.73361, "lon": -65.90778, "alt": 81}, {"wmo_id": "87904", "name": "El Calafate Aero (Argentina", "lat": -50.28444, "lon": -72.05139, "alt": 199}, {"wmo_id": "87909", "name": "San Julian Aerodrome (Argentina", "lat": -49.30806, "lon": -67.80306, "alt": 58}, {"wmo_id": "87912", "name": "Santa Cruz Aerodrome (Argentina", "lat": -50.01667, "lon": -68.56667, "alt": 113}, {"wmo_id": "87925", "name": "Rio Gallegos Aerodrome (Argentina", "lat": -51.61139, "lon": -69.30778, "alt": 20}, {"wmo_id": "87934", "name": "Rio Grande B. A. (Argentina", "lat": -53.78, "lon": -67.75861, "alt": 22}, {"wmo_id": "87938", "name": "Ushuaia Aerodrome (Argentina", "lat": -54.84, "lon": -68.30333, "alt": 57}];
    const EMBEDDED_SYNOPS = {"87623": [{"year": 2026, "month": 7, "day": 24, "hour": 12, "minute": 0, "report": "AAXX 24124 87623 01/01 92704 10075 20075 39954 40187 52021 69904 74764 333 10094 20068 69901="}, {"year": 2026, "month": 7, "day": 24, "hour": 11, "minute": 0, "report": "AAXX 24114 87623 41/04 92904 10076 20076 39946 40179 52016 74742="}, {"year": 2026, "month": 7, "day": 24, "hour": 10, "minute": 0, "report": "AAXX 24104 87623 41150 83206 10080 20076 39937 40169 52008 71042 886// 333 56899 88703="}], "87643": [{"year": 2026, "month": 7, "day": 24, "hour": 12, "minute": 0, "report": "AAXX 24124 87643 01050 83609 10097 20097 39992 40195 52006 60024 72162 886// 333 10101 20086 56899 60022 88700="}], "87281": [{"year": 2026, "month": 7, "day": 24, "hour": 12, "minute": 0, "report": "AAXX 24124 87281 32465 60503 10132 20125 30054 40182 53021 82556 333 10140 20110 56356 82615 85360 86270="}], "87637": [{"year": 2026, "month": 7, "day": 24, "hour": 12, "minute": 0, "report": "AAXX 24124 87637 01350 83408 10097 20091 39902 40185 51019 69924 71022 886// 333 10098 20086 31008 56799 69922 88707="}, {"year": 2026, "month": 7, "day": 24, "hour": 11, "minute": 0, "report": "AAXX 24114 87637 41256 83209 10096 20092 39898 40180 53012 71022 886// 333 56899 88705="}, {"year": 2026, "month": 7, "day": 24, "hour": 10, "minute": 0, "report": "AAXX 24104 87637 41130 83208 10096 20094 39890 40173 55001 71022 886// 333 56899 88703="}], "87155": [{"year": 2026, "month": 7, "day": 24, "hour": 12, "minute": 0, "report": "AAXX 24124 87155 32665 81404 10145 20119 30110 40173 52025 8802/ 333 10149 20134 56079 88540="}, {"year": 2026, "month": 7, "day": 24, "hour": 11, "minute": 0, "report": "AAXX 24114 87155 42565 81503 10140 20127 30108 40171 50021 885// 333 56499 88620="}, {"year": 2026, "month": 7, "day": 24, "hour": 10, "minute": 0, "report": "AAXX 24104 87155 42565 81604 10141 20127 30096 40158 50007 885// 333 56499 88620="}], "87393": [{"year": 2026, "month": 7, "day": 24, "hour": 12, "minute": 0, "report": "AAXX 24124 87393 32470 70905 10134 20119 30122 40188 52016 87505 333 10156 20124 56206 87610="}, {"year": 2026, "month": 7, "day": 24, "hour": 11, "minute": 0, "report": "AAXX 24114 87393 42470 50903 10124 20113 30117 40182 52015 84505 333 56206 84610="}, {"year": 2026, "month": 7, "day": 24, "hour": 10, "minute": 0, "report": "AAXX 24104 87393 42470 50905 10132 20117 30109 40174 53001 85500 333 56200 85610="}], "87774": [{"year": 2026, "month": 7, "day": 24, "hour": 12, "minute": 0, "report": "AAXX 24123 87774 32982 02702 11006 21017 39133 48463 52028 82500 333 10042 21018 56600 82636="}, {"year": 2026, "month": 7, "day": 24, "hour": 11, "minute": 0, "report": "AAXX 24113 87774 42982 02702 11006 21012 39110 48443 5////="}, {"year": 2026, "month": 7, "day": 24, "hour": 10, "minute": 0, "report": "AAXX 24103 87774 42682 22702 11014 21021 39109 48443 5//// 82500 333 56900 82636="}], "87736": [{"year": 2026, "month": 7, "day": 24, "hour": 12, "minute": 0, "report": "AAXX 24123 87736 02965 03202 10064 20060 30068 40164 5//// 69994 333 10106 20064 69992="}], "87784": [{"year": 2026, "month": 7, "day": 24, "hour": 12, "minute": 0, "report": "AAXX 24124 87784 31980 12305 10036 20026 30133 40157 52013 702// 81030 333 10106 20030 56040 81360="}], "87803": [{"year": 2026, "month": 7, "day": 24, "hour": 12, "minute": 0, "report": "AAXX 24124 87803 11659 33604 10004 21009 39186 40131 52017 69914 71600 83500 333 10048 20004 56600 83635="}, {"year": 2026, "month": 7, "day": 24, "hour": 11, "minute": 0, "report": "AAXX 24114 87803 42680 29906 10020 21017 39182 40120 52018 82570 333 56660 82635="}, {"year": 2026, "month": 7, "day": 24, "hour": 10, "minute": 0, "report": "AAXX 24104 87803 42680 22506 10022 21015 39174 40112 52010 82500 333 56000 82635="}], "87127": [{"year": 2026, "month": 7, "day": 24, "hour": 12, "minute": 0, "report": "AAXX 24124 87127 32665 62305 10122 20107 39838 40173 52023 86500 333 10127 20090 56500 86640="}], "87573": [{"year": 2026, "month": 7, "day": 24, "hour": 12, "minute": 0, "report": "AAXX 24124 87573 32560 70503 10124 20105 30173 40202 52013 81776 333 1//// 20115 56866 81720 85360 85270="}, {"year": 2026, "month": 7, "day": 24, "hour": 11, "minute": 0, "report": "AAXX 24114 87573 42560 70205 10121 20104 30166 40195 5//// 82575 333 56866 82620 86360="}, {"year": 2026, "month": 7, "day": 24, "hour": 10, "minute": 0, "report": "AAXX 24104 87573 42560 80202 10122 20107 30165 40194 5//// 83575 333 56866 83625 87360="}], "87506": [{"year": 2026, "month": 7, "day": 24, "hour": 12, "minute": 0, "report": "AAXX 24124 87506 12970 72703 10000 21059 38580 48501 52015 69904 83074 333 10052 21006 56066 83360 85070 95000="}, {"year": 2026, "month": 7, "day": 24, "hour": 11, "minute": 0, "report": "AAXX 24114 87506 42970 43403 11006 21046 38576 48497 52016 83071 333 56066 83360 95090="}, {"year": 2026, "month": 7, "day": 24, "hour": 10, "minute": 0, "report": "AAXX 24104 87506 42970 03203 10003 21045 38570 48491 52009 333 95090="}], "87213": [{"year": 2026, "month": 7, "day": 24, "hour": 12, "minute": 0, "report": "AAXX 24124 87213 31960 00000 10028 20022 39110 48505 53020 74140 333 10086 20017="}], "87349": [{"year": 2026, "month": 7, "day": 24, "hour": 12, "minute": 0, "report": "AAXX 24124 87349 32560 81405 10096 20092 39785 40191 52025 885// 333 10098 20090 30006 56099 88622="}, {"year": 2026, "month": 7, "day": 24, "hour": 11, "minute": 0, "report": "AAXX 24114 87349 42560 81402 10096 20088 39774 40180 52020 885// 333 56099 88620="}, {"year": 2026, "month": 7, "day": 24, "hour": 10, "minute": 0, "report": "AAXX 24104 87349 42560 80502 10096 20088 39768 40172 52010 885// 333 56099 88620="}], "87163": [{"year": 2026, "month": 7, "day": 24, "hour": 12, "minute": 0, "report": "AAXX 24123 87163 31260 70902 10149 20146 39244 48516 5//// 7102/ 83670 333 10149 20111 31011 56180 81705 83630 86360="}], "87453": [{"year": 2026, "month": 7, "day": 24, "hour": 12, "minute": 0, "report": "AAXX 24124 87453 11/01 93205 10050 20050 39686 40194 52024 69904 74340 333 10090 20041 30004="}, {"year": 2026, "month": 7, "day": 24, "hour": 11, "minute": 0, "report": "AAXX 24114 87453 41/00 93203 10060 20060 39678 40183 52016 74540="}, {"year": 2026, "month": 7, "day": 24, "hour": 10, "minute": 0, "report": "AAXX 24104 87453 41/00 90203 10065 20059 39669 40172 52006 74740="}], "87480": [{"year": 2026, "month": 7, "day": 24, "hour": 12, "minute": 0, "report": "AAXX 24124 87480 11930 62302 10101 20097 30156 40186 52017 69904 74142 85084 333 10140 20094 30007 56087 85360 85070="}, {"year": 2026, "month": 7, "day": 24, "hour": 11, "minute": 0, "report": "AAXX 24114 87480 41558 70702 10112 20108 30152 40181 52019 71142 85574 333 56176 85621 83360 87070="}, {"year": 2026, "month": 7, "day": 24, "hour": 10, "minute": 0, "report": "AAXX 24104 87480 42465 71803 10111 20087 30146 40176 53007 85504 333 56106 85615 87070="}], "87582": [{"year": 2026, "month": 7, "day": 24, "hour": 12, "minute": 0, "report": "AAXX 24124 87582 01460 80406 10133 20109 30192 40199 52009 69904 70362 886// 333 10145 20123 30011 56199 69901 82712 88650="}, {"year": 2026, "month": 7, "day": 24, "hour": 11, "minute": 0, "report": "AAXX 24114 87582 42460 70305 10130 20103 30188 40195 51008 87600 333 56800 82712 87648="}, {"year": 2026, "month": 7, "day": 24, "hour": 10, "minute": 0, "report": "AAXX 24104 87582 42460 83607 10132 20107 30188 40194 55000 886// 333 56899 84713 88635="}], "87553": [{"year": 2026, "month": 7, "day": 24, "hour": 12, "minute": 0, "report": "AAXX 24124 87553 01960 80505 10124 20107 30188 40198 53009 69904 70262 8807/ 333 10133 20117 56069 69901 88360="}, {"year": 2026, "month": 7, "day": 24, "hour": 11, "minute": 0, "report": "AAXX 24114 87553 42760 80707 10120 20107 30182 40192 53003 85506 333 56707 85650 83270="}, {"year": 2026, "month": 7, "day": 24, "hour": 10, "minute": 0, "report": "AAXX 24104 87553 42660 60706 10118 20107 30180 40190 55004 81570 333 56770 81639 85360="}], "87371": [{"year": 2026, "month": 7, "day": 24, "hour": 12, "minute": 0, "report": "AAXX 24124 87371 32662 60803 10123 20116 30162 40184 50015 82506 333 10139 20102 56607 82640 85270="}, {"year": 2026, "month": 7, "day": 24, "hour": 11, "minute": 0, "report": "AAXX 24114 87371 42662 61203 10114 20108 30164 40185 53015 84506 333 56607 84640 85270="}, {"year": 2026, "month": 7, "day": 24, "hour": 10, "minute": 0, "report": "AAXX 24104 87371 42662 42804 10105 20097 30152 40174 58003 84500 333 56600 84640="}], "87574": [{"year": 2026, "month": 7, "day": 24, "hour": 12, "minute": 0, "report": "AAXX 24124 87574 31958 80304 10131 20112 30164 40192 53011 69904 71052 8807/ 333 10142 20120 3//// 56079 69901 88360="}, {"year": 2026, "month": 7, "day": 24, "hour": 11, "minute": 0, "report": "AAXX 24114 87574 41960 89902 10127 20110 30158 40187 50005 70252 8807/ 333 56079 88360="}, {"year": 2026, "month": 7, "day": 24, "hour": 10, "minute": 0, "report": "AAXX 24104 87574 41760 80502 10126 20113 30160 40188 54000 72055 8807/ 333 56079 88550="}], "87679": [{"year": 2026, "month": 7, "day": 24, "hour": 12, "minute": 0, "report": "AAXX 24124 87679 01220 83205 10091 20087 39817 40184 5//// 69954 71052 886// 333 10091 20085 31007 56799 69952 88705="}], "87497": [{"year": 2026, "month": 7, "day": 24, "hour": 12, "minute": 0, "report": "AAXX 24124 87497 32965 60502 10120 20112 30164 40189 51008 85058 333 10136 20120 56066 85360 86270="}, {"year": 2026, "month": 7, "day": 24, "hour": 11, "minute": 0, "report": "AAXX 24114 87497 42965 60502 10120 20112 30162 40187 51012 85058 333 56066 85360 86270="}, {"year": 2026, "month": 7, "day": 24, "hour": 10, "minute": 0, "report": "AAXX 24104 87497 42965 60502 10120 20112 30158 40183 51007 80008 333 56006 86270="}], "87540": [{"year": 2026, "month": 7, "day": 24, "hour": 12, "minute": 0, "report": "AAXX 24124 87540 11/00 90000 10090 20088 30072 40188 52018 69934 74542 333 10108 20085="}], "87765": [{"year": 2026, "month": 7, "day": 24, "hour": 12, "minute": 0, "report": "AAXX 24124 87765 01559 82704 10018 20003 39162 48436 52009 60014 75052 888// 333 10035 20013 56799 69901 82827 88640="}, {"year": 2026, "month": 7, "day": 24, "hour": 11, "minute": 0, "report": "AAXX 24114 87765 41460 72708 10019 20001 39158 48434 50008 72052 86570 333 56770 82718 86645="}, {"year": 2026, "month": 7, "day": 24, "hour": 10, "minute": 0, "report": "AAXX 24104 87765 42460 72711 10028 20006 39160 48437 52011 86570 333 56660 84718 86645="}], "87934": [{"year": 2026, "month": 7, "day": 24, "hour": 12, "minute": 0, "report": "AAXX 24124 87934 01580 71806 11022 21031 30081 40109 57008 69904 72272 87500 333 11022 21040 56600 69901 87625="}, {"year": 2026, "month": 7, "day": 24, "hour": 11, "minute": 0, "report": "AAXX 24114 87934 41459 81906 11025 21037 30084 40112 57009 77072 88700 333 56500 88714="}, {"year": 2026, "month": 7, "day": 24, "hour": 10, "minute": 0, "report": "AAXX 24104 87934 42480 82004 11026 21039 30086 40114 57012 88500 333 56500 88612="}], "87509": [{"year": 2026, "month": 7, "day": 24, "hour": 12, "minute": 0, "report": "AAXX 24124 87509 32970 62708 10062 21010 39302 40182 52016 81071 333 10085 20031 56055 81360 86070="}, {"year": 2026, "month": 7, "day": 24, "hour": 11, "minute": 0, "report": "AAXX 24114 87509 42970 62706 10066 21004 39297 40174 53/// 81071 333 56055 81360 85070="}, {"year": 2026, "month": 7, "day": 24, "hour": 10, "minute": 0, "report": "AAXX 24104 87509 42970 62705 10060 21012 39286 40161 53/// 80001 333 56005 86070="}], "87173": [{"year": 2026, "month": 7, "day": 24, "hour": 12, "minute": 0, "report": "AAXX 24123 87173 11410 71405 10156 20153 30072 40158 5//// 69904 71022 87700 333 10156 20125 30012 56700 87710="}], "87640": [{"year": 2026, "month": 7, "day": 24, "hour": 12, "minute": 0, "report": "AAXX 24123 87640 31460 80000 10100 20100 30082 40197 52018 702// 886// 333 10110 20091 31006 56099 88710="}], "87719": [{"year": 2026, "month": 7, "day": 24, "hour": 12, "minute": 0, "report": "AAXX 24123 87719 32975 13601 10015 20006 39851 40175 52010 81030 333 10086 20010 56060 81360="}], "87823": [{"year": 2026, "month": 7, "day": 24, "hour": 12, "minute": 0, "report": "AAXX 24124 87823 12580 32707 10019 20011 39952 40119 52020 69994 81505 333 1082 20013 56300 81620="}, {"year": 2026, "month": 7, "day": 24, "hour": 11, "minute": 0, "report": "AAXX 24114 87823 42580 32708 10015 20001 39945 40112 52028 81505 333 56200 81620="}, {"year": 2026, "month": 7, "day": 24, "hour": 10, "minute": 0, "report": "AAXX 24104 87823 42580 42706 10022 20006 39941 40108 52021 82505 333 56300 82620 83270="}], "87050": [{"year": 2026, "month": 7, "day": 24, "hour": 12, "minute": 0, "report": "AAXX 24124 87050 11345 81402 10098 20082 39198 48511 52013 60001 71022 887// 333 10108 20090="}], "87217": [{"year": 2026, "month": 7, "day": 24, "hour": 12, "minute": 0, "report": "AAXX 24124 87217 32470 72304 10082 20072 39658 40180 52023 87600 333 10097 20025 56400 87715="}, {"year": 2026, "month": 7, "day": 24, "hour": 11, "minute": 0, "report": "AAXX 24114 87217 42470 72708 10073 20065 39656 40176 52021 87600 333 56400 87715="}, {"year": 2026, "month": 7, "day": 24, "hour": 10, "minute": 0, "report": "AAXX 24104 87217 42470 12306 10063 20052 39646 40167 53004 81600 333 56400 81710="}], "87244": [{"year": 2026, "month": 7, "day": 24, "hour": 12, "minute": 0, "report": "AAXX 24123 87244 32556 60000 10048 20039 39774 40187 5//// 71022 82506 333 10080 20032 56806 82630 84270 5555 90000="}], "87791": [{"year": 2026, "month": 7, "day": 24, "hour": 12, "minute": 0, "report": "AAXX 24124 87791 11562 13109 10068 20057 30128 40136 52016 69914 71011 81130 333 10098 20067 31004 56760 81820="}, {"year": 2026, "month": 7, "day": 24, "hour": 11, "minute": 0, "report": "AAXX 24114 87791 42480 13112 10073 20060 30118 40127 53001 81730 333 56760 81712="}, {"year": 2026, "month": 7, "day": 24, "hour": 10, "minute": 0, "report": "AAXX 24104 87791 42480 23311 10077 20066 30116 40125 55007 81770 333 56760 81712="}], "87761": [{"year": 2026, "month": 7, "day": 24, "hour": 12, "minute": 0, "report": "AAXX 24124 87761 01456 80000 10016 20011 39228 40154 51007 60074 76362 885// 333 10040 20015 56299 60032 88615="}, {"year": 2026, "month": 7, "day": 24, "hour": 11, "minute": 0, "report": "AAXX 24114 87761 41558 80000 10020 20010 39229 40153 52010 76162 885// 333 56099 88630="}, {"year": 2026, "month": 7, "day": 24, "hour": 10, "minute": 0, "report": "AAXX 24104 87761 42565 80000 10022 20007 39221 40142 54000 88570 333 56600 88630="}], "87641": [{"year": 2026, "month": 7, "day": 24, "hour": 12, "minute": 0, "report": "AAXX 24124 87641 01408 83609 10098 20094 30006 40185 54000 69944 74254 8567/ 333 10102 20082 32008 56189 69931 85712 88360="}, {"year": 2026, "month": 7, "day": 24, "hour": 11, "minute": 0, "report": "AAXX 24114 87641 41403 80204 10094 20086 30009 40188 51004 74644 8562/ 333 56189 85710 88550="}, {"year": 2026, "month": 7, "day": 24, "hour": 10, "minute": 0, "report": "AAXX 24104 87641 41405 80205 10094 20086 30006 40186 55003 74444 8562/ 333 56189 85710 88550="}], "87448": [{"year": 2026, "month": 7, "day": 24, "hour": 12, "minute": 0, "report": "AAXX 24124 87448 31958 73205 10031 20026 39614 40202 52017 71022 80006 333 10078 20000 56006 87270="}, {"year": 2026, "month": 7, "day": 24, "hour": 11, "minute": 0, "report": "AAXX 24114 87448 42960 62706 10019 20016 39612 40198 52017 80006 333 56006 86270="}, {"year": 2026, "month": 7, "day": 24, "hour": 10, "minute": 0, "report": "AAXX 24104 87448 42960 53204 10009 20001 39598 40180 51007 80006 333 56006 85270="}], "87395": [{"year": 2026, "month": 7, "day": 24, "hour": 12, "minute": 0, "report": "AAXX 24124 87395 32965 70907 10146 20122 30146 40191 51015 87050 333 10146 20110 30010 56060 87360="}, {"year": 2026, "month": 7, "day": 24, "hour": 11, "minute": 0, "report": "AAXX 24114 87395 42965 70000 10134 20123 30145 40190 53014 87050 333 56060 87360="}, {"year": 2026, "month": 7, "day": 24, "hour": 10, "minute": 0, "report": "AAXX 24104 87395 42965 80902 10128 20113 30138 40184 53006 8807/ 333 56069 88360="}], "87257": [{"year": 2026, "month": 7, "day": 24, "hour": 12, "minute": 0, "report": "AAXX 24124 87257 31901 01002 10084 20078 30072 40179 53016 7444/ 333 10112 20054 30005="}, {"year": 2026, "month": 7, "day": 24, "hour": 11, "minute": 0, "report": "AAXX 24114 87257 41901 00505 10073 20067 30061 40168 51010 74444="}, {"year": 2026, "month": 7, "day": 24, "hour": 10, "minute": 0, "report": "AAXX 24104 87257 41901 00703 10077 20068 30058 40166 53007 7464/="}], "87046": [{"year": 2026, "month": 7, "day": 24, "hour": 12, "minute": 0, "report": "AAXX 24124 87046 31560 83002 10113 20072 39129 48500 52023 70422 885// 333 10115 20098 56099 88626="}, {"year": 2026, "month": 7, "day": 24, "hour": 11, "minute": 0, "report": "AAXX 24114 87046 41560 83302 10107 20074 39120 48491 52019 70422 885// 333 56099 88625="}, {"year": 2026, "month": 7, "day": 24, "hour": 10, "minute": 0, "report": "AAXX 24104 87046 42565 83202 10103 20088 39112 48484 53008 885// 333 56499 88628="}], "87320": [{"year": 2026, "month": 7, "day": 24, "hour": 12, "minute": 0, "report": "AAXX 24123 87320 32670 31405 10093 20070 39618 40165 5//// 83500 333 10103 20066 56300 83640="}], "87187": [{"year": 2026, "month": 7, "day": 24, "hour": 12, "minute": 0, "report": "AAXX 24123 87187 32970 81802 10098 20059 39828 40193 5//// 885// 333 10108 20080 56399 8619="}], "87912": [{"year": 2026, "month": 7, "day": 24, "hour": 12, "minute": 0, "report": "AAXX 24123 87912 01310 80205 10015 20015 39906 40045 57001 60114 76164 8862/ 333 10032 20014 56009 60112 87509 88710 96046="}], "87925": [{"year": 2026, "month": 7, "day": 24, "hour": 12, "minute": 0, "report": "AAXX 24124 87925 01112 89902 10012 20012 30042 40074 57012 60014 75165 886// 333 10022 21076 44998 56899 69991 88703 96010="}, {"year": 2026, "month": 7, "day": 24, "hour": 11, "minute": 0, "report": "AAXX 24114 87925 41230 81305 10010 20007 30045 40077 57013 75155 886// 333 56899 84704 88710 96010="}, {"year": 2026, "month": 7, "day": 24, "hour": 10, "minute": 0, "report": "AAXX 24104 87925 41456 81505 10008 21003 30048 40080 57018 75152 8362/ 333 56889 83710 88545="}], "87571": [{"year": 2026, "month": 7, "day": 24, "hour": 12, "minute": 0, "report": "AAXX 24124 87571 01960 70403 10129 20108 30182 40197 53008 69904 70152 85076 333 10141 20120 56066 69901 85360 86270="}, {"year": 2026, "month": 7, "day": 24, "hour": 11, "minute": 0, "report": "AAXX 24114 87571 42960 80603 10125 20108 30176 40191 51004 85077 333 56066 85360 88270="}, {"year": 2026, "month": 7, "day": 24, "hour": 10, "minute": 0, "report": "AAXX 24104 87571 42560 60505 10127 20108 30176 40191 55003 81570 333 56160 81620 86360="}], "87416": [{"year": 2026, "month": 7, "day": 24, "hour": 12, "minute": 0, "report": "AAXX 24124 87416 32465 22505 10042 20020 39409 40183 51012 81504 333 10087 20032 30004 56606 81615="}], "87420": [{"year": 2026, "month": 7, "day": 24, "hour": 12, "minute": 0, "report": "AAXX 24124 87420 32565 32603 10040 20021 39214 48480 53008 81706 333 10062 20030 30000 56606 81725 83270="}, {"year": 2026, "month": 7, "day": 24, "hour": 11, "minute": 0, "report": "AAXX 24114 87420 42965 00000 10038 20029 39212 48479 5////="}, {"year": 2026, "month": 7, "day": 24, "hour": 10, "minute": 0, "report": "AAXX 24104 87420 42965 02703 10038 20029 39206 48474 5////="}], "87548": [{"year": 2026, "month": 7, "day": 24, "hour": 12, "minute": 0, "report": "AAXX 24124 87548 11450 80202 10104 20100 30097 40196 52015 69914 71022 8257/ 333 10111 20095 31010 56379 82618 88557="}, {"year": 2026, "month": 7, "day": 24, "hour": 11, "minute": 0, "report": "AAXX 24114 87548 41450 80203 10104 20100 30088 40187 53005 71022 885// 333 56199 88618="}, {"year": 2026, "month": 7, "day": 24, "hour": 10, "minute": 0, "report": "AAXX 24104 87548 42360 80504 10102 20096 30084 40183 51008 886// 333 56199 88709="}], "87222": [{"year": 2026, "month": 7, "day": 24, "hour": 12, "minute": 0, "report": "AAXX 24124 87222 31957 00503 10032 20007 39624 40179 52025 71000 333 10118 20019="}, {"year": 2026, "month": 7, "day": 24, "hour": 11, "minute": 0, "report": "AAXX 24114 87222 41950 00000 10032 20022 39618 40172 53016 71000="}, {"year": 2026, "month": 7, "day": 24, "hour": 10, "minute": 0, "report": "AAXX 24104 87222 42970 00204 10054 20036 39604 40154 52008="}], "87570": [{"year": 2026, "month": 7, "day": 24, "hour": 12, "minute": 0, "report": "AAXX 24124 87570 31660 80503 10121 20110 30169 40201 52013 700// 8557/ 333 1//// 20094 56009 85640 85360="}], "87852": [{"year": 2026, "month": 7, "day": 24, "hour": 12, "minute": 0, "report": "AAXX 24124 87852 12484 73605 11132 21132 39562 40104 52009 60034 87600 333 11037 21132 49015 56600 87710="}, {"year": 2026, "month": 7, "day": 24, "hour": 11, "minute": 0, "report": "AAXX 24113 87852 42484 40000 11130 21135 39557 4//// 5//// 84600 333 56600 84718="}, {"year": 2026, "month": 7, "day": 24, "hour": 10, "minute": 0, "report": "AAXX 24104 87852 42480 70000 11120 21125 39553 4//// 5//// 87500 333 56600 87712="}], "87166": [{"year": 2026, "month": 7, "day": 24, "hour": 12, "minute": 0, "report": "AAXX 24124 87166 12560 81807 10143 20125 30097 40172 51023 69904 8457/ 333 10143 20136 56179 84620 88360="}, {"year": 2026, "month": 7, "day": 24, "hour": 11, "minute": 0, "report": "AAXX 24114 87166 42360 82005 10136 20127 30097 40172 53021 8767/ 333 56379 81707 83620 88360="}, {"year": 2026, "month": 7, "day": 24, "hour": 10, "minute": 0, "report": "AAXX 24104 87166 42360 81606 10137 20122 30082 40156 53004 886// 333 56399 83708 88620="}], "87065": [{"year": 2026, "month": 7, "day": 24, "hour": 12, "minute": 0, "report": "AAXX 24123 87065 32570 80000 10130 20082 39883 40123 5//// 885// 333 10190 20118 56800 88630="}], "87572": [{"year": 2026, "month": 7, "day": 24, "hour": 12, "minute": 0, "report": "AAXX 24124 87572 32560 70202 10122 20107 30156 40195 5//// 83870 333 1//// 20114 56410 83630 87360="}, {"year": 2026, "month": 7, "day": 24, "hour": 11, "minute": 0, "report": "AAXX 24114 87572 42960 70503 10120 20109 30152 40190 5//// 87070 333 56010 87360="}], "87444": [{"year": 2026, "month": 7, "day": 24, "hour": 12, "minute": 0, "report": "AAXX 24124 87444 32970 70000 10039 20015 39456 40190 52015 87500 333 10053 20007 56000 87640 95000="}, {"year": 2026, "month": 7, "day": 24, "hour": 11, "minute": 0, "report": "AAXX 24114 87444 42670 60000 10018 21004 39453 40176 52012 86500 333 56000 86640 95000="}], "87418": [{"year": 2026, "month": 7, "day": 24, "hour": 12, "minute": 0, "report": "AAXX 24124 87418 31958 30000 10034 20027 39354 40188 51008 71000 80005 333 10086 20023 56004 83270="}, {"year": 2026, "month": 7, "day": 24, "hour": 11, "minute": 0, "report": "AAXX 24114 87418 41958 22303 10028 20018 39352 40184 52008 71000 80005 333 56005 82270="}, {"year": 2026, "month": 7, "day": 24, "hour": 10, "minute": 0, "report": "AAXX 24104 87418 41958 22303 10030 20020 39348 40178 52008 71000 80005 333 56005 82270="}], "87129": [{"year": 2026, "month": 7, "day": 24, "hour": 12, "minute": 0, "report": "AAXX 24124 87129 32560 42902 10104 20079 39933 40172 52019 84650 333 10137 20098 56260 84720 84360="}, {"year": 2026, "month": 7, "day": 24, "hour": 11, "minute": 0, "report": "AAXX 24114 87129 42560 70702 10116 20092 39922 40161 52012 84650 333 56260 84720 87360="}, {"year": 2026, "month": 7, "day": 24, "hour": 10, "minute": 0, "report": "AAXX 24104 87129 42560 80803 10119 20089 39914 40152 51004 8467/ 333 56279 84720 87360="}], "87328": [{"year": 2026, "month": 7, "day": 24, "hour": 12, "minute": 0, "report": "AAXX 24124 87328 31980 51406 10054 20043 39514 40191 51012 703// 80006 333 10104 20033 30002 56006 85270 95000="}], "87121": [{"year": 2026, "month": 7, "day": 24, "hour": 12, "minute": 0, "report": "AAXX 24124 87121 31657 33404 10101 20089 39648 40177 51023 71011 83500 333 10112 20094 56400 83640="}, {"year": 2026, "month": 7, "day": 24, "hour": 11, "minute": 0, "report": "AAXX 24114 87121 41650 73404 10099 20091 39641 40170 53019 71022 87500 333 56300 87640="}, {"year": 2026, "month": 7, "day": 24, "hour": 10, "minute": 0, "report": "AAXX 24104 87121 41658 83603 10100 20090 39630 40158 52013 71022 885// 333 56799 88639 96004="}], "87544": [{"year": 2026, "month": 7, "day": 24, "hour": 12, "minute": 0, "report": "AAXX 24123 87544 01208 03602 10112 20106 30086 40192 52016 60034 74442 886// 333 10112 20101 56899 60032 88704="}], "87305": [{"year": 2026, "month": 7, "day": 24, "hour": 12, "minute": 0, "report": "AAXX 24124 87305 31960 20000 10017 20004 38845 48504 5//// 70400 82060 333 10185 20004 56060 82360 95000="}], "87596": [{"year": 2026, "month": 7, "day": 24, "hour": 12, "minute": 0, "report": "AAXX 24124 87596 01460 80606 10112 20110 30182 40209 52006 69904 75022 8452/ 333 10102 20090 56779 69902 84710 88550="}], "87178": [{"year": 2026, "month": 7, "day": 24, "hour": 12, "minute": 0, "report": "AAXX 24124 87178 12570 81403 10150 20136 30014 40164 53015 69904 8557/ 333 10152 20124 30011 56779 85628 88360="}, {"year": 2026, "month": 7, "day": 24, "hour": 11, "minute": 0, "report": "AAXX 24114 87178 42570 60906 10143 20132 30005 40154 50008 84570 333 56770 84628 86360="}, {"year": 2026, "month": 7, "day": 24, "hour": 10, "minute": 0, "report": "AAXX 24104 87178 42570 71103 10143 20132 30006 40156 53007 82570 333 56660 82625 87360="}], "87467": [{"year": 2026, "month": 7, "day": 24, "hour": 12, "minute": 0, "report": "AAXX 24124 87467 11460 82701 10098 20092 30054 40194 53019 69904 710// 885// 333 10108 20072 30006 56599 88615="}], "87097": [{"year": 2026, "month": 7, "day": 24, "hour": 12, "minute": 0, "report": "AAXX 24124 87097 01110 80903 10155 20155 39850 40168 53016 69904 75052 887// 333 10197 20134 56099 69901 85702 88710 96010="}, {"year": 2026, "month": 7, "day": 24, "hour": 11, "minute": 0, "report": "AAXX 24114 87097 41112 80906 10152 20152 39846 40163 52016 75352 887// 333 56599 82702 88710 96010="}, {"year": 2026, "month": 7, "day": 24, "hour": 10, "minute": 0, "report": "AAXX 24104 87097 42460 80704 10154 20152 39840 40156 52011 886// 333 56899 88716="}], "87211": [{"year": 2026, "month": 7, "day": 24, "hour": 12, "minute": 0, "report": "AAXX 24123 87211 32970 21608 10032 20005 38799 48488 51040 80001 333 10094 20000 56005="}], "87532": [{"year": 2026, "month": 7, "day": 24, "hour": 12, "minute": 0, "report": "AAXX 24124 87532 31/01 92705 10069 20069 30010 40187 52024 74741 333 10099 20067 89/00="}, {"year": 2026, "month": 7, "day": 24, "hour": 11, "minute": 0, "report": "AAXX 24114 87532 41310 83203 10069 20069 30001 40178 53015 71022 886// 333 56799 88707="}, {"year": 2026, "month": 7, "day": 24, "hour": 10, "minute": 0, "report": "AAXX 24104 87532 41940 23604 10071 20071 39993 40170 53005 71000 80005 333 56005 82270="}], "87007": [{"year": 2026, "month": 7, "day": 24, "hour": 12, "minute": 0, "report": "AAXX 24123 87007 31950 00000 10002 21042 36765 47179 52016 704// 333 1//// 21041="}], "87436": [{"year": 2026, "month": 7, "day": 24, "hour": 12, "minute": 0, "report": "AAXX 24124 87436 32670 70205 10067 20052 39350 40191 52016 81506 333 10075 20050 30001 56706 81635 87270="}, {"year": 2026, "month": 7, "day": 24, "hour": 11, "minute": 0, "report": "AAXX 24114 87436 42670 63604 10059 20048 39346 40187 52019 81506 333 56806 81635 85270="}, {"year": 2026, "month": 7, "day": 24, "hour": 10, "minute": 0, "report": "AAXX 24104 87436 42970 60207 10053 20039 39336 40174 53004 81076 333 56066 81360 85270="}], "87043": [{"year": 2026, "month": 7, "day": 24, "hour": 12, "minute": 0, "report": "AAXX 24124 87043 31558 83202 10081 20059 38700 48494 52020 71022 885// 333 10096 20079 56099 88625="}, {"year": 2026, "month": 7, "day": 24, "hour": 11, "minute": 0, "report": "AAXX 24114 87043 41557 80000 10080 20062 38692 48487 51013 71022 885// 333 56099 88625="}, {"year": 2026, "month": 7, "day": 24, "hour": 10, "minute": 0, "report": "AAXX 24104 87043 41558 81802 10083 20059 38686 48482 51006 71022 885// 333 56399 88625="}], "87904": [{"year": 2026, "month": 7, "day": 24, "hour": 12, "minute": 0, "report": "AAXX 24124 87904 11103 21104 11038 21038 39825 40083 58001 60034 74642 88606 333 11021 21066 47011 56606 84702 84710="}, {"year": 2026, "month": 7, "day": 24, "hour": 11, "minute": 0, "report": "AAXX 24114 87904 41115 21303 11040 21040 39826 40085 56004 71022 886// 333 56600 84703 84710="}, {"year": 2026, "month": 7, "day": 24, "hour": 10, "minute": 0, "report": "AAXX 24104 87904 41215 81205 11046 21046 39826 40086 56009 71022 886// 333 56699 85705 83710="}], "87534": [{"year": 2026, "month": 7, "day": 24, "hour": 12, "minute": 0, "report": "AAXX 24124 87534 31408 70000 10067 20037 30030 40197 52032 74241 87500 333 10110 20045 56800 87617="}, {"year": 2026, "month": 7, "day": 24, "hour": 11, "minute": 0, "report": "AAXX 24114 87534 41301 80000 10063 20052 30025 40192 5//// 74441 886// 333 56899 88708="}, {"year": 2026, "month": 7, "day": 24, "hour": 10, "minute": 0, "report": "AAXX 24104 87534 41901 00000 10053 20046 30014 40181 5//// 74440="}], "87563": [{"year": 2026, "month": 7, "day": 24, "hour": 12, "minute": 0, "report": "AAXX 24124 87563 01558 83604 10106 20106 30140 40184 51001 69914 71052 82776 333 10107 20102 56876 69912 82725 86360 87270="}], "87360": [{"year": 2026, "month": 7, "day": 24, "hour": 12, "minute": 0, "report": "AAXX 24123 87360 31950 60000 10088 20088 30057 40177 52013 71022 86070 333 10103 20088 3//// 56060 86360="}], "87814": [{"year": 2026, "month": 7, "day": 24, "hour": 12, "minute": 0, "report": "AAXX 24123 87814 12983 42708 10025 20001 39538 40114 52014 60054 83078 333 10031 21017 42999 56066 83460="}], "87311": [{"year": 2026, "month": 7, "day": 24, "hour": 12, "minute": 0, "report": "AAXX 24124 87311 32465 80000 10047 20035 39486 40198 52016 88700 333 10095 20023 56600 88710="}, {"year": 2026, "month": 7, "day": 24, "hour": 11, "minute": 0, "report": "AAXX 24114 87311 42465 40000 10037 20001 39478 40190 52016 84700 333 56200 84710="}, {"year": 2026, "month": 7, "day": 24, "hour": 10, "minute": 0, "report": "AAXX 24104 87311 42465 40000 10023 20018 39472 40183 52016 84700 333 56200 84710="}], "87800": [{"year": 2026, "month": 7, "day": 24, "hour": 12, "minute": 0, "report": "AAXX 24123 87800 01670 70000 10003 21003 39746 40147 53010 60024 7155/ 83820 333 10037 21005 56660 69902 82838 84548="}], "87896": [{"year": 2026, "month": 7, "day": 24, "hour": 12, "minute": 0, "report": "AAXX 24123 87896 01101 82708 10003 20000 39940 40039 5//// 60084 74642 8661/ 333 10062 20001 56699 60052 86702 88440="}], "87347": [{"year": 2026, "month": 7, "day": 24, "hour": 12, "minute": 0, "report": "AAXX 24124 87347 11330 42007 10055 20048 39600 40196 52030 69904 710// 84701 333 1//// 20045 56400 84708="}], "87692": [{"year": 2026, "month": 7, "day": 24, "hour": 12, "minute": 0, "report": "AAXX 24124 87692 01460 80208 10100 20088 30173 40199 52004 69904 70252 885// 333 10100 20074 30006 56199 69901 88615="}, {"year": 2026, "month": 7, "day": 24, "hour": 11, "minute": 0, "report": "AAXX 24114 87692 41560 83607 10098 20086 30172 40197 55000 72055 885// 333 56899 88620="}, {"year": 2026, "month": 7, "day": 24, "hour": 10, "minute": 0, "report": "AAXX 24104 87692 41457 80208 10093 20083 30170 40196 55004 75055 886// 333 56199 83715 88620="}], "87162": [{"year": 2026, "month": 7, "day": 24, "hour": 12, "minute": 0, "report": "AAXX 24124 87162 01315 82003 10156 20149 30098 40171 53024 69904 75285 887// 333 10163 20144 31014 56499 69901 88708 96010="}, {"year": 2026, "month": 7, "day": 24, "hour": 11, "minute": 0, "report": "AAXX 24114 87162 42570 81802 10154 20147 30086 40159 53009 8357/ 333 56469 83630 88360="}, {"year": 2026, "month": 7, "day": 24, "hour": 10, "minute": 0, "report": "AAXX 24104 87162 41970 81602 10151 20146 30074 40146 56004 70282 8807/ 333 56059 88360="}], "87078": [{"year": 2026, "month": 7, "day": 24, "hour": 12, "minute": 0, "report": "AAXX 24123 87078 32970 80902 10146 20132 30012 40166 5//// 8807/ 333 10146 20130 56099 88360="}], "87938": [{"year": 2026, "month": 7, "day": 24, "hour": 12, "minute": 0, "report": "AAXX 24124 87938 32980 30205 11035 21067 30026 40100 57005 80005 333 11020 21043 56009 83270 95000="}, {"year": 2026, "month": 7, "day": 24, "hour": 11, "minute": 0, "report": "AAXX 24114 87938 42980 03608 11030 21073 30029 40101 56008 333 95000="}, {"year": 2026, "month": 7, "day": 24, "hour": 10, "minute": 0, "report": "AAXX 24104 87938 42980 03606 11035 21075 30030 40102 56015 333 95000="}], "87616": [{"year": 2026, "month": 7, "day": 24, "hour": 12, "minute": 0, "report": "AAXX 24123 87616 31/01 93605 10040 20040 39810 40190 52027 74742 333 10096 20038="}], "87148": [{"year": 2026, "month": 7, "day": 24, "hour": 12, "minute": 0, "report": "AAXX 24124 87148 01270 81102 10143 20134 30061 40171 53023 69924 72052 886// 333 10155 20139 30014 56399 69922 88705="}, {"year": 2026, "month": 7, "day": 24, "hour": 11, "minute": 0, "report": "AAXX 24114 87148 41230 81102 10141 20134 30054 40164 51025 75052 886// 333 56399 88705="}, {"year": 2026, "month": 7, "day": 24, "hour": 10, "minute": 0, "report": "AAXX 24104 87148 42270 80000 10142 20135 30050 40160 53016 886// 333 56599 88706="}], "87022": [{"year": 2026, "month": 7, "day": 24, "hour": 12, "minute": 0, "report": "AAXX 24123 87022 31458 82702 10138 20120 39635 40154 5//// 71522 8577/ 333 10152 20132 56009 83710 85635="}], "87374": [{"year": 2026, "month": 7, "day": 24, "hour": 12, "minute": 0, "report": "AAXX 24124 87374 31902 73602 10108 20106 30090 40180 52012 74441 87070 333 10136 20105 56070 87360="}, {"year": 2026, "month": 7, "day": 24, "hour": 11, "minute": 0, "report": "AAXX 24114 87374 41902 80000 10106 20106 30089 40179 53009 74644 8807/ 333 56079 88360="}, {"year": 2026, "month": 7, "day": 24, "hour": 10, "minute": 0, "report": "AAXX 24104 87374 41504 31603 10105 20103 30081 40170 52003 74640 83500 333 56400 83625="}], "87550": [{"year": 2026, "month": 7, "day": 24, "hour": 12, "minute": 0, "report": "AAXX 24123 87550 01408 80503 10110 20102 30101 40194 52015 69914 74442 885// 333 10110 20094 56199 69902 88610="}], "87649": [{"year": 2026, "month": 7, "day": 24, "hour": 12, "minute": 0, "report": "AAXX 24123 87649 31458 83402 10097 20093 39929 40180 5//// 71022 886// 333 10097 20080 31007 56799 88718="}], "87828": [{"year": 2026, "month": 7, "day": 24, "hour": 12, "minute": 0, "report": "AAXX 24124 87828 12980 22707 10028 20012 30066 40119 52017 60014 81072 333 10085 20010 56077 81360="}, {"year": 2026, "month": 7, "day": 24, "hour": 11, "minute": 0, "report": "AAXX 24114 87828 42980 22907 10014 20005 30058 40111 52012 81072 333 56077 81360="}, {"year": 2026, "month": 7, "day": 24, "hour": 10, "minute": 0, "report": "AAXX 24104 87828 42980 22906 10020 20010 30054 40108 52013 81071 333 56077 81360="}], "87289": [{"year": 2026, "month": 7, "day": 24, "hour": 12, "minute": 0, "report": "AAXX 24124 87289 32360 51103 10135 20128 30106 40190 52020 81676 333 10152 20122 31009 56366 81708 85360="}, {"year": 2026, "month": 7, "day": 24, "hour": 11, "minute": 0, "report": "AAXX 24114 87289 42960 40904 10123 20117 30097 40181 53015 83076 333 56066 83360="}, {"year": 2026, "month": 7, "day": 24, "hour": 10, "minute": 0, "report": "AAXX 24104 87289 42960 60904 10122 20118 30088 40172 53007 84076 333 56066 84360="}], "87047": [{"year": 2026, "month": 7, "day": 24, "hour": 12, "minute": 0, "report": "AAXX 24124 87047 31459 82703 10089 20060 38790 48499 52020 71022 885// 333 10099 20084 30/// 56099 88612 90091 90517="}, {"year": 2026, "month": 7, "day": 24, "hour": 11, "minute": 0, "report": "AAXX 24114 87047 41460 82501 10089 20062 38780 48488 52015 71022 885// 333 56099 88612 90007 90083="}, {"year": 2026, "month": 7, "day": 24, "hour": 10, "minute": 0, "report": "AAXX 24104 87047 42465 80000 10092 20064 38775 48484 53008 885// 333 56099 88612="}], "87593": [{"year": 2026, "month": 7, "day": 24, "hour": 12, "minute": 0, "report": "AAXX 24124 87593 32560 60404 10111 20101 30181 40209 52005 83678 333 10122 20103 30009 56177 83725 84360 86270="}, {"year": 2026, "month": 7, "day": 24, "hour": 11, "minute": 0, "report": "AAXX 24114 87593 42460 70503 10106 20098 30180 40208 52007 83678 333 56177 81715 83620 85360="}, {"year": 2026, "month": 7, "day": 24, "hour": 10, "minute": 0, "report": "AAXX 24104 87593 42460 80503 10112 20098 30177 40205 53001 886// 333 56199 84715 88620="}], "87715": [{"year": 2026, "month": 7, "day": 24, "hour": 12, "minute": 0, "report": "AAXX 24124 87715 31950 10000 10000 21003 39838 40171 52016 71000 81070 333 10089 21005 30104 56060 81360="}, {"year": 2026, "month": 7, "day": 24, "hour": 11, "minute": 0, "report": "AAXX 24114 87715 41956 00000 10001 21005 39836 40168 52015 71000="}, {"year": 2026, "month": 7, "day": 24, "hour": 10, "minute": 0, "report": "AAXX 24104 87715 41950 00000 10006 20006 39828 40159 53007 71000="}], "87016": [{"year": 2026, "month": 7, "day": 24, "hour": 12, "minute": 0, "report": "AAXX 24123 87016 31540 80000 10143 20127 39740 40159 52028 70422 885// 333 10154 20136 56899 88620="}, {"year": 2026, "month": 7, "day": 24, "hour": 11, "minute": 0, "report": "AAXX 24113 87016 42460 80000 10141 20123 39726 40145 5//// 885// 333 56899 88617="}, {"year": 2026, "month": 7, "day": 24, "hour": 10, "minute": 0, "report": "AAXX 24103 87016 42260 83205 10143 20129 39717 40134 5//// 886// 333 56899 83704 88617="}], "87585": [{"year": 2026, "month": 7, "day": 24, "hour": 12, "minute": 0, "report": "AAXX 24124 87585 01560 73604 10135 20111 30169 40199 52012 69904 70152 87500 333 10145 20130 56100 69901 87620="}, {"year": 2026, "month": 7, "day": 24, "hour": 11, "minute": 0, "report": "AAXX 24114 87585 41560 80204 10133 20109 30164 40194 52005 70252 885// 333 56199 88620="}, {"year": 2026, "month": 7, "day": 24, "hour": 10, "minute": 0, "report": "AAXX 24104 87585 41460 83607 10132 20109 30164 40193 55000 72052 886// 333 56699 88715="}], "87663": [{"year": 2026, "month": 7, "day": 24, "hour": 12, "minute": 0, "report": "AAXX 24124 87663 32960 83603 10097 20089 30201 40210 50009 8807/ 333 10097 20071 56069 88360="}, {"year": 2026, "month": 7, "day": 24, "hour": 11, "minute": 0, "report": "AAXX 24114 87663 42960 83603 10095 20085 30200 40209 5//// 8807/ 333 56069 88360="}], "87576": [{"year": 2026, "month": 7, "day": 24, "hour": 12, "minute": 0, "report": "AAXX 24124 87576 31760 80905 10120 20112 30174 40198 53011 70352 8807/ 333 10154 20112 56019 88556="}, {"year": 2026, "month": 7, "day": 24, "hour": 11, "minute": 0, "report": "AAXX 24114 87576 41660 70904 10119 20111 30169 40193 50004 70252 84570 333 56110 84635 87550="}, {"year": 2026, "month": 7, "day": 24, "hour": 10, "minute": 0, "report": "AAXX 24104 87576 41560 80505 10125 20112 30170 40194 55001 72052 85570 333 56110 85629 87550="}], "87344": [{"year": 2026, "month": 7, "day": 24, "hour": 12, "minute": 0, "report": "AAXX 24124 87344 32365 62307 10082 20072 39598 40187 52033 84676 333 10087 20064 56566 84709 83360 86270="}, {"year": 2026, "month": 7, "day": 24, "hour": 11, "minute": 0, "report": "AAXX 24114 87344 42365 82004 10082 20070 39589 40179 52075 886// 333 56499 88707="}, {"year": 2026, "month": 7, "day": 24, "hour": 10, "minute": 0, "report": "AAXX 24104 87344 42365 81806 10080 20070 39581 40169 52015 886// 333 56499 88707="}], "87468": [{"year": 2026, "month": 7, "day": 24, "hour": 12, "minute": 0, "report": "AAXX 24124 87468 11557 80000 10098 20096 30054 40189 53017 69934 71022 8177/ 333 10115 20085 30007 56169 81730 88358="}, {"year": 2026, "month": 7, "day": 24, "hour": 11, "minute": 0, "report": "AAXX 24114 87468 41557 70503 10092 20090 30040 40175 53003 71022 83770 333 56160 83725 87358="}, {"year": 2026, "month": 7, "day": 24, "hour": 10, "minute": 0, "report": "AAXX 24104 87468 41458 80303 10094 20092 30034 40170 50002 71022 8567/ 333 56069 85715 88358="}], "87645": [{"year": 2026, "month": 7, "day": 24, "hour": 12, "minute": 0, "report": "AAXX 24124 87645 31/01 90210 10090 20088 39978 40191 53004 74542 333 10090 20073 31007="}, {"year": 2026, "month": 7, "day": 24, "hour": 11, "minute": 0, "report": "AAXX 24114 87645 41/01 90307 10087 20085 39972 40185 58003 74742="}], "87688": [{"year": 2026, "month": 7, "day": 24, "hour": 12, "minute": 0, "report": "AAXX 24124 87688 01256 83204 10103 20095 30056 40196 5//// 69904 76062 885// 333 10103 20089 56799 69902 88606="}], "87270": [{"year": 2026, "month": 7, "day": 24, "hour": 12, "minute": 0, "report": "AAXX 24123 87270 31458 50205 10134 20127 30110 40174 53009 71022 81570 333 10137 20127 56370 81615 84360="}, {"year": 2026, "month": 7, "day": 24, "hour": 11, "minute": 0, "report": "AAXX 24114 87270 41456 61105 10131 20124 30108 40172 51007 71022 83670 333 56370 83715 85360="}, {"year": 2026, "month": 7, "day": 24, "hour": 10, "minute": 0, "report": "AAXX 24104 87270 41456 81102 10136 20127 30108 40172 52012 71022 886// 333 56299 88715="}], "87345": [{"year": 2026, "month": 7, "day": 24, "hour": 12, "minute": 0, "report": "AAXX 24124 87345 12360 82304 10096 20074 39680 40183 52031 69904 886// 333 10100 20075 56499 84708 88712="}, {"year": 2026, "month": 7, "day": 24, "hour": 11, "minute": 0, "report": "AAXX 24114 87345 42460 82303 10094 20072 39672 40174 52021 886// 333 56099 84710 84630="}, {"year": 2026, "month": 7, "day": 24, "hour": 10, "minute": 0, "report": "AAXX 24104 87345 42560 81802 10090 20076 39665 40166 53016 885// 333 56099 88630="}], "87880": [{"year": 2026, "month": 7, "day": 24, "hour": 12, "minute": 0, "report": "AAXX 24124 87880 31000 80000 11040 21067 39634 40066 57016 60024 745// 89/// 333 11040 21060="}], "87909": [{"year": 2026, "month": 7, "day": 24, "hour": 12, "minute": 0, "report": "AAXX 24123 87909 01340 82708 10020 20017 39976 40053 57006 60094 763// 8662/ 333 10040 20017 56009 60092 86708 86545="}], "87322": [{"year": 2026, "month": 7, "day": 24, "hour": 12, "minute": 0, "report": "AAXX 24123 87322 32965 23602 10052 20038 39424 40188 5//// 81034 333 10088 20045 56045 81360="}], "87356": [{"year": 2026, "month": 7, "day": 24, "hour": 12, "minute": 0, "report": "AAXX 24123 87356 31556 51102 10096 20096 30070 40180 52016 71022 81570 333 10116 20086 56660 81620 85360="}, {"year": 2026, "month": 7, "day": 24, "hour": 11, "minute": 0, "report": "AAXX 24113 87356 41556 51102 10092 20092 30062 40173 52009 71022 81570 333 56660 81620 85360="}, {"year": 2026, "month": 7, "day": 24, "hour": 10, "minute": 0, "report": "AAXX 24103 87356 42565 51102 10096 20096 30056 40167 52004 81570 333 56660 81620 85360="}], "87648": [{"year": 2026, "month": 7, "day": 24, "hour": 12, "minute": 0, "report": "AAXX 24124 87648 01960 80508 10103 20097 30192 40202 53003 69964 702// 8807/ 333 10108 20093 31008 56079 69962 88360="}], "87860": [{"year": 2026, "month": 7, "day": 24, "hour": 12, "minute": 0, "report": "AAXX 24124 87860 12980 52704 10039 21001 30014 40071 52009 60064 82056 333 10045 20009 56066 82360 85270="}, {"year": 2026, "month": 7, "day": 24, "hour": 11, "minute": 0, "report": "AAXX 24114 87860 42980 52502 10020 20004 30010 40068 52008 80006 333 56006 85270="}, {"year": 2026, "month": 7, "day": 24, "hour": 10, "minute": 0, "report": "AAXX 24104 87860 42980 30502 10023 20007 30009 40066 52005 80006 333 56006 83270="}], "87405": [{"year": 2026, "month": 7, "day": 24, "hour": 12, "minute": 0, "report": "AAXX 24123 87405 32965 60000 11026 21040 38149 48558 5//// 86010 333 10063 21030 56060 86465="}], "87750": [{"year": 2026, "month": 7, "day": 24, "hour": 12, "minute": 0, "report": "AAXX 24124 87750 12965 13412 10086 20080 30069 40171 51011 69904 81070 333 10106 20083 56070 81360="}, {"year": 2026, "month": 7, "day": 24, "hour": 11, "minute": 0, "report": "AAXX 24114 87750 42765 23410 10090 20080 30066 40169 51009 82500 333 56600 82650="}, {"year": 2026, "month": 7, "day": 24, "hour": 10, "minute": 0, "report": "AAXX 24104 87750 42765 83213 10101 20091 30065 40166 53005 885// 333 56799 88650="}]};
    const OGIMET_URL = "https://www.ogimet.com/cgi-bin/getsynop";

    // OGIMET no envía cabeceras CORS → desde file:// o cualquier web app hay que usar proxy.
    const CORS_PROXIES = [
      (url) => `https://api.allorigins.win/raw?url=${encodeURIComponent(url)}`,
      (url) => `https://corsproxy.io/?${encodeURIComponent(url)}`,
      (url) => `https://api.codetabs.com/v1/proxy/?quest=${encodeURIComponent(url)}`,
    ];

    let selectedStation = null;
    let mapInitialized = false;
    let mapView = { center: { lat: -38.5, lon: -63.5 }, zoom: 3.4 };
    const plotConfig = {
      responsive: true,
      displayModeBar: true,
      scrollZoom: true,
      doubleClick: "reset",
      modeBarButtonsToRemove: [],
    };

    function debugLog(...lines) {
      const panel = document.getElementById("debugPanel");
      const ts = new Date().toISOString().slice(11, 19);
      panel.textContent += `[${ts}] ${lines.join("\n")}\n`;
      panel.scrollTop = panel.scrollHeight;
    }

    function clearDebug() {
      document.getElementById("debugPanel").textContent = "";
    }

    document.getElementById("debugToggle").addEventListener("change", (ev) => {
      document.getElementById("debugPanel").classList.toggle("visible", ev.target.checked);
    });

    function pad(n) { return String(n).padStart(2, "0"); }

    function utcRange(hoursBack) {
      const end = new Date();
      end.setUTCMinutes(0, 0, 0);
      const start = new Date(end.getTime() - hoursBack * 3600 * 1000);
      const fmt = (d) => (
        d.getUTCFullYear().toString()
        + pad(d.getUTCMonth() + 1)
        + pad(d.getUTCDate())
        + pad(d.getUTCHours())
        + pad(d.getUTCMinutes())
      );
      return { begin: fmt(start), end: fmt(end) };
    }

    async function fetchText(url) {
      const isFile = location.protocol === "file:" || location.origin === "null";
      debugLog(`fetchText() → ${url}`);
      if (isFile) {
        debugLog("  origen file:// — se omite fetch directo (CORS bloqueado)");
      } else {
        try {
          debugLog("  intento 1: fetch directo a OGIMET");
          const res = await fetch(url);
          if (res.ok) {
            debugLog("  ✓ fetch directo OK");
            return await res.text();
          }
          debugLog(`  ✗ fetch directo HTTP ${res.status}`);
        } catch (err) {
          debugLog(`  ✗ fetch directo: ${err.message}`);
        }
      }

      let lastError = null;
      for (let i = 0; i < CORS_PROXIES.length; i += 1) {
        const proxyUrl = CORS_PROXIES[i](url);
        try {
          debugLog(`  intento ${i + 2}: proxy ${proxyUrl.slice(0, 60)}…`);
          const res = await fetch(proxyUrl);
          if (!res.ok) throw new Error(`HTTP ${res.status}`);
          const text = await res.text();
          if (!text || text.length < 20) throw new Error("respuesta vacía");
          debugLog(`  ✓ proxy ${i + 1} OK (${text.length} bytes)`);
          return text;
        } catch (err) {
          lastError = err;
          debugLog(`  ✗ proxy ${i + 1}: ${err.message}`);
        }
      }

      // allorigins JSON fallback
      try {
        const jsonUrl = `https://api.allorigins.win/get?url=${encodeURIComponent(url)}`;
        debugLog(`  intento final: allorigins JSON`);
        const res = await fetch(jsonUrl);
        if (!res.ok) throw new Error(`HTTP ${res.status}`);
        const payload = await res.json();
        if (payload.contents) {
          debugLog(`  ✓ allorigins JSON OK (${payload.contents.length} bytes)`);
          return payload.contents;
        }
        throw new Error("sin campo contents");
      } catch (err) {
        debugLog(`  ✗ allorigins JSON: ${err.message}`);
        lastError = err;
      }

      throw new Error(
        `No se pudo consultar OGIMET (${lastError?.message || "red"}). `
        + "Activá «Mostrar debug de red» para ver el detalle. "
        + "Cadena: selectStation() → fetchSynops() → fetchText()."
      );
    }

    async function fetchSynops(wmoId, hoursBack) {
      const { begin, end } = utcRange(hoursBack);
      const ind = wmoId.length === 5 ? `0${wmoId}` : wmoId;
      const params = new URLSearchParams({
        begin, end, ind, header: "yes", lang: "eng",
      });
      const url = `${OGIMET_URL}?${params}`;
      debugLog(`fetchSynops(wmoId=${wmoId}, hours=${hoursBack})`);
      debugLog(`  ind OGIMET=${ind}, rango UTC ${begin}–${end}`);
      const csv = await fetchText(url);
      const rows = parseOgimetCsv(csv).filter((row) => row.wmoId === wmoId);
      debugLog(`  parseOgimetCsv → ${rows.length} parte(s) para ${wmoId}`);
      return rows;
    }

    function embeddedRows(wmoId, hoursBack) {
      const rows = EMBEDDED_SYNOPS[wmoId] || [];
      const cutoff = Date.now() - hoursBack * 3600 * 1000;
      return rows
        .filter((r) => {
          const t = Date.UTC(r.year, r.month - 1, r.day, r.hour, r.minute);
          return t >= cutoff;
        })
        .map((r) => ({
          ...r,
          wmoId,
          datetimeUtc: new Date(Date.UTC(r.year, r.month - 1, r.day, r.hour, r.minute)),
        }));
    }

    function renderReports(rows, station, sourceLabel) {
      const container = document.getElementById("reports");
      container.innerHTML = "";
      rows.forEach((row) => {
        const decoded = synopToAeromet(row.report, station.name, station.alt || 0);
        const card = document.createElement("div");
        card.className = "report-card";
        const ts = row.datetimeUtc.toISOString().replace("T", " ").slice(0, 16) + " UTC";
        card.innerHTML = `
          <time>${ts}</time>
          <div class="aeromet">${decoded.aeromet}</div>
          <div class="synop-raw">${decoded.raw}</div>
        `;
        container.appendChild(card);
      });
      setStatus("ok", `${rows.length} parte(s) — ${sourceLabel}`);
    }

    function renderMap() {
      const trace = {
        type: "scattermapbox",
        lat: STATIONS.map((s) => s.lat),
        lon: STATIONS.map((s) => s.lon),
        text: STATIONS.map((s) => `${s.name}<br>WMO ${s.wmo_id}`),
        customdata: STATIONS.map((s) => s.wmo_id),
        mode: "markers",
        marker: {
          size: 9,
          color: STATIONS.map((s) => (selectedStation && s.wmo_id === selectedStation.wmo_id ? "#f5a623" : "#3b9eff")),
          opacity: 0.9,
        },
        hovertemplate: "%{text}<extra></extra>",
      };

      const layout = {
        mapbox: {
          style: "open-street-map",
          center: { ...mapView.center },
          zoom: mapView.zoom,
        },
        margin: { t: 0, b: 0, l: 0, r: 0 },
        paper_bgcolor: "#0f1419",
        plot_bgcolor: "#0f1419",
        font: { color: "#e8eef7" },
        dragmode: "pan",
        uirevision: "argentina-map",
      };

      if (mapInitialized) {
        Plotly.react("map", [trace], layout, plotConfig);
      } else {
        Plotly.newPlot("map", [trace], layout, plotConfig);
        mapInitialized = true;
        const mapEl = document.getElementById("map");
        mapEl.on("plotly_relayout", (ev) => {
          if (ev["mapbox.zoom"] != null) mapView.zoom = ev["mapbox.zoom"];
          if (ev["mapbox.center"]) {
            mapView.center = { lat: ev["mapbox.center"].lat, lon: ev["mapbox.center"].lon };
          }
          if (ev["mapbox.center.lat"] != null) {
            mapView.center = { lat: ev["mapbox.center.lat"], lon: ev["mapbox.center.lon"] };
          }
        });
      }

      document.getElementById("map").on("plotly_click", (ev) => {
        const idx = ev.points[0].pointIndex;
        selectStation(STATIONS[idx]);
      });
    }

    function setStatus(kind, message) {
      const el = document.getElementById("panelStatus");
      el.className = `status ${kind}`;
      el.textContent = message;
    }

    async function selectStation(station) {
      selectedStation = station;
      renderMap();

      const hours = Number(document.getElementById("hours").value) || 3;
      document.getElementById("panelTitle").textContent = station.name;
      document.getElementById("panelMeta").textContent = (
        `WMO ${station.wmo_id} · ${station.lat.toFixed(3)}°, ${station.lon.toFixed(3)}°`
        + (station.alt != null ? ` · ${station.alt} m` : "")
      );
      document.getElementById("reports").innerHTML = "";
      clearDebug();
      if (document.getElementById("debugToggle").checked) {
        debugLog(`selectStation("${station.name}", wmo=${station.wmo_id})`);
      }

      const cached = embeddedRows(station.wmo_id, hours);
      if (cached.length) {
        debugLog(`  caché embebido: ${cached.length} parte(s)`);
        renderReports(cached, station, "datos embebidos (sin red)");
      } else {
        setStatus("loading", `Cargando SYNOP (últimas ${hours} h)…`);
      }

      try {
        debugLog("  intentando actualización en vivo vía fetchSynops()…");
        const rows = await fetchSynops(station.wmo_id, hours);
        if (rows.length) {
          renderReports(rows, station, "OGIMET en vivo");
          return;
        }
        if (!cached.length) {
          setStatus("error", "No hay SYNOP en el intervalo seleccionado.");
        } else {
          setStatus("ok", `${cached.length} parte(s) — embebidos (en vivo sin datos nuevos)`);
        }
      } catch (err) {
        debugLog(`  ✗ selectStation error: ${err.message}`);
        if (cached.length) {
          setStatus(
            "ok",
            `${cached.length} parte(s) — embebidos. En vivo falló (CORS/red): ${err.message}`,
          );
        } else {
          setStatus("error", err.message);
        }
      }
    }

    document.getElementById("refreshBtn").addEventListener("click", () => {
      if (selectedStation) selectStation(selectedStation);
    });

    document.getElementById("hours").addEventListener("change", () => {
      const h = document.getElementById("hours").value;
      document.getElementById("hoursLabel").textContent = h;
    });

    renderMap();
  </script>
</body>
</html>
