<!DOCTYPE html>
<html lang="es">
<head>
  <meta charset="utf-8" />
  <meta name="viewport" content="width=device-width, initial-scale=1" />
  <title>POM OGIMET — Argentina SYNOP / AEROMET</title>
  <script src="https://cdn.plot.ly/plotly-2.35.2.min.js"></script>
  <style>
    :root {
      --bg: #0f1419;
      --panel: #1a2332;
      --border: #2d3a4f;
      --text: #e8eef7;
      --muted: #8fa3bf;
      --accent: #3b9eff;
      --accent-dim: #2563a8;
      --ok: #3dd68c;
      --warn: #f5a623;
    }
    * { box-sizing: border-box; }
    body {
      margin: 0;
      font-family: "Segoe UI", system-ui, sans-serif;
      background: var(--bg);
      color: var(--text);
      min-height: 100vh;
    }
    header {
      padding: 12px 20px;
      border-bottom: 1px solid var(--border);
      display: flex;
      flex-wrap: wrap;
      gap: 16px;
      align-items: center;
      background: var(--panel);
    }
    header h1 {
      margin: 0;
      font-size: 1.15rem;
      font-weight: 600;
    }
    header p {
      margin: 0;
      font-size: 0.85rem;
      color: var(--muted);
    }
    .controls {
      display: flex;
      flex-wrap: wrap;
      gap: 10px;
      align-items: center;
      margin-left: auto;
    }
    label { font-size: 0.85rem; color: var(--muted); }
    input[type="number"] {
      width: 64px;
      padding: 6px 8px;
      border: 1px solid var(--border);
      border-radius: 6px;
      background: var(--bg);
      color: var(--text);
    }
    button {
      padding: 7px 14px;
      border: none;
      border-radius: 6px;
      background: var(--accent);
      color: #fff;
      font-weight: 600;
      cursor: pointer;
    }
    button:hover { background: var(--accent-dim); }
    button:disabled { opacity: 0.5; cursor: wait; }
    main {
      display: grid;
      grid-template-columns: 1fr 380px;
      height: calc(100vh - 64px);
    }
    @media (max-width: 960px) {
      main { grid-template-columns: 1fr; grid-template-rows: 55vh auto; }
    }
    #map { width: 100%; height: 100%; }
    aside {
      border-left: 1px solid var(--border);
      overflow-y: auto;
      padding: 16px;
      background: var(--panel);
    }
    aside h2 {
      margin: 0 0 4px;
      font-size: 1rem;
    }
    .station-meta {
      font-size: 0.8rem;
      color: var(--muted);
      margin-bottom: 12px;
    }
    .placeholder {
      color: var(--muted);
      font-size: 0.9rem;
      line-height: 1.5;
    }
    .report-card {
      border: 1px solid var(--border);
      border-radius: 8px;
      padding: 12px;
      margin-bottom: 10px;
      background: var(--bg);
    }
    .report-card time {
      display: block;
      font-size: 0.75rem;
      color: var(--muted);
      margin-bottom: 6px;
    }
    .aeromet {
      font-family: "Consolas", "Monaco", monospace;
      font-size: 0.95rem;
      color: var(--ok);
      word-break: break-word;
      margin-bottom: 8px;
    }
    .synop-raw {
      font-family: monospace;
      font-size: 0.7rem;
      color: var(--muted);
      word-break: break-all;
      line-height: 1.4;
    }
    .status {
      font-size: 0.8rem;
      padding: 8px 12px;
      border-radius: 6px;
      margin-bottom: 12px;
    }
    .status.loading { background: #1e3a5f; color: var(--accent); }
    .status.error { background: #4a2020; color: #ff8a8a; }
    .status.ok { background: #1a3d2e; color: var(--ok); }
    .debug-panel {
      font-family: monospace;
      font-size: 0.68rem;
      color: var(--muted);
      background: var(--bg);
      border: 1px solid var(--border);
      border-radius: 6px;
      padding: 8px;
      margin-bottom: 12px;
      white-space: pre-wrap;
      word-break: break-all;
      max-height: 160px;
      overflow-y: auto;
      display: none;
    }
    .debug-panel.visible { display: block; }
    .debug-toggle { font-size: 0.75rem; color: var(--muted); cursor: pointer; margin-bottom: 8px; }
    .debug-toggle input { margin-right: 6px; }
  </style>
</head>
<body>
  <header>
    <div>
      <h1>POM OGIMET — Estaciones Argentina</h1>
      <p>114 estaciones · datos embebidos 24 h · generado 2026-07-24 13:43 UTC</p>
      <p id="hostingHint" style="display:none;font-size:0.8rem;color:var(--warn);margin:4px 0 0">
        Auto-actualización: esta página se recarga cada 2 min con datos OGIMET frescos (GitHub Pages).
      </p>
    </div>
    <div class="controls">
      <label for="hours">Horas a mostrar</label>
      <input id="hours" type="number" min="1" max="24" value="3" />
      <button id="refreshBtn" type="button">Actualizar</button>
      <span id="lastUpdate" style="font-size:0.75rem;color:var(--muted)"></span>
    </div>
  </header>
  <main>
    <div id="map"></div>
    <aside>
      <h2 id="panelTitle">Seleccioná una estación</h2>
      <div class="station-meta" id="panelMeta"></div>
      <div id="panelStatus" class="placeholder">
        Hacé clic en un punto del mapa para cargar los SYNOP de las últimas
        <span id="hoursLabel">3</span> horas y ver el AEROMET decodificado.
      </div>
      <label class="debug-toggle"><input type="checkbox" id="debugToggle" /> Mostrar debug de red</label>
      <pre id="debugPanel" class="debug-panel"></pre>
      <div id="reports"></div>
    </aside>
  </main>

  <script>
/**
 * SYNOP (FM-12) → AEROMET decoder for Argentina SMN-style reports.
 * Cloud base: hh × 50 m (national convention), height in AEROMET rounded up to 100 ft.
 */

const CLOUD_TYPE_C = {
  0: 'Ci', 1: 'Cc', 2: 'Cs', 3: 'Ac', 4: 'As', 5: 'Ns', 6: 'Sc', 7: 'St', 8: 'Cu', 9: 'Cb',
};

function visibilityKm(vv) {
  const code = Number(vv);
  if (Number.isNaN(code)) return null;
  if (code <= 49) return Math.max(0.1, (code * 100) / 1000);
  if (code >= 50 && code <= 80) return code - 50;
  if (code === 81) return 30;
  if (code === 82) return 40;
  if (code === 83) return 50;
  if (code === 84) return 60;
  if (code === 85) return 70;
  if (code === 86) return 80;
  if (code === 87) return 90;
  if (code >= 88) return 100;
  return null;
}

function cloudBaseFeet(hh) {
  const code = Number(hh);
  if (Number.isNaN(code)) return null;
  if (code === 0) return 0;
  const meters = code * 50;
  const feet = meters * 3.280839895;
  return Math.ceil(feet / 100) * 100;
}

function signedTemp(sn, ttt) {
  const sign = Number(sn) === 1 ? -1 : 1;
  return sign * Number(ttt) / 10;
}

function parseGroups(report) {
  const tokens = report.replace(/=/g, ' ').trim().split(/\s+/).filter(Boolean);
  const idx333 = tokens.indexOf('333');
  const idx555 = tokens.indexOf('555');
  const section1End = idx333 >= 0 ? idx333 : tokens.length;
  const section3End = idx555 >= 0 ? idx555 : tokens.length;

  return {
    tokens,
    section1: tokens.slice(0, section1End),
    section3: idx333 >= 0 ? tokens.slice(idx333 + 1, section3End) : [],
    section555: idx555 >= 0 ? tokens.slice(idx555 + 1) : [],
  };
}

function isFiveDigitGroup(token) {
  return token.length === 5 && /^\d+$/.test(token);
}

function headerEndIndex(section1) {
  const aaxx = section1.indexOf('AAXX');
  if (aaxx >= 0 && aaxx + 3 < section1.length) return aaxx + 3;
  return Math.min(3, section1.length);
}

function isTemperatureGroup(g) {
  return g[0] === '1' && (g[1] === '0' || g[1] === '1');
}

function isDewpointGroup(g) {
  return g[0] === '2' && (g[1] === '0' || g[1] === '1');
}

function isStationPressureGroup(g) {
  if (g[0] !== '3') return false;
  const pppp = Number(g.slice(1));
  return pppp >= 0 && pppp <= 500;
}

function isSeaLevelPressureGroup(g) {
  if (g[0] !== '4') return false;
  const pppp = Number(g.slice(1));
  return pppp >= 0 && pppp <= 500;
}

function isIrixhvvGroup(g) {
  if (!/^\d{5}$/.test(g)) return false;
  if (isTemperatureGroup(g) || isDewpointGroup(g)) return false;
  if (isStationPressureGroup(g) || isSeaLevelPressureGroup(g)) return false;
  const vv = Number(g.slice(3, 5));
  return vv >= 0 && vv <= 99;
}

function isWindGroup(g) {
  if (!/^\d{5}$/.test(g)) return false;
  const dd = Number(g.slice(1, 3));
  const ff = Number(g.slice(3));
  if (dd > 36 || ff > 99) return false;
  const lead = Number(g[0]);
  if (lead <= 4) return true;
  // Argentina: viento en grupos 7ddff / 8ddff (u otros) cuando no hay Nddff estándar
  if (lead >= 7 && lead <= 9) return true;
  return false;
}

function extractSection1Fields(section1) {
  const fields = {
    irixhvv: null,
    nddff: null,
    tempC: null,
    dewpointC: null,
    stationPressureHpa: null,
    seaLevelPressureHpa: null,
    cloudLayers8: [],
  };

  const body = section1.slice(headerEndIndex(section1));

  for (const token of body) {
    if (!isFiveDigitGroup(token)) continue;
    const g = token;

    if (!fields.irixhvv && isIrixhvvGroup(g)) {
      fields.irixhvv = {
        ir: Number(g[0]),
        ix: Number(g[1]),
        h: Number(g[2]),
        vv: Number(g.slice(3, 5)),
      };
      continue;
    }

    if (!fields.nddff && isWindGroup(g)) {
      fields.nddff = {
        n: Number(g[0]),
        dd: Number(g.slice(1, 3)),
        ff: Number(g.slice(3)),
      };
      continue;
    }

    if (g[0] === '1' && isTemperatureGroup(g) && fields.tempC === null) {
      fields.tempC = signedTemp(g[1], g.slice(2));
      continue;
    }

    if (g[0] === '2' && isDewpointGroup(g) && fields.dewpointC === null) {
      fields.dewpointC = signedTemp(g[1], g.slice(2));
      continue;
    }

    if (g[0] === '3' && isStationPressureGroup(g) && fields.stationPressureHpa === null) {
      fields.stationPressureHpa = 1000 + Number(g.slice(1)) / 10;
      continue;
    }

    if (g[0] === '4' && isSeaLevelPressureGroup(g) && fields.seaLevelPressureHpa === null) {
      fields.seaLevelPressureHpa = 1000 + Number(g.slice(1)) / 10;
      continue;
    }

    if (g[0] === '8' && g[3] !== '/' && g[4] !== '/' && !fields.nddff) {
      const dd = Number(g.slice(1, 3));
      const ff = Number(g.slice(3));
      if (dd <= 36 && ff <= 99 && ff > 0) {
        fields.nddff = { n: 4, dd, ff };
        continue;
      }
    }

    if (g[0] === '8' && g[3] !== '/' && g[4] !== '/') {
      const amount = Number(g[1]);
      const typeCode = Number(g[2]);
      const hh = Number(g.slice(3));
      if (amount > 0 && typeCode <= 9) {
        fields.cloudLayers8.push({ amount, typeCode, hh, section: 1 });
      }
    }
  }

  return fields;
}

function extractCloudLayers(groups, section) {
  const layers = [];
  for (const token of groups) {
    if (!isFiveDigitGroup(token) || token[0] !== '8') continue;
    if (token[3] === '/' || token[4] === '/') continue;
    const amount = Number(token[1]);
    const typeCode = Number(token[2]);
    const hh = Number(token.slice(3));
    if (amount > 0 && typeCode <= 9 && !Number.isNaN(hh)) {
      layers.push({ amount, typeCode, hh, section });
    }
  }
  return layers;
}

function pickAerometCloud(layers) {
  if (!layers.length) return null;
  const sorted = [...layers].sort((a, b) => {
    const ha = cloudBaseFeet(a.hh) ?? 99999;
    const hb = cloudBaseFeet(b.hh) ?? 99999;
    return ha - hb;
  });
  const layer = sorted[0];
  const type = CLOUD_TYPE_C[layer.typeCode] || 'XX';
  const heightFt = cloudBaseFeet(layer.hh);
  if (heightFt === null) return null;
  return { amount: layer.amount, type, heightFt, text: `${layer.amount}${type}${heightFt}FT` };
}

function formatTemp(value) {
  if (value === null || Number.isNaN(value)) return '//';
  const rounded = Math.round(value);
  const sign = rounded < 0 ? 'M' : '';
  const abs = Math.abs(rounded).toString().padStart(2, '0');
  return `${sign}${abs}`;
}

function formatWind(nddff) {
  if (!nddff) return '///KT';
  if (nddff.ff === 0) return '00000KT';
  const dir = (nddff.dd * 10).toString().padStart(3, '0');
  const spd = nddff.ff.toString().padStart(2, '0');
  return `${dir}/${spd}KT`;
}

function formatVisibilityKm(irixhvv) {
  if (!irixhvv) return '////';
  const km = visibilityKm(irixhvv.vv);
  if (km === null) return '////';
  if (km >= 10) return `${Math.round(km)}KM`;
  return `${km.toFixed(1)}KM`;
}

function formatQnh(seaLevelPressureHpa) {
  if (seaLevelPressureHpa === null || Number.isNaN(seaLevelPressureHpa)) return 'Q////';
  return `Q${seaLevelPressureHpa.toFixed(1)}`;
}

function synopToAeromet(report, stationName = 'ESTACION', stationAltM = 0) {
  const { section1, section3, section555 } = parseGroups(report);
  const s1 = extractSection1Fields(section1);
  const layers = [
    ...extractCloudLayers(section3, 3),
    ...extractCloudLayers(section555, 555),
    ...s1.cloudLayers8,
  ];
  const cloud = pickAerometCloud(layers);

  const parts = [
    stationName.toUpperCase(),
    formatWind(s1.nddff),
    formatVisibilityKm(s1.irixhvv),
    cloud ? cloud.text : 'SKC',
    `${formatTemp(s1.tempC)}/${formatTemp(s1.dewpointC)}`,
    formatQnh(s1.seaLevelPressureHpa),
  ];

  return {
    aeromet: parts.join(' '),
    fields: { ...s1, cloud, layers },
    raw: report.trim(),
    stationAltM,
  };
}

function parseOgimetCsv(csvText) {
  const lines = csvText.trim().split(/\r?\n/);
  if (lines.length < 2) return [];
  const rows = [];
  for (let i = 1; i < lines.length; i += 1) {
    const line = lines[i];
    const commaIdx = [];
    for (let j = 0; j < line.length; j += 1) {
      if (line[j] === ',') commaIdx.push(j);
    }
    if (commaIdx.length < 6) continue;
    const sixth = commaIdx[5];
    const meta = line.slice(0, sixth).split(',');
    const report = line.slice(sixth + 1);
    if (!report || report.includes('NIL')) continue;
    const wmoId = meta[0];
    rows.push({
      wmoId,
      year: Number(meta[1]),
      month: Number(meta[2]),
      day: Number(meta[3]),
      hour: Number(meta[4]),
      minute: Number(meta[5]),
      report,
      datetimeUtc: new Date(Date.UTC(Number(meta[1]), Number(meta[2]) - 1, Number(meta[3]), Number(meta[4]), Number(meta[5]))),
    });
  }
  return rows.sort((a, b) => b.datetimeUtc - a.datetimeUtc);
}

if (typeof module !== 'undefined' && module.exports) {
  module.exports = { synopToAeromet, parseOgimetCsv, cloudBaseFeet, visibilityKm };
}

  </script>
  <script>
    const STATIONS = [{"wmo_id": "87007", "name": "La Quiaca Observatorio (Argentina", "lat": -22.10333, "lon": -65.60056, "alt": 3459}, {"wmo_id": "87016", "name": "Oran Aerodrome (Argentina", "lat": -23.15444, "lon": -64.32806, "alt": 357}, {"wmo_id": "87022", "name": "Tartagal Aerodrome (Argentina", "lat": -22.61639, "lon": -63.79639, "alt": 450}, {"wmo_id": "87043", "name": "Jujuy Un (Argentina", "lat": -24.17861, "lon": -65.32639, "alt": 1302}, {"wmo_id": "87046", "name": "Jujuy Aerodrome (Argentina", "lat": -24.38389, "lon": -65.09528, "alt": 907}, {"wmo_id": "87047", "name": "Salta Aerodrome (Argentina", "lat": -24.84417, "lon": -65.47556, "alt": 1221}, {"wmo_id": "87050", "name": "Metan (Argentina", "lat": -25.52417, "lon": -64.97306, "alt": 855}, {"wmo_id": "87065", "name": "Rivadavia (Argentina", "lat": -24.18528, "lon": -62.88639, "alt": 205}, {"wmo_id": "87078", "name": "Las Lomitas (Argentina", "lat": -24.70222, "lon": -60.59389, "alt": 130}, {"wmo_id": "87097", "name": "Iguazu Aerodrome (Argentina", "lat": -25.73083, "lon": -54.47889, "alt": 270}, {"wmo_id": "87121", "name": "Tucuman Aerodrome (Argentina", "lat": -26.83722, "lon": -65.10833, "alt": 440}, {"wmo_id": "87127", "name": "Termas De Rio Hondo (Argentina", "lat": -27.50611, "lon": -64.93444, "alt": 280}, {"wmo_id": "87129", "name": "Santiago Del Estero Aero. (Argentina", "lat": -27.75472, "lon": -64.29972, "alt": 198}, {"wmo_id": "87148", "name": "Presidencia Roque Saenz Pena Aero (Argentina", "lat": -26.74611, "lon": -60.48667, "alt": 91}, {"wmo_id": "87155", "name": "Resistencia Aero. (Argentina", "lat": -27.43861, "lon": -59.04583, "alt": 53}, {"wmo_id": "87162", "name": "Formosa Aerodrome (Argentina", "lat": -26.21222, "lon": -58.22917, "alt": 59}, {"wmo_id": "87163", "name": "B.De Irigoyen Aero (Argentina", "lat": -26.27778, "lon": -53.67111, "alt": 815}, {"wmo_id": "87166", "name": "Corrientes Aero. (Argentina", "lat": -27.44972, "lon": -58.75972, "alt": 62}, {"wmo_id": "87173", "name": "Ituzaingo (Argentina", "lat": -27.58556, "lon": -56.67722, "alt": 72}, {"wmo_id": "87178", "name": "Posadas Aero. (Argentina", "lat": -27.39083, "lon": -55.96694, "alt": 131}, {"wmo_id": "87187", "name": "Obera (Argentina", "lat": -27.48361, "lon": -55.13139, "alt": 303}, {"wmo_id": "87211", "name": "Tinogasta (Argentina", "lat": -28.06722, "lon": -67.565, "alt": 1214}, {"wmo_id": "87213", "name": "Chilecito Aerodrome (Argentina", "lat": -29.21833, "lon": -67.44222, "alt": 925}, {"wmo_id": "87217", "name": "La Rioja Aero. (Argentina", "lat": -29.38167, "lon": -66.79333, "alt": 438}, {"wmo_id": "87222", "name": "Catamarca Aero. (Argentina", "lat": -28.59333, "lon": -65.75528, "alt": 464}, {"wmo_id": "87244", "name": "Villa De Maria Del Rio Seco (Argentina", "lat": -29.90556, "lon": -63.7275, "alt": 341}, {"wmo_id": "87257", "name": "Ceres Aerodrome (Argentina", "lat": -29.87556, "lon": -61.93583, "alt": 87}, {"wmo_id": "87270", "name": "Reconquista Aerodrome (Argentina", "lat": -29.205, "lon": -59.69333, "alt": 48}, {"wmo_id": "87281", "name": "Mercedes Aero (Argentina", "lat": -29.22611, "lon": -58.08556, "alt": 107}, {"wmo_id": "87289", "name": "Paso De Los Libres Aerodrome (Argentina", "lat": -29.68917, "lon": -57.14833, "alt": 69}, {"wmo_id": "87305", "name": "Jachal (Argentina", "lat": -30.22917, "lon": -68.73889, "alt": 1178}, {"wmo_id": "87311", "name": "San Juan Aero (Argentina", "lat": -31.57444, "lon": -68.42222, "alt": 597}, {"wmo_id": "87320", "name": "Chamical Aerodrome (Argentina", "lat": -30.3475, "lon": -66.29639, "alt": 461}, {"wmo_id": "87322", "name": "Chepes (Argentina", "lat": -31.34472, "lon": -66.57778, "alt": 646}, {"wmo_id": "87328", "name": "Villa Dolores Aerodrome (Argentina", "lat": -31.95111, "lon": -65.14889, "alt": 561}, {"wmo_id": "87344", "name": "Cordoba Aerodrome (Argentina", "lat": -31.29639, "lon": -64.21167, "alt": 493}, {"wmo_id": "87345", "name": "Cordoba Observatorio (Argentina", "lat": -31.42056, "lon": -64.19806, "alt": 426}, {"wmo_id": "87347", "name": "Escuela De Avicion Militar (Argentina", "lat": -31.44194, "lon": -64.28056, "alt": 502}, {"wmo_id": "87349", "name": "Pilar Observatorio (Argentina", "lat": -31.66806, "lon": -63.88194, "alt": 338}, {"wmo_id": "87356", "name": "Sunchales Aero (Argentina", "lat": -30.95667, "lon": -61.53222, "alt": 92}, {"wmo_id": "87360", "name": "Rafaela Aero (Argentina", "lat": -31.2775, "lon": -61.50944, "alt": 59}, {"wmo_id": "87371", "name": "Sauce Viejo Aerodrome (Argentina", "lat": -31.70778, "lon": -60.80528, "alt": 17}, {"wmo_id": "87374", "name": "Parana Aerodrome (Argentina", "lat": -31.79028, "lon": -60.48389, "alt": 74}, {"wmo_id": "87393", "name": "Monte Caseros Aerodrome (Argentina", "lat": -30.26167, "lon": -57.63889, "alt": 53}, {"wmo_id": "87395", "name": "Concordia Aerodrome (Argentina", "lat": -31.29861, "lon": -58.0, "alt": 37}, {"wmo_id": "87405", "name": "Uspallata (Argentina", "lat": -32.59444, "lon": -69.34, "alt": 1891}, {"wmo_id": "87416", "name": "San Martin (Argentina", "lat": -33.07306, "lon": -68.46472, "alt": 653}, {"wmo_id": "87418", "name": "Mendoza Aerodrome (Argentina", "lat": -32.84361, "lon": -68.79611, "alt": 705}, {"wmo_id": "87420", "name": "Mendoza Observatorio (Argentina", "lat": -32.89472, "lon": -68.87278, "alt": 827}, {"wmo_id": "87436", "name": "San Luis Aerodrome (Argentina", "lat": -33.27444, "lon": -66.35139, "alt": 710}, {"wmo_id": "87444", "name": "Santa Rosa De Conlara (Argentina", "lat": -32.37889, "lon": -65.17972, "alt": 615}, {"wmo_id": "87448", "name": "Villa Reynolds Aerodrome (Argentina", "lat": -33.71806, "lon": -65.37361, "alt": 485}, {"wmo_id": "87453", "name": "Rio Cuarto Aerodrome (Argentina", "lat": -33.09528, "lon": -64.27694, "alt": 420}, {"wmo_id": "87467", "name": "Marcos Juarez Aerodrome (Argentina", "lat": -32.67944, "lon": -62.15028, "alt": 110}, {"wmo_id": "87468", "name": "Venado Tuerto Aerodrome (Argentina", "lat": -33.68222, "lon": -61.96111, "alt": 112}, {"wmo_id": "87480", "name": "Rosario Aerodrome (Argentina", "lat": -32.90806, "lon": -60.78194, "alt": 25}, {"wmo_id": "87497", "name": "Gualeguaychu Aerodrome (Argentina", "lat": -33.01222, "lon": -58.61056, "alt": 23}, {"wmo_id": "87506", "name": "Malargue Aerodrome (Argentina", "lat": -35.48111, "lon": -69.58333, "alt": 1429}, {"wmo_id": "87509", "name": "San Rafael Aerodrome (Argentina", "lat": -34.59083, "lon": -68.40139, "alt": 751}, {"wmo_id": "87532", "name": "General Pico Aerodrome (Argentina", "lat": -35.68806, "lon": -63.75917, "alt": 139}, {"wmo_id": "87534", "name": "Laboulaye (Argentina", "lat": -34.12778, "lon": -63.3675, "alt": 136}, {"wmo_id": "87540", "name": "Trenque Lauquen - Th (Argentina", "lat": -35.96667, "lon": -62.71667, "alt": 80}, {"wmo_id": "87544", "name": "Pehuajo Aerodrome (Argentina", "lat": -35.84056, "lon": -61.85972, "alt": 87}, {"wmo_id": "87548", "name": "Junin Aerodrome (Argentina", "lat": -34.5525, "lon": -60.93111, "alt": 82}, {"wmo_id": "87550", "name": "Nueve De Julio (Argentina", "lat": -35.43889, "lon": -60.88167, "alt": 76}, {"wmo_id": "87553", "name": "San Fernando Aero (Argentina", "lat": -34.455, "lon": -58.58444, "alt": 3}, {"wmo_id": "87563", "name": "Las Flores Aerodrome (Argentina", "lat": -36.04139, "lon": -59.13722, "alt": 38}, {"wmo_id": "87570", "name": "Campo De Mayo Aero (Argentina", "lat": -34.53583, "lon": -58.675, "alt": 26}, {"wmo_id": "87571", "name": "El Palomar Aerodrome (Argentina", "lat": -34.60278, "lon": -58.6125, "alt": 12}, {"wmo_id": "87572", "name": "Mariano Moreno Aero (Argentina", "lat": -34.55778, "lon": -58.78667, "alt": 32}, {"wmo_id": "87573", "name": "Merlo Aero (Argentina", "lat": -34.68472, "lon": -58.74472, "alt": 36}, {"wmo_id": "87574", "name": "Moron Aero - H24 (Argentina", "lat": -34.67111, "lon": -58.63833, "alt": 24}, {"wmo_id": "87576", "name": "Ezeiza Aerodrome (Argentina", "lat": -34.81833, "lon": -58.54222, "alt": 20}, {"wmo_id": "87582", "name": "Aeroparque Bs. As. Aerodrome (Argentina", "lat": -34.55889, "lon": -58.41972, "alt": 6}, {"wmo_id": "87585", "name": "Buenos Aires Observatorio (Argentina", "lat": -34.59, "lon": -58.48389, "alt": 25}, {"wmo_id": "87593", "name": "La Plata Aerodrome (Argentina", "lat": -34.96611, "lon": -57.89583, "alt": 19}, {"wmo_id": "87596", "name": "Punta Indio B. A. (Argentina", "lat": -35.35111, "lon": -57.2925, "alt": 17}, {"wmo_id": "87616", "name": "Victorica (Argentina", "lat": -36.21278, "lon": -65.43167, "alt": 312}, {"wmo_id": "87623", "name": "Santa Rosa Aerodrome (Argentina", "lat": -36.59306, "lon": -64.27972, "alt": 190}, {"wmo_id": "87637", "name": "Coronel Suarez Aerodrome (Argentina", "lat": -37.45333, "lon": -61.89056, "alt": 233}, {"wmo_id": "87640", "name": "Bolivar Aerodrome (Argentina", "lat": -36.18611, "lon": -61.0725, "alt": 94}, {"wmo_id": "87641", "name": "Azul Aerodrome (Argentina", "lat": -36.83194, "lon": -59.88639, "alt": 146}, {"wmo_id": "87643", "name": "Olovarria Aerodrome (Argentina", "lat": -36.89056, "lon": -60.22278, "alt": 166}, {"wmo_id": "87645", "name": "Tandil Aerodrome (Argentina", "lat": -37.24111, "lon": -59.23306, "alt": 175}, {"wmo_id": "87648", "name": "Dolores Aerodrome (Argentina", "lat": -36.31694, "lon": -57.71667, "alt": 10}, {"wmo_id": "87649", "name": "Benito Juarez (Argentina", "lat": -37.70111, "lon": -59.79083, "alt": 210}, {"wmo_id": "87663", "name": "Villa Gesell (Argentina", "lat": -37.23333, "lon": -57.03333, "alt": 7}, {"wmo_id": "87679", "name": "Pigue Aerodrome (Argentina", "lat": -37.60806, "lon": -62.38639, "alt": 304}, {"wmo_id": "87688", "name": "Tres Arroyos (Argentina", "lat": -38.35944, "lon": -60.28444, "alt": 115}, {"wmo_id": "87692", "name": "Mar Del Plata Aerodrome (Argentina", "lat": -37.93194, "lon": -57.58139, "alt": 18}, {"wmo_id": "87715", "name": "Neuquen Aerodrome (Argentina", "lat": -38.95194, "lon": -68.13667, "alt": 270}, {"wmo_id": "87719", "name": "Cipolletti (Argentina", "lat": -38.93333, "lon": -67.98333, "alt": 265}, {"wmo_id": "87736", "name": "Rio Colorado (Argentina", "lat": -38.99083, "lon": -64.08694, "alt": 79}, {"wmo_id": "87750", "name": "Bahia Blanca Aerodrome (Argentina", "lat": -38.71472, "lon": -62.16278, "alt": 75}, {"wmo_id": "87761", "name": "Chapelco (Argentina", "lat": -40.08333, "lon": -71.13333, "alt": 779}, {"wmo_id": "87765", "name": "Bariloche Aerodrome (Argentina", "lat": -41.1475, "lon": -71.16417, "alt": 835}, {"wmo_id": "87774", "name": "Maquinchao (Argentina", "lat": -41.24389, "lon": -68.70639, "alt": 888}, {"wmo_id": "87784", "name": "San Antonio Oeste Aerodrome (Argentina", "lat": -40.75694, "lon": -65.03083, "alt": 20}, {"wmo_id": "87791", "name": "Viedma Aerodrome (Argentina", "lat": -40.86333, "lon": -63.00694, "alt": 6}, {"wmo_id": "87800", "name": "El Bolson Aerodrome (Argentina", "lat": -41.95389, "lon": -71.53389, "alt": 337}, {"wmo_id": "87803", "name": "Esquel Aerodrome (Argentina", "lat": -42.90583, "lon": -71.14472, "alt": 799}, {"wmo_id": "87814", "name": "Paso De Indios (Argentina", "lat": -43.86167, "lon": -69.0475, "alt": 460}, {"wmo_id": "87823", "name": "P. Madryn Aerodrome (Argentina", "lat": -42.75528, "lon": -65.10139, "alt": 136}, {"wmo_id": "87828", "name": "Trelew Aerodrome (Argentina", "lat": -43.20889, "lon": -65.28194, "alt": 39}, {"wmo_id": "87852", "name": "Perito Moreno Aerodrome (Argentina", "lat": -46.53833, "lon": -70.98472, "alt": 429}, {"wmo_id": "87860", "name": "Comodoro Rivadavia Aerodrome (Argentina", "lat": -45.79222, "lon": -67.46167, "alt": 58}, {"wmo_id": "87880", "name": "Gobernador Gregores Aerodrome (Argentina", "lat": -48.78222, "lon": -70.1625, "alt": 358}, {"wmo_id": "87896", "name": "Puerto Deseado Aerodrome (Argentina", "lat": -47.73361, "lon": -65.90778, "alt": 81}, {"wmo_id": "87904", "name": "El Calafate Aero (Argentina", "lat": -50.28444, "lon": -72.05139, "alt": 199}, {"wmo_id": "87909", "name": "San Julian Aerodrome (Argentina", "lat": -49.30806, "lon": -67.80306, "alt": 58}, {"wmo_id": "87912", "name": "Santa Cruz Aerodrome (Argentina", "lat": -50.01667, "lon": -68.56667, "alt": 113}, {"wmo_id": "87925", "name": "Rio Gallegos Aerodrome (Argentina", "lat": -51.61139, "lon": -69.30778, "alt": 20}, {"wmo_id": "87934", "name": "Rio Grande B. A. (Argentina", "lat": -53.78, "lon": -67.75861, "alt": 22}, {"wmo_id": "87938", "name": "Ushuaia Aerodrome (Argentina", "lat": -54.84, "lon": -68.30333, "alt": 57}];
    const EMBEDDED_SYNOPS = {"87774": [{"year": 2026, "month": 7, "day": 24, "hour": 13, "minute": 0, "report": "AAXX 24133 87774 42682 52702 10006 21016 39120 48/// 50011 83510 333 56660 83636="}, {"year": 2026, "month": 7, "day": 24, "hour": 12, "minute": 0, "report": "AAXX 24123 87774 32982 02702 11006 21017 39133 48463 52028 82500 333 10042 21018 56600 82636="}, {"year": 2026, "month": 7, "day": 24, "hour": 11, "minute": 0, "report": "AAXX 24113 87774 42982 02702 11006 21012 39110 48443 5////="}, {"year": 2026, "month": 7, "day": 24, "hour": 10, "minute": 0, "report": "AAXX 24103 87774 42682 22702 11014 21021 39109 48443 5//// 82500 333 56900 82636="}, {"year": 2026, "month": 7, "day": 24, "hour": 9, "minute": 0, "report": "AAXX 24093 87774 42682 22702 10004 21012 39105 48443 52015 82500 333 56900 82636="}, {"year": 2026, "month": 7, "day": 24, "hour": 6, "minute": 0, "report": "AAXX 24063 87774 12682 22705 10018 21002 39090 48428 52001 60001 82500 333 56600 82636="}, {"year": 2026, "month": 7, "day": 24, "hour": 3, "minute": 0, "report": "AAXX 24033 87774 42682 22705 10014 21007 39089 48424 52016 82500 333 56600 82636="}, {"year": 2026, "month": 7, "day": 24, "hour": 0, "minute": 0, "report": "AAXX 24003 87774 12982 02705 10042 20018 39073 48412 52015 60001 333 10075 20010="}, {"year": 2026, "month": 7, "day": 23, "hour": 23, "minute": 0, "report": "AAXX 23233 87774 42682 22705 10050 20027 39069 48410 52015 82500 333 56600 82636="}, {"year": 2026, "month": 7, "day": 23, "hour": 22, "minute": 0, "report": "AAXX 23223 87774 42682 22705 10061 20037 39064 48406 52008 82500 333 56600 82636="}, {"year": 2026, "month": 7, "day": 23, "hour": 21, "minute": 0, "report": "AAXX 23213 87774 42682 40000 10075 20043 39058 48401 53005 83510 333 56760 83636="}, {"year": 2026, "month": 7, "day": 23, "hour": 20, "minute": 0, "report": "AAXX 23203 87774 42682 60000 10062 20035 39054 48/// 56007 85510 333 56660 85636 83460="}, {"year": 2026, "month": 7, "day": 23, "hour": 19, "minute": 0, "report": "AAXX 23194 87774 42682 60000 10051 20031 39056 48/// 56008 84510 333 56760 84636 84460="}, {"year": 2026, "month": 7, "day": 23, "hour": 18, "minute": 0, "report": "AAXX 23183 87774 11684 60000 10046 20032 39053 48394 58011 60001 70142 84510 333 56760 84636 84460="}, {"year": 2026, "month": 7, "day": 23, "hour": 17, "minute": 0, "report": "AAXX 23173 87774 42682 70000 10037 20024 39061 48/// 56011 83515 333 56709 83636 83460="}, {"year": 2026, "month": 7, "day": 23, "hour": 16, "minute": 0, "report": "AAXX 23163 87774 42682 60502 10050 20027 39064 48/// 56012 83515 333 56109 83636 83460="}, {"year": 2026, "month": 7, "day": 23, "hour": 15, "minute": 0, "report": "AAXX 23153 87774 41682 60905 10018 20018 39064 48400 58008 70142 83515 333 56109 83636 84460="}, {"year": 2026, "month": 7, "day": 23, "hour": 14, "minute": 0, "report": "AAXX 23143 87774 41682 70908 10012 20012 39072 48/// 55003 72842 83520 333 56100 83636 85560 90105 90512="}, {"year": 2026, "month": 7, "day": 23, "hour": 13, "minute": 0, "report": "AAXX 23133 87774 41/03 90505 10010 20010 39076 48/// 55004 74742 333 90007="}], "87395": [{"year": 2026, "month": 7, "day": 24, "hour": 13, "minute": 0, "report": "AAXX 24134 87395 42265 80505 10146 20120 30156 4//// 53017 8267/ 333 56369 82705 88360="}, {"year": 2026, "month": 7, "day": 24, "hour": 12, "minute": 0, "report": "AAXX 24124 87395 32965 70907 10146 20122 30146 40191 51015 87050 333 10146 20110 30010 56060 87360="}, {"year": 2026, "month": 7, "day": 24, "hour": 11, "minute": 0, "report": "AAXX 24114 87395 42965 70000 10134 20123 30145 40190 53014 87050 333 56060 87360="}, {"year": 2026, "month": 7, "day": 24, "hour": 10, "minute": 0, "report": "AAXX 24104 87395 42965 80902 10128 20113 30138 40184 53006 8807/ 333 56069 88360="}, {"year": 2026, "month": 7, "day": 24, "hour": 9, "minute": 0, "report": "AAXX 24094 87395 42965 81403 10118 20103 30132 40177 55003 8807/ 333 56069 88360="}, {"year": 2026, "month": 7, "day": 24, "hour": 0, "minute": 0, "report": "AAXX 24004 87395 12465 80907 10146 20124 30146 40191 53007 60001 885// 333 10169 20121 56699 88615="}, {"year": 2026, "month": 7, "day": 23, "hour": 23, "minute": 0, "report": "AAXX 23234 87395 42565 81103 10150 20123 30146 40191 53005 885// 333 56699 88620="}, {"year": 2026, "month": 7, "day": 23, "hour": 22, "minute": 0, "report": "AAXX 23224 87395 42565 81104 10153 20118 30144 40188 53001 885// 333 56699 88630="}, {"year": 2026, "month": 7, "day": 23, "hour": 21, "minute": 0, "report": "AAXX 23214 87395 42565 81104 10156 20124 30140 40185 56005 885// 333 56699 88630="}, {"year": 2026, "month": 7, "day": 23, "hour": 20, "minute": 0, "report": "AAXX 23204 87395 42565 80906 10158 20118 30141 4//// 56007 885// 333 56699 88625="}, {"year": 2026, "month": 7, "day": 23, "hour": 19, "minute": 0, "report": "AAXX 23194 87395 42565 80708 10162 20106 30142 4//// 56018 885// 333 56799 88620="}, {"year": 2026, "month": 7, "day": 23, "hour": 18, "minute": 0, "report": "AAXX 23184 87395 12465 80710 10164 20113 30145 4//// 56022 60001 885// 333 56799 88615="}, {"year": 2026, "month": 7, "day": 23, "hour": 17, "minute": 0, "report": "AAXX 23174 87395 42465 80709 10166 20111 30148 4//// 58024 885// 333 56799 88615="}, {"year": 2026, "month": 7, "day": 23, "hour": 16, "minute": 0, "report": "AAXX 23164 87395 42465 80710 10164 20106 30106 4//// 58011 885// 333 56899 88612="}, {"year": 2026, "month": 7, "day": 23, "hour": 15, "minute": 0, "report": "AAXX 23154 87395 42465 70912 10158 20102 30167 4//// 58003 87600 333 56700 87712="}, {"year": 2026, "month": 7, "day": 23, "hour": 14, "minute": 0, "report": "AAXX 23144 87395 42365 60909 10152 20103 30172 4//// 53006 86600 333 56700 86708="}, {"year": 2026, "month": 7, "day": 23, "hour": 13, "minute": 0, "report": "AAXX 23134 87395 42365 70910 10131 20104 30171 4//// 53006 87600 333 56100 87707="}], "87550": [{"year": 2026, "month": 7, "day": 24, "hour": 12, "minute": 0, "report": "AAXX 24123 87550 01408 80503 10110 20102 30101 40194 52015 69914 74442 885// 333 10110 20094 56199 69902 88610="}, {"year": 2026, "month": 7, "day": 23, "hour": 21, "minute": 0, "report": "AAXX 23213 87550 42365 80505 10110 20106 30090 40183 57005 8672/ 333 56199 86709 88550="}, {"year": 2026, "month": 7, "day": 23, "hour": 18, "minute": 0, "report": "AAXX 23183 87550 12365 80506 10134 20089 30096 40189 57023 60001 8772/ 333 56199 87708 88556="}, {"year": 2026, "month": 7, "day": 23, "hour": 15, "minute": 0, "report": "AAXX 23153 87550 41365 80505 10111 20087 30118 40212 57015 70342 8672/ 333 56899 86709 88560="}], "87349": [{"year": 2026, "month": 7, "day": 24, "hour": 13, "minute": 0, "report": "AAXX 24134 87349 42560 81402 10093 20087 39794 40201 52027 885// 333 56099 88622="}, {"year": 2026, "month": 7, "day": 24, "hour": 12, "minute": 0, "report": "AAXX 24124 87349 32560 81405 10096 20092 39785 40191 52025 885// 333 10098 20090 30006 56099 88622="}, {"year": 2026, "month": 7, "day": 24, "hour": 11, "minute": 0, "report": "AAXX 24114 87349 42560 81402 10096 20088 39774 40180 52020 885// 333 56099 88620="}, {"year": 2026, "month": 7, "day": 24, "hour": 10, "minute": 0, "report": "AAXX 24104 87349 42560 80502 10096 20088 39768 40172 52010 885// 333 56099 88620="}, {"year": 2026, "month": 7, "day": 24, "hour": 9, "minute": 0, "report": "AAXX 24094 87349 42560 80502 10090 20082 39760 40164 53013 885// 333 56099 88620="}, {"year": 2026, "month": 7, "day": 24, "hour": 0, "minute": 0, "report": "AAXX 24004 87349 12460 80204 10090 20078 39756 40162 52005 60001 886// 333 10136 20086 56899 88715="}, {"year": 2026, "month": 7, "day": 23, "hour": 23, "minute": 0, "report": "AAXX 23234 87349 42560 80203 10096 20075 39752 40157 50003 885// 333 56899 88620="}, {"year": 2026, "month": 7, "day": 23, "hour": 22, "minute": 0, "report": "AAXX 23224 87349 42560 63605 10103 20072 39753 40157 53003 81506 333 56807 81620 86270="}, {"year": 2026, "month": 7, "day": 23, "hour": 21, "minute": 0, "report": "AAXX 23214 87349 42560 63608 10114 20071 39750 40155 55008 81506 333 56807 81625 86270="}, {"year": 2026, "month": 7, "day": 23, "hour": 20, "minute": 0, "report": "AAXX 23204 87349 42560 60210 10124 20066 39749 40152 57015 83505 333 56807 83620 84270="}, {"year": 2026, "month": 7, "day": 23, "hour": 19, "minute": 0, "report": "AAXX 23194 87349 42560 63612 10127 20067 39750 40154 57029 83505 333 56807 83620 84270="}, {"year": 2026, "month": 7, "day": 23, "hour": 18, "minute": 0, "report": "AAXX 23184 87349 12560 70212 10126 20071 39758 40161 57028 60001 85505 333 56807 85620 84270="}, {"year": 2026, "month": 7, "day": 23, "hour": 17, "minute": 0, "report": "AAXX 23174 87349 42560 73612 10121 20069 39764 40168 57028 87500 333 56800 87620="}, {"year": 2026, "month": 7, "day": 23, "hour": 16, "minute": 0, "report": "AAXX 23164 87349 42560 83610 10111 20074 39780 40185 58012 885// 333 56899 88620="}, {"year": 2026, "month": 7, "day": 23, "hour": 15, "minute": 0, "report": "AAXX 23154 87349 42560 83612 10110 20075 39786 40193 57012 885// 333 56899 88620="}, {"year": 2026, "month": 7, "day": 23, "hour": 14, "minute": 0, "report": "AAXX 23144 87349 42460 80209 10103 20083 39792 40198 56004 885// 333 56899 88618="}, {"year": 2026, "month": 7, "day": 23, "hour": 13, "minute": 0, "report": "AAXX 23134 87349 42460 83605 10093 20083 39792 40199 58003 886// 333 56899 88712="}], "87909": [{"year": 2026, "month": 7, "day": 24, "hour": 12, "minute": 0, "report": "AAXX 24123 87909 01340 82708 10020 20017 39976 40053 57006 60094 763// 8662/ 333 10040 20017 56009 60092 86708 86545="}, {"year": 2026, "month": 7, "day": 24, "hour": 0, "minute": 0, "report": "AAXX 24003 87909 11460 80916 10034 20008 30038 40117 56018 69901 7616/ 8562/ 333 10035 21086 56009 85710 88550="}, {"year": 2026, "month": 7, "day": 23, "hour": 18, "minute": 0, "report": "AAXX 23183 87909 11665 72910 11002 21005 30076 40156 58030 60001 710// 86510 333 5600 86635="}], "87356": [{"year": 2026, "month": 7, "day": 24, "hour": 13, "minute": 0, "report": "AAXX 24133 87356 41558 51102 10106 20102 30080 40191 52024 71022 81470 333 56660 81620 84360="}, {"year": 2026, "month": 7, "day": 24, "hour": 12, "minute": 0, "report": "AAXX 24123 87356 31556 51102 10096 20096 30070 40180 52016 71022 81570 333 10116 20086 56660 81620 85360="}, {"year": 2026, "month": 7, "day": 24, "hour": 11, "minute": 0, "report": "AAXX 24113 87356 41556 51102 10092 20092 30062 40173 52009 71022 81570 333 56660 81620 85360="}, {"year": 2026, "month": 7, "day": 24, "hour": 10, "minute": 0, "report": "AAXX 24103 87356 42565 51102 10096 20096 30056 40167 52004 81570 333 56660 81620 85360="}, {"year": 2026, "month": 7, "day": 24, "hour": 9, "minute": 0, "report": "AAXX 24093 87356 42565 51105 10102 20098 30054 40164 55003 84570 333 56260 84625 82360="}, {"year": 2026, "month": 7, "day": 24, "hour": 8, "minute": 0, "report": "AAXX 24083 87356 42565 51105 10106 20102 30053 40164 55009 84570 333 56260 84625 82360="}, {"year": 2026, "month": 7, "day": 24, "hour": 7, "minute": 0, "report": "AAXX 24073 87356 42465 50705 10110 20090 30052 40163 57005 84570 333 56260 84620 82360="}, {"year": 2026, "month": 7, "day": 24, "hour": 6, "minute": 0, "report": "AAXX 24063 87356 12465 50705 10110 20090 30057 40168 58009 60001 84570 333 56260 84620 82360="}, {"year": 2026, "month": 7, "day": 24, "hour": 5, "minute": 0, "report": "AAXX 24053 87356 42465 70705 10110 20106 30062 40173 53007 86570 333 56260 86620 83360="}, {"year": 2026, "month": 7, "day": 24, "hour": 4, "minute": 0, "report": "AAXX 24043 87356 42465 70705 10114 20106 30057 40168 57001 86570 333 56260 86620 83360="}, {"year": 2026, "month": 7, "day": 24, "hour": 3, "minute": 0, "report": "AAXX 24033 87356 42465 70905 10116 20108 30066 40177 53011 86570 333 56260 86620 83360="}, {"year": 2026, "month": 7, "day": 24, "hour": 2, "minute": 0, "report": "AAXX 24023 87356 42465 70905 10104 20088 30055 40165 54000 86570 333 56260 86620 83360="}, {"year": 2026, "month": 7, "day": 24, "hour": 1, "minute": 0, "report": "AAXX 24013 87356 42465 70905 10106 20090 30058 40168 54000 86570 333 56260 86620 83360="}, {"year": 2026, "month": 7, "day": 24, "hour": 0, "minute": 0, "report": "AAXX 24003 87356 12465 70902 10106 20090 30055 40165 51002 60001 86570 333 10148 20095 56260 86620 83360="}, {"year": 2026, "month": 7, "day": 23, "hour": 23, "minute": 0, "report": "AAXX 23233 87356 42965 50905 10106 20090 30055 40165 54000 83076 333 56066 83630 84270="}, {"year": 2026, "month": 7, "day": 23, "hour": 22, "minute": 0, "report": "AAXX 23223 87356 42465 80205 10136 20093 30058 40168 57002 885// 333 56199 88615="}, {"year": 2026, "month": 7, "day": 23, "hour": 21, "minute": 0, "report": "AAXX 23213 87356 42465 80205 10136 20093 30058 40168 57002 885// 333 56199 88615="}, {"year": 2026, "month": 7, "day": 23, "hour": 20, "minute": 0, "report": "AAXX 23203 87356 42465 83608 10140 20089 30055 40164 58014 885// 333 56199 88616="}, {"year": 2026, "month": 7, "day": 23, "hour": 19, "minute": 0, "report": "AAXX 23193 87356 42465 83608 10144 20089 30060 40172 56021 885// 333 56199 88616="}, {"year": 2026, "month": 7, "day": 23, "hour": 18, "minute": 0, "report": "AAXX 23183 87356 12465 83608 10144 20089 30060 40172 57028 60001 885// 333 56199 88616="}, {"year": 2026, "month": 7, "day": 23, "hour": 17, "minute": 0, "report": "AAXX 23173 87356 42465 80213 10144 20096 30070 40180 57024 885// 333 56199 88615="}, {"year": 2026, "month": 7, "day": 23, "hour": 16, "minute": 0, "report": "AAXX 23163 87356 42465 80508 10144 20100 30081 40192 57015 885// 333 56199 88612="}, {"year": 2026, "month": 7, "day": 23, "hour": 15, "minute": 0, "report": "AAXX 23153 87356 41258 80908 10136 20106 30088 40199 57002 71022 886// 333 56299 88705="}, {"year": 2026, "month": 7, "day": 23, "hour": 14, "minute": 0, "report": "AAXX 23143 87356 41258 80908 10132 20113 30094 40204 50009 71042 886// 333 56299 88705="}, {"year": 2026, "month": 7, "day": 23, "hour": 13, "minute": 0, "report": "AAXX 23133 87356 41258 80908 10111 20109 30096 40207 53011 72842 886// 333 56299 88705 96010="}], "87791": [{"year": 2026, "month": 7, "day": 24, "hour": 13, "minute": 0, "report": "AAXX 24134 87791 41962 13013 10085 20059 30128 40137 52012 71000 81030 333 56060 81360="}, {"year": 2026, "month": 7, "day": 24, "hour": 12, "minute": 0, "report": "AAXX 24124 87791 11562 13109 10068 20057 30128 40136 52016 69914 71011 81130 333 10098 20067 31004 56760 81820="}, {"year": 2026, "month": 7, "day": 24, "hour": 11, "minute": 0, "report": "AAXX 24114 87791 42480 13112 10073 20060 30118 40127 53001 81730 333 56760 81712="}, {"year": 2026, "month": 7, "day": 24, "hour": 10, "minute": 0, "report": "AAXX 24104 87791 42480 23311 10077 20066 30116 40125 55007 81770 333 56760 81712="}, {"year": 2026, "month": 7, "day": 24, "hour": 9, "minute": 0, "report": "AAXX 24094 87791 42480 33213 10082 20069 30112 40121 58012 81770 333 56760 81712 83360="}, {"year": 2026, "month": 7, "day": 24, "hour": 8, "minute": 0, "report": "AAXX 24084 87791 42480 83313 10090 20073 30117 40126 57009 887// 333 56799 88712="}, {"year": 2026, "month": 7, "day": 24, "hour": 7, "minute": 0, "report": "AAXX 24074 87791 42480 83311 10092 20075 30123 40132 57004 8577/ 333 56769 85710 85360="}, {"year": 2026, "month": 7, "day": 24, "hour": 6, "minute": 0, "report": "AAXX 24064 87791 11480 73412 10096 20075 30124 40133 50000 69901 70162 82770 333 56760 82710 87360="}, {"year": 2026, "month": 7, "day": 24, "hour": 5, "minute": 0, "report": "AAXX 24054 87791 42780 83409 10097 20078 30127 40136 57001 8807/ 333 56069 88556="}, {"year": 2026, "month": 7, "day": 24, "hour": 4, "minute": 0, "report": "AAXX 24044 87791 41780 83509 10098 20077 30126 40135 54000 70262 8807/ 333 56069 88556="}, {"year": 2026, "month": 7, "day": 24, "hour": 3, "minute": 0, "report": "AAXX 24034 87791 41780 83510 10096 20073 30124 40133 57004 72162 8802/ 333 56079 88550="}, {"year": 2026, "month": 7, "day": 24, "hour": 2, "minute": 0, "report": "AAXX 24024 87791 41670 83608 10093 20070 30128 40137 52003 76162 8802/ 333 56079 88545="}, {"year": 2026, "month": 7, "day": 24, "hour": 1, "minute": 0, "report": "AAXX 24014 87791 41580 83610 10096 20073 30126 40135 57001 70262 8152/ 333 56769 81620 88550="}, {"year": 2026, "month": 7, "day": 24, "hour": 0, "minute": 0, "report": "AAXX 24004 87791 11580 80108 10097 20076 30128 40137 55003 69911 72162 8152/ 333 10113 20075 56769 81620 88550="}, {"year": 2026, "month": 7, "day": 23, "hour": 23, "minute": 0, "report": "AAXX 23234 87791 41770 80212 10100 20071 30125 40134 58005 76162 8802/ 333 56069 88550="}, {"year": 2026, "month": 7, "day": 23, "hour": 22, "minute": 0, "report": "AAXX 23224 87791 42780 80210 10106 20071 30128 40136 57008 86075 333 56066 86550="}, {"year": 2026, "month": 7, "day": 23, "hour": 21, "minute": 0, "report": "AAXX 23214 87791 42980 80107 10107 20069 30130 40140 56007 86075 333 56066 86360="}, {"year": 2026, "month": 7, "day": 23, "hour": 20, "minute": 0, "report": "AAXX 23204 87791 42480 80109 10111 20067 30130 40140 57015 82515 333 56866 82618 86460="}, {"year": 2026, "month": 7, "day": 23, "hour": 19, "minute": 0, "report": "AAXX 23194 87791 42480 83609 10112 20071 30136 40145 57020 84515 333 56866 84618 86460="}, {"year": 2026, "month": 7, "day": 23, "hour": 18, "minute": 0, "report": "AAXX 23184 87791 12480 83610 10108 20066 30137 40146 57029 60001 84515 333 56766 84618 85460="}, {"year": 2026, "month": 7, "day": 23, "hour": 17, "minute": 0, "report": "AAXX 23174 87791 42480 83610 10107 20062 30145 40154 58021 83515 333 56776 83618 86460="}, {"year": 2026, "month": 7, "day": 23, "hour": 16, "minute": 0, "report": "AAXX 23164 87791 42480 80111 10101 20063 30156 40165 58009 82577 333 56776 82615 85360 88270="}, {"year": 2026, "month": 7, "day": 23, "hour": 15, "minute": 0, "report": "AAXX 23154 87791 42480 83608 10097 20063 30166 40175 51003 81577 333 56776 81615 86360 88270="}, {"year": 2026, "month": 7, "day": 23, "hour": 14, "minute": 0, "report": "AAXX 23144 87791 42980 80109 10094 20064 30166 40175 55001 85077 333 56076 85360 88270="}, {"year": 2026, "month": 7, "day": 23, "hour": 13, "minute": 0, "report": "AAXX 23134 87791 42980 70208 10087 20059 30165 40174 55003 85076 333 56066 85360 87270="}], "87573": [{"year": 2026, "month": 7, "day": 24, "hour": 13, "minute": 0, "report": "AAXX 24134 87573 42560 70503 10128 20105 30173 40202 52008 81576 333 56166 81620 85360 85270="}, {"year": 2026, "month": 7, "day": 24, "hour": 12, "minute": 0, "report": "AAXX 24124 87573 32560 70503 10124 20105 30173 40202 52013 81776 333 1//// 20115 56866 81720 85360 85270="}, {"year": 2026, "month": 7, "day": 24, "hour": 11, "minute": 0, "report": "AAXX 24114 87573 42560 70205 10121 20104 30166 40195 5//// 82575 333 56866 82620 86360="}, {"year": 2026, "month": 7, "day": 24, "hour": 10, "minute": 0, "report": "AAXX 24104 87573 42560 80202 10122 20107 30165 40194 5//// 83575 333 56866 83625 87360="}, {"year": 2026, "month": 7, "day": 24, "hour": 9, "minute": 0, "report": "AAXX 24094 87573 42460 80505 10123 20110 30160 40189 57009 886// 333 56899 82718 88625="}, {"year": 2026, "month": 7, "day": 24, "hour": 6, "minute": 0, "report": "AAXX 24064 87573 12560 80505 10133 20100 30169 40198 57001 60001 885// 333 56899 88630="}, {"year": 2026, "month": 7, "day": 24, "hour": 3, "minute": 0, "report": "AAXX 24034 87573 42560 80205 10130 20099 30170 40200 54000 885// 333 56899 88630="}, {"year": 2026, "month": 7, "day": 24, "hour": 0, "minute": 0, "report": "AAXX 24004 87573 12560 60505 10130 20093 30170 40199 55001 60001 85505 333 1//// 20083 56106 85630 84270="}, {"year": 2026, "month": 7, "day": 23, "hour": 23, "minute": 0, "report": "AAXX 23234 87573 42560 60507 10132 20095 30169 40199 57004 85505 333 56106 85625 84270="}, {"year": 2026, "month": 7, "day": 23, "hour": 22, "minute": 0, "report": "AAXX 23224 87573 42560 60507 10136 20098 30170 40199 57004 84505 333 56106 84625 84270="}, {"year": 2026, "month": 7, "day": 23, "hour": 21, "minute": 0, "report": "AAXX 23214 87573 42460 50507 10138 20096 30172 40201 57003 83675 333 56166 83718 83625="}, {"year": 2026, "month": 7, "day": 23, "hour": 20, "minute": 0, "report": "AAXX 23204 87573 42560 50507 10145 20101 30173 40202 57008 83575 333 56166 83625 84360="}, {"year": 2026, "month": 7, "day": 23, "hour": 19, "minute": 0, "report": "AAXX 23194 87573 42560 60513 10152 20095 30174 40203 56017 86500 333 56100 83620 86828="}, {"year": 2026, "month": 7, "day": 23, "hour": 18, "minute": 0, "report": "AAXX 23184 87573 12560 60512 10148 20090 30174 40203 57029 60001 86505 333 56106 86625 83270="}, {"year": 2026, "month": 7, "day": 23, "hour": 17, "minute": 0, "report": "AAXX 23174 87573 42560 40512 10151 20087 30181 40210 58021 84105 333 56106 84828="}, {"year": 2026, "month": 7, "day": 23, "hour": 16, "minute": 0, "report": "AAXX 23164 87573 42560 30515 10151 20078 30192 40221 55013 82175 333 56166 82828 83270="}, {"year": 2026, "month": 7, "day": 23, "hour": 15, "minute": 0, "report": "AAXX 23154 87573 42560 40513 10145 20082 30204 40233 55009 81175 333 56866 81828 84270="}, {"year": 2026, "month": 7, "day": 23, "hour": 14, "minute": 0, "report": "AAXX 23144 87573 42660 40510 10134 20082 30202 40232 57013 81175 333 56866 81835 83270="}, {"year": 2026, "month": 7, "day": 23, "hour": 13, "minute": 0, "report": "AAXX 23134 87573 41958 40902 10099 20072 30205 40234 58008 71010 80002 333 56006 84070="}], "87173": [{"year": 2026, "month": 7, "day": 24, "hour": 12, "minute": 0, "report": "AAXX 24123 87173 11410 71405 10156 20153 30072 40158 5//// 69904 71022 87700 333 10156 20125 30012 56700 87710="}, {"year": 2026, "month": 7, "day": 24, "hour": 0, "minute": 0, "report": "AAXX 24003 87173 12465 51406 10144 20137 30074 40161 54000 60001 83750 333 10170 20138 56320 83710 83360="}, {"year": 2026, "month": 7, "day": 23, "hour": 21, "minute": 0, "report": "AAXX 23213 87173 42465 71405 10160 20135 30074 40160 57007 84750 333 56770 84710 84360="}, {"year": 2026, "month": 7, "day": 23, "hour": 18, "minute": 0, "report": "AAXX 23183 87173 11365 81405 10166 20134 30081 40167 57016 69901 70252 887// 333 56799 88708="}, {"year": 2026, "month": 7, "day": 23, "hour": 15, "minute": 0, "report": "AAXX 23153 87173 41340 80505 10148 20134 30097 40183 52003 75152 887// 333 56799 88708="}], "87509": [{"year": 2026, "month": 7, "day": 24, "hour": 13, "minute": 0, "report": "AAXX 24134 87509 42970 72306 10076 21003 39310 4//// 52024 81076 333 56055 81360 86270="}, {"year": 2026, "month": 7, "day": 24, "hour": 12, "minute": 0, "report": "AAXX 24124 87509 32970 62708 10062 21010 39302 40182 52016 81071 333 10085 20031 56055 81360 86070="}, {"year": 2026, "month": 7, "day": 24, "hour": 11, "minute": 0, "report": "AAXX 24114 87509 42970 62706 10066 21004 39297 40174 53/// 81071 333 56055 81360 85070="}, {"year": 2026, "month": 7, "day": 24, "hour": 10, "minute": 0, "report": "AAXX 24104 87509 42970 62705 10060 21012 39286 40161 53/// 80001 333 56005 86070="}, {"year": 2026, "month": 7, "day": 24, "hour": 9, "minute": 0, "report": "AAXX 24094 87509 42965 32703 10060 20000 39286 40155 55/// 80001 333 56005 83070="}, {"year": 2026, "month": 7, "day": 24, "hour": 0, "minute": 0, "report": "AAXX 24004 87509 12970 52302 10076 20045 39258 40138 52016 60001 85070 333 10145 21008 56050 85360="}, {"year": 2026, "month": 7, "day": 23, "hour": 23, "minute": 0, "report": "AAXX 23234 87509 42970 53607 10083 20046 39253 40129 52013 85070 333 56050 85360="}, {"year": 2026, "month": 7, "day": 23, "hour": 22, "minute": 0, "report": "AAXX 23224 87509 42970 40507 10102 20046 39245 40120 52009 84070 333 56050 84360="}, {"year": 2026, "month": 7, "day": 23, "hour": 21, "minute": 0, "report": "AAXX 23214 87509 42970 40506 10132 20043 39242 40112 53005 84070 333 56050 84360="}, {"year": 2026, "month": 7, "day": 23, "hour": 20, "minute": 0, "report": "AAXX 23204 87509 42970 50511 10136 20038 39240 4//// 57010 85070 333 56050 85360="}, {"year": 2026, "month": 7, "day": 23, "hour": 19, "minute": 0, "report": "AAXX 23194 87509 42970 53608 10128 20027 39236 4//// 57029 85070 333 56050 85360="}, {"year": 2026, "month": 7, "day": 23, "hour": 18, "minute": 0, "report": "AAXX 23184 87509 12970 50507 10126 20030 39238 4//// 57037 60001 85070 333 56050 85360="}, {"year": 2026, "month": 7, "day": 23, "hour": 17, "minute": 0, "report": "AAXX 23174 87509 42970 53607 10118 20024 39250 57016 85070 333 56050 85360="}, {"year": 2026, "month": 7, "day": 23, "hour": 16, "minute": 0, "report": "AAXX 23164 87509 42970 60509 10082 20037 39265 4//// 57004 86070 333 56050 86360="}, {"year": 2026, "month": 7, "day": 23, "hour": 15, "minute": 0, "report": "AAXX 23154 87509 42970 73202 10076 20030 39275 4//// 52008 87070 333 56050 87360="}, {"year": 2026, "month": 7, "day": 23, "hour": 14, "minute": 0, "report": "AAXX 23144 87509 42970 62702 10064 20021 39266 4//// 57001 86070 333 56050 86360="}, {"year": 2026, "month": 7, "day": 23, "hour": 13, "minute": 0, "report": "AAXX 23134 87509 42970 72703 10048 20014 39269 4//// 55005 87070 333 56050 87360="}], "87637": [{"year": 2026, "month": 7, "day": 24, "hour": 13, "minute": 0, "report": "AAXX 24134 87637 41358 83209 10102 20092 39908 40189 51017 71022 886// 333 56799 88707="}, {"year": 2026, "month": 7, "day": 24, "hour": 12, "minute": 0, "report": "AAXX 24124 87637 01350 83408 10097 20091 39902 40185 51019 69924 71022 886// 333 10098 20086 31008 56799 69922 88707="}, {"year": 2026, "month": 7, "day": 24, "hour": 11, "minute": 0, "report": "AAXX 24114 87637 41256 83209 10096 20092 39898 40180 53012 71022 886// 333 56899 88705="}, {"year": 2026, "month": 7, "day": 24, "hour": 10, "minute": 0, "report": "AAXX 24104 87637 41130 83208 10096 20094 39890 40173 55001 71022 886// 333 56899 88703="}, {"year": 2026, "month": 7, "day": 24, "hour": 9, "minute": 0, "report": "AAXX 24094 87637 42258 83412 10096 20092 39884 40166 56007 886// 333 56899 88704="}, {"year": 2026, "month": 7, "day": 24, "hour": 0, "minute": 0, "report": "AAXX 24004 87637 11340 83609 10092 20088 39898 40182 52003 69901 76062 887// 333 10096 20043 56199 88707 96010="}, {"year": 2026, "month": 7, "day": 23, "hour": 18, "minute": 0, "report": "AAXX 23184 87637 11456 80213 10080 20063 39902 40187 57021 60001 71042 886// 333 56199 88715="}, {"year": 2026, "month": 7, "day": 23, "hour": 15, "minute": 0, "report": "AAXX 23154 87637 41420 80512 10064 20053 39924 40209 57004 71042 886// 333 56199 88715="}, {"year": 2026, "month": 7, "day": 23, "hour": 14, "minute": 0, "report": "AAXX 23144 87637 41409 80513 10059 20045 39924 40209 58003 74444 886// 333 56899 88715="}, {"year": 2026, "month": 7, "day": 23, "hour": 13, "minute": 0, "report": "AAXX 23134 87637 41409 80213 10050 20045 39928 40214 54000 74642 886// 333 56199 88715="}], "87065": [{"year": 2026, "month": 7, "day": 24, "hour": 12, "minute": 0, "report": "AAXX 24123 87065 32570 80000 10130 20082 39883 40123 5//// 885// 333 10190 20118 56800 88630="}, {"year": 2026, "month": 7, "day": 24, "hour": 0, "minute": 0, "report": "AAXX 24003 87065 12470 80000 10184 20115 39896 40136 52023 60001 885// 333 10220 20113 56900 88620="}, {"year": 2026, "month": 7, "day": 23, "hour": 21, "minute": 0, "report": "AAXX 23213 87065 32970 00000 10210 20101 39873 4//// 57027="}, {"year": 2026, "month": 7, "day": 23, "hour": 18, "minute": 0, "report": "AAXX 23183 87065 12970 00000 10206 20105 39900 4//// 57045 60001="}, {"year": 2026, "month": 7, "day": 23, "hour": 15, "minute": 0, "report": "AAXX 23153 87065 32570 30000 10176 20093 39945 4//// 52009 83500 333 56800 83634="}], "87257": [{"year": 2026, "month": 7, "day": 24, "hour": 13, "minute": 0, "report": "AAXX 24134 87257 41930 20603 10124 20118 30082 4//// 53024 72840 80002 333 56006 82070 96010="}, {"year": 2026, "month": 7, "day": 24, "hour": 12, "minute": 0, "report": "AAXX 24124 87257 31901 01002 10084 20078 30072 40179 53016 7444/ 333 10112 20054 30005="}, {"year": 2026, "month": 7, "day": 24, "hour": 11, "minute": 0, "report": "AAXX 24114 87257 41901 00505 10073 20067 30061 40168 51010 74444="}, {"year": 2026, "month": 7, "day": 24, "hour": 10, "minute": 0, "report": "AAXX 24104 87257 41901 00703 10077 20068 30058 40166 53007 7464/="}, {"year": 2026, "month": 7, "day": 24, "hour": 9, "minute": 0, "report": "AAXX 24094 87257 41902 00804 10083 20075 30056 40163 55002 7464/="}, {"year": 2026, "month": 7, "day": 24, "hour": 0, "minute": 0, "report": "AAXX 24004 87257 12965 70505 10112 20098 30061 40168 53008 60001 87070 333 10154 20080 56070 87360="}, {"year": 2026, "month": 7, "day": 23, "hour": 23, "minute": 0, "report": "AAXX 23234 87257 42965 70805 10114 20094 30054 40161 56004 87070 333 56070 87360="}, {"year": 2026, "month": 7, "day": 23, "hour": 22, "minute": 0, "report": "AAXX 23224 87257 42965 60502 10122 20099 30057 40164 55004 86070 333 56070 86360="}, {"year": 2026, "month": 7, "day": 23, "hour": 21, "minute": 0, "report": "AAXX 23214 87257 42565 60303 10144 20094 30053 40160 57013 82572 333 56876 82630 83360="}, {"year": 2026, "month": 7, "day": 23, "hour": 20, "minute": 0, "report": "AAXX 23204 87257 42565 73603 10152 20095 30058 4//// 57015 86502 333 56806 86630 85070="}, {"year": 2026, "month": 7, "day": 23, "hour": 19, "minute": 0, "report": "AAXX 23194 87257 42565 73404 10151 20091 30061 4//// 57027 87502 333 56806 87630 84070="}, {"year": 2026, "month": 7, "day": 23, "hour": 18, "minute": 0, "report": "AAXX 23184 87257 11565 73406 10149 20093 30066 4//// 57032 60001 70242 87502 333 56806 87630 84070="}, {"year": 2026, "month": 7, "day": 23, "hour": 17, "minute": 0, "report": "AAXX 23174 87257 42565 73406 10144 20098 30073 4//// 58029 87502 333 56806 87625 84070="}, {"year": 2026, "month": 7, "day": 23, "hour": 16, "minute": 0, "report": "AAXX 23164 87257 42565 70207 10140 20102 30088 4//// 58015 87500 333 56200 87620="}, {"year": 2026, "month": 7, "day": 23, "hour": 15, "minute": 0, "report": "AAXX 23154 87257 41565 80105 10126 20103 30098 4//// 50001 70242 885// 333 56299 88620="}, {"year": 2026, "month": 7, "day": 23, "hour": 14, "minute": 0, "report": "AAXX 23144 87257 41458 80406 10116 20104 30102 4//// 51008 71042 886// 333 56299 88715="}, {"year": 2026, "month": 7, "day": 23, "hour": 13, "minute": 0, "report": "AAXX 23134 87257 41456 80607 10104 20092 30102 4//// 52016 72842 886// 333 56299 88715 96010="}], "87574": [{"year": 2026, "month": 7, "day": 24, "hour": 13, "minute": 0, "report": "AAXX 24134 87574 42960 80304 10137 20117 30165 40194 52005 8807/ 333 56079 88360="}, {"year": 2026, "month": 7, "day": 24, "hour": 12, "minute": 0, "report": "AAXX 24124 87574 31958 80304 10131 20112 30164 40192 53011 69904 71052 8807/ 333 10142 20120 3//// 56079 69901 88360="}, {"year": 2026, "month": 7, "day": 24, "hour": 11, "minute": 0, "report": "AAXX 24114 87574 41960 89902 10127 20110 30158 40187 50005 70252 8807/ 333 56079 88360="}, {"year": 2026, "month": 7, "day": 24, "hour": 10, "minute": 0, "report": "AAXX 24104 87574 41760 80502 10126 20113 30160 40188 54000 72055 8807/ 333 56079 88550="}, {"year": 2026, "month": 7, "day": 24, "hour": 9, "minute": 0, "report": "AAXX 24094 87574 41450 80506 10126 20115 30153 40182 56008 75155 8662/ 333 56170 86712 88548 96010="}, {"year": 2026, "month": 7, "day": 24, "hour": 8, "minute": 0, "report": "AAXX 24084 87574 41460 80305 10130 20115 30153 40182 57008 72052 886// 333 56199 88712="}, {"year": 2026, "month": 7, "day": 24, "hour": 7, "minute": 0, "report": "AAXX 24074 87574 41459 83605 10132 20117 30160 40189 58003 75052 8562/ 333 56879 85712 88550="}, {"year": 2026, "month": 7, "day": 24, "hour": 6, "minute": 0, "report": "AAXX 24064 87574 12660 80505 10140 20102 30161 40190 56001 60001 885// 333 56199 88642="}, {"year": 2026, "month": 7, "day": 24, "hour": 5, "minute": 0, "report": "AAXX 24054 87574 42660 80506 10142 20100 30161 40190 58001 885// 333 56199 88640="}, {"year": 2026, "month": 7, "day": 24, "hour": 4, "minute": 0, "report": "AAXX 24044 87574 42960 80204 10140 20106 30162 40191 53005 8807/ 333 56079 88360="}, {"year": 2026, "month": 7, "day": 24, "hour": 3, "minute": 0, "report": "AAXX 24034 87574 42960 80205 10140 20102 30162 40191 54000 8807/ 333 56079 88360="}, {"year": 2026, "month": 7, "day": 24, "hour": 2, "minute": 0, "report": "AAXX 24024 87574 42960 70207 10136 20102 30162 40191 55001 86076 333 56077 86360="}, {"year": 2026, "month": 7, "day": 24, "hour": 1, "minute": 0, "report": "AAXX 24014 87574 42960 70206 10136 20098 30157 40186 58005 85076 333 56077 85360 83270="}, {"year": 2026, "month": 7, "day": 24, "hour": 0, "minute": 0, "report": "AAXX 24004 87574 12960 73608 10134 20095 30162 40191 58001 60001 85076 333 10160 20100 56077 85360 83270="}, {"year": 2026, "month": 7, "day": 23, "hour": 23, "minute": 0, "report": "AAXX 23234 87574 42960 70207 10134 20099 30164 40192 55003 80006 333 56007 87270="}, {"year": 2026, "month": 7, "day": 23, "hour": 22, "minute": 0, "report": "AAXX 23224 87574 42460 70506 10136 20100 30162 40191 56004 85506 333 56104 85617 87270="}, {"year": 2026, "month": 7, "day": 23, "hour": 21, "minute": 0, "report": "AAXX 23214 87574 42660 70907 10137 20097 30164 40193 56001 86506 333 56202 86644 87270="}, {"year": 2026, "month": 7, "day": 23, "hour": 20, "minute": 0, "report": "AAXX 23204 87574 42660 70906 10142 20098 30166 40195 56003 87500 333 56100 87644="}, {"year": 2026, "month": 7, "day": 23, "hour": 19, "minute": 0, "report": "AAXX 23194 87574 42560 80209 10153 20089 30166 40195 56011 885// 333 56199 86725 88635="}, {"year": 2026, "month": 7, "day": 23, "hour": 18, "minute": 0, "report": "AAXX 23184 87574 12560 70508 10151 20087 30165 40194 56027 60001 87500 333 56000 87626="}, {"year": 2026, "month": 7, "day": 23, "hour": 17, "minute": 0, "report": "AAXX 23174 87574 42560 40509 10148 20081 30169 40198 56025 83504 333 56104 83622="}, {"year": 2026, "month": 7, "day": 23, "hour": 16, "minute": 0, "report": "AAXX 23164 87574 42560 30209 10145 20080 30177 40206 57019 82102 333 56102 82820="}, {"year": 2026, "month": 7, "day": 23, "hour": 15, "minute": 0, "report": "AAXX 23154 87574 42460 40509 10140 20073 30192 40220 56004 82102 333 56102 82815="}, {"year": 2026, "month": 7, "day": 23, "hour": 14, "minute": 0, "report": "AAXX 23144 87574 42460 40507 10136 20078 30194 40223 56001 82102 333 56102 82815="}, {"year": 2026, "month": 7, "day": 23, "hour": 13, "minute": 0, "report": "AAXX 23134 87574 42960 30504 10113 20095 30196 40226 50000 80005 333 56004 83270="}], "87585": [{"year": 2026, "month": 7, "day": 24, "hour": 13, "minute": 0, "report": "AAXX 24134 87585 42560 73604 10140 20112 30172 40201 52008 83570 333 56780 83620 87360="}, {"year": 2026, "month": 7, "day": 24, "hour": 12, "minute": 0, "report": "AAXX 24124 87585 01560 73604 10135 20111 30169 40199 52012 69904 70152 87500 333 10145 20130 56100 69901 87620="}, {"year": 2026, "month": 7, "day": 24, "hour": 11, "minute": 0, "report": "AAXX 24114 87585 41560 80204 10133 20109 30164 40194 52005 70252 885// 333 56199 88620="}, {"year": 2026, "month": 7, "day": 24, "hour": 10, "minute": 0, "report": "AAXX 24104 87585 41460 83607 10132 20109 30164 40193 55000 72052 886// 333 56699 88715="}, {"year": 2026, "month": 7, "day": 24, "hour": 9, "minute": 0, "report": "AAXX 24094 87585 41459 83603 10134 20112 30157 40187 57007 75052 886// 333 56699 88715="}, {"year": 2026, "month": 7, "day": 24, "hour": 8, "minute": 0, "report": "AAXX 24084 87585 42560 63602 10134 20112 30158 40188 57008 86500 333 56600 86620="}, {"year": 2026, "month": 7, "day": 24, "hour": 7, "minute": 0, "report": "AAXX 24074 87585 42560 63603 10136 20114 30164 40194 57004 86500 333 56600 86620="}, {"year": 2026, "month": 7, "day": 24, "hour": 6, "minute": 0, "report": "AAXX 24064 87585 12560 63604 10142 20106 30164 40194 57003 60001 86500 333 56600 86620="}, {"year": 2026, "month": 7, "day": 24, "hour": 5, "minute": 0, "report": "AAXX 24054 87585 42560 63603 10142 20106 30166 40196 50001 86500 333 56600 86620="}, {"year": 2026, "month": 7, "day": 24, "hour": 4, "minute": 0, "report": "AAXX 24044 87585 42560 63605 10144 20106 30168 40197 52004 86500 333 56600 86620="}, {"year": 2026, "month": 7, "day": 24, "hour": 3, "minute": 0, "report": "AAXX 24034 87585 42560 63603 10142 20106 30166 40196 52001 86500 333 56600 86620="}, {"year": 2026, "month": 7, "day": 24, "hour": 2, "minute": 0, "report": "AAXX 24024 87585 42560 53604 10142 20104 30165 40195 57001 85500 333 56600 85620="}, {"year": 2026, "month": 7, "day": 24, "hour": 1, "minute": 0, "report": "AAXX 24014 87585 42560 53609 10142 20104 30164 40193 57004 85500 333 56600 85620="}, {"year": 2026, "month": 7, "day": 24, "hour": 0, "minute": 0, "report": "AAXX 24004 87585 12560 53606 10142 20104 30165 40195 57004 60001 85500 333 10156 20115 56600 85620="}, {"year": 2026, "month": 7, "day": 23, "hour": 23, "minute": 0, "report": "AAXX 23234 87585 42560 53610 10142 20100 30166 40196 57004 85500 333 56600 85620="}, {"year": 2026, "month": 7, "day": 23, "hour": 22, "minute": 0, "report": "AAXX 23224 87585 42560 50000 10139 20109 30168 40198 57004 85500 333 56600 85620="}, {"year": 2026, "month": 7, "day": 23, "hour": 21, "minute": 0, "report": "AAXX 23214 87585 42560 70904 10139 20101 30169 40199 58003 87600 333 56200 87722="}, {"year": 2026, "month": 7, "day": 23, "hour": 20, "minute": 0, "report": "AAXX 23204 87585 42560 60909 10144 20102 30170 40200 57007 86500 333 56200 83720 85625="}, {"year": 2026, "month": 7, "day": 23, "hour": 19, "minute": 0, "report": "AAXX 23194 87585 42560 60908 10152 20099 30172 40202 56013 86500 333 56200 83720 85625="}, {"year": 2026, "month": 7, "day": 23, "hour": 18, "minute": 0, "report": "AAXX 23184 87585 12560 50508 10156 20091 30172 40201 57029 60001 85504 333 56106 85622="}, {"year": 2026, "month": 7, "day": 23, "hour": 17, "minute": 0, "report": "AAXX 23174 87585 42460 20211 10153 20089 30177 40207 57025 81604 333 56106 81719="}, {"year": 2026, "month": 7, "day": 23, "hour": 16, "minute": 0, "report": "AAXX 23164 87585 42460 30504 10142 20089 30185 40215 57016 81634 333 56266 81718="}, {"year": 2026, "month": 7, "day": 23, "hour": 15, "minute": 0, "report": "AAXX 23154 87585 42460 40505 10140 20085 30201 40232 57001 82634 333 56166 82718="}, {"year": 2026, "month": 7, "day": 23, "hour": 14, "minute": 0, "report": "AAXX 23144 87585 42460 30505 10132 20091 30202 40233 52001 82634 333 56166 82718="}, {"year": 2026, "month": 7, "day": 23, "hour": 13, "minute": 0, "report": "AAXX 23134 87585 42460 50503 10118 20092 30201 40232 50000 83604 333 56106 83718 83070="}], "87213": [{"year": 2026, "month": 7, "day": 24, "hour": 12, "minute": 0, "report": "AAXX 24124 87213 31960 00000 10028 20022 39110 48505 53020 74140 333 10086 20017="}, {"year": 2026, "month": 7, "day": 24, "hour": 0, "minute": 0, "report": "AAXX 24004 87213 12970 00000 10086 20048 39073 48479 53005 60001 333 10142 20023="}], "87497": [{"year": 2026, "month": 7, "day": 24, "hour": 13, "minute": 0, "report": "AAXX 24134 87497 42465 80502 10126 20115 30174 40199 51016 8567/ 333 56669 85715 88360="}, {"year": 2026, "month": 7, "day": 24, "hour": 12, "minute": 0, "report": "AAXX 24124 87497 32965 60502 10120 20112 30164 40189 51008 85058 333 10136 20120 56066 85360 86270="}, {"year": 2026, "month": 7, "day": 24, "hour": 11, "minute": 0, "report": "AAXX 24114 87497 42965 60502 10120 20112 30162 40187 51012 85058 333 56066 85360 86270="}, {"year": 2026, "month": 7, "day": 24, "hour": 10, "minute": 0, "report": "AAXX 24104 87497 42965 60502 10120 20112 30158 40183 51007 80008 333 56006 86270="}, {"year": 2026, "month": 7, "day": 24, "hour": 9, "minute": 0, "report": "AAXX 24094 87497 42965 60502 10124 20109 30156 40180 51003 80001 333 56006 86070="}, {"year": 2026, "month": 7, "day": 24, "hour": 0, "minute": 0, "report": "AAXX 24003 87497 12465 80706 10136 20114 30165 40191 55001 60001 885// 333 10145 20096 56199 88615="}, {"year": 2026, "month": 7, "day": 23, "hour": 23, "minute": 0, "report": "AAXX 23233 87497 42465 80706 10138 20112 30164 40190 54000 885// 333 56199 88615="}, {"year": 2026, "month": 7, "day": 23, "hour": 22, "minute": 0, "report": "AAXX 23223 87497 42465 80904 10138 20112 30162 40188 58001 885// 333 56199 88615="}, {"year": 2026, "month": 7, "day": 23, "hour": 21, "minute": 0, "report": "AAXX 23213 87497 42465 80904 10140 20106 30166 40192 55001 885// 333 56199 88615="}, {"year": 2026, "month": 7, "day": 23, "hour": 20, "minute": 0, "report": "AAXX 23203 87497 42465 80706 10144 20110 30164 40190 56009 885// 333 56199 88615="}, {"year": 2026, "month": 7, "day": 23, "hour": 19, "minute": 0, "report": "AAXX 23193 87497 42465 80510 10145 20106 30164 40189 57016 885// 333 56199 88615="}, {"year": 2026, "month": 7, "day": 23, "hour": 18, "minute": 0, "report": "AAXX 23183 87497 12465 80510 10143 20105 30168 40193 57021 60001 885// 333 56199 88612="}, {"year": 2026, "month": 7, "day": 23, "hour": 17, "minute": 0, "report": "AAXX 23173 87497 42465 80508 10142 20102 30173 40199 57024 885// 333 56199 88610="}, {"year": 2026, "month": 7, "day": 23, "hour": 16, "minute": 0, "report": "AAXX 23163 87497 42465 80510 10133 20100 30108 40205 57019 886// 333 56199 88710="}, {"year": 2026, "month": 7, "day": 23, "hour": 15, "minute": 0, "report": "AAXX 23153 87497 42465 80510 10124 20103 30189 40215 58005 886// 333 56199 88710="}, {"year": 2026, "month": 7, "day": 23, "hour": 14, "minute": 0, "report": "AAXX 23143 87497 42465 80705 10120 20101 30197 40223 50003 886// 333 56299 88710="}, {"year": 2026, "month": 7, "day": 23, "hour": 13, "minute": 0, "report": "AAXX 23133 87497 42465 80905 10108 20098 30198 40224 53004 886// 333 56299 88710="}], "87750": [{"year": 2026, "month": 7, "day": 24, "hour": 13, "minute": 0, "report": "AAXX 24134 87750 42965 13313 10104 20082 30077 40178 53012 81080 333 56070 81360="}, {"year": 2026, "month": 7, "day": 24, "hour": 12, "minute": 0, "report": "AAXX 24124 87750 12965 13412 10086 20080 30069 40171 51011 69904 81070 333 10106 20083 56070 81360="}, {"year": 2026, "month": 7, "day": 24, "hour": 11, "minute": 0, "report": "AAXX 24114 87750 42765 23410 10090 20080 30066 40169 51009 82500 333 56600 82650="}, {"year": 2026, "month": 7, "day": 24, "hour": 10, "minute": 0, "report": "AAXX 24104 87750 42765 83213 10101 20091 30065 40166 53005 885// 333 56799 88650="}, {"year": 2026, "month": 7, "day": 24, "hour": 9, "minute": 0, "report": "AAXX 24094 87750 42665 23411 10090 20084 30058 40159 55008 82500 333 56700 82647="}, {"year": 2026, "month": 7, "day": 24, "hour": 8, "minute": 0, "report": "AAXX 24084 87750 42965 43410 10088 20082 30057 40158 50003 84070 333 56070 84360="}, {"year": 2026, "month": 7, "day": 24, "hour": 7, "minute": 0, "report": "AAXX 24074 87750 41965 23610 10094 20082 30060 40161 58003 70161 82070 333 56070 82360="}, {"year": 2026, "month": 7, "day": 24, "hour": 6, "minute": 0, "report": "AAXX 24064 87750 11465 83610 10101 20087 30066 40167 55009 69901 72162 8557/ 333 56779 85619 88360="}, {"year": 2026, "month": 7, "day": 24, "hour": 5, "minute": 0, "report": "AAXX 24054 87750 42565 80213 10101 20087 30054 40155 58021 8157/ 333 56779 81626 88360="}, {"year": 2026, "month": 7, "day": 24, "hour": 4, "minute": 0, "report": "AAXX 24044 87750 42965 80510 10095 20085 30062 40163 58017 8807/ 333 56069 88360="}, {"year": 2026, "month": 7, "day": 24, "hour": 3, "minute": 0, "report": "AAXX 24034 87750 42565 83209 10105 20093 30076 40177 50001 885// 333 56700 88630="}, {"year": 2026, "month": 7, "day": 24, "hour": 2, "minute": 0, "report": "AAXX 24024 87750 42562 83411 10104 20094 30076 40177 50003 885// 333 56799 88631="}, {"year": 2026, "month": 7, "day": 24, "hour": 1, "minute": 0, "report": "AAXX 24014 87750 42362 83604 10094 20086 30080 40182 51031 886// 333 56799 88709="}, {"year": 2026, "month": 7, "day": 24, "hour": 0, "minute": 0, "report": "AAXX 24004 87750 12465 81404 10086 20071 30074 40176 53012 60001 886// 333 10128 20046 56699 86617 88723="}, {"year": 2026, "month": 7, "day": 23, "hour": 23, "minute": 0, "report": "AAXX 23234 87750 42565 81402 10088 20071 30073 40175 53011 40175 53011 886// 333 56699 82620 88728="}, {"year": 2026, "month": 7, "day": 23, "hour": 22, "minute": 0, "report": "AAXX 23224 87750 42565 80511 10088 20069 30049 40151 58021 8557/ 333 56669 85629 88360="}, {"year": 2026, "month": 7, "day": 23, "hour": 21, "minute": 0, "report": "AAXX 23214 87750 42565 80211 10091 20065 30062 40165 55012 8157/ 333 56769 81628 88360="}, {"year": 2026, "month": 7, "day": 23, "hour": 20, "minute": 0, "report": "AAXX 23204 87750 42965 80213 10105 20063 30062 40165 56021 8807/ 333 56069 88360="}, {"year": 2026, "month": 7, "day": 23, "hour": 19, "minute": 0, "report": "AAXX 23194 87750 42965 83612 10115 20065 30070 40172 56023 80007 333 56007 88270="}, {"year": 2026, "month": 7, "day": 23, "hour": 18, "minute": 0, "report": "AAXX 23184 87750 12565 83612 10123 20062 30074 40175 58020 60001 81507 333 56606 81632 88270="}, {"year": 2026, "month": 7, "day": 23, "hour": 17, "minute": 0, "report": "AAXX 23174 87750 42965 83607 10126 20073 30084 40185 58012 80007 333 56006 88270="}, {"year": 2026, "month": 7, "day": 23, "hour": 16, "minute": 0, "report": "AAXX 23164 87750 42965 80210 10116 20061 30093 40194 58005 80007 333 56006 88270="}, {"year": 2026, "month": 7, "day": 23, "hour": 15, "minute": 0, "report": "AAXX 23154 87750 42965 80211 10115 20058 30094 40197 58004 80007 333 56006 88270="}, {"year": 2026, "month": 7, "day": 23, "hour": 14, "minute": 0, "report": "AAXX 23144 87750 42965 80509 10096 20062 30096 40198 58003 80007 333 56006 88270="}, {"year": 2026, "month": 7, "day": 23, "hour": 13, "minute": 0, "report": "AAXX 23134 87750 42965 70506 10084 20058 30098 40201 54000 80006 333 56006 87270="}], "87187": [{"year": 2026, "month": 7, "day": 24, "hour": 12, "minute": 0, "report": "AAXX 24123 87187 32970 81802 10098 20059 39828 40193 5//// 885// 333 10108 20080 56399 8619="}, {"year": 2026, "month": 7, "day": 23, "hour": 18, "minute": 0, "report": "AAXX 23183 87187 12570 20902 10188 20175 39777 40130 5//// 60001 82200 333 56200 57820 82820="}], "87155": [{"year": 2026, "month": 7, "day": 24, "hour": 13, "minute": 0, "report": "AAXX 24134 87155 42565 81303 10153 20130 30114 40176 52019 8802/ 333 56079 88530="}, {"year": 2026, "month": 7, "day": 24, "hour": 12, "minute": 0, "report": "AAXX 24124 87155 32665 81404 10145 20119 30110 40173 52025 8802/ 333 10149 20134 56079 88540="}, {"year": 2026, "month": 7, "day": 24, "hour": 11, "minute": 0, "report": "AAXX 24114 87155 42565 81503 10140 20127 30108 40171 50021 885// 333 56499 88620="}, {"year": 2026, "month": 7, "day": 24, "hour": 10, "minute": 0, "report": "AAXX 24104 87155 42565 81604 10141 20127 30096 40158 50007 885// 333 56499 88620="}, {"year": 2026, "month": 7, "day": 24, "hour": 9, "minute": 0, "report": "AAXX 24094 87155 42565 81102 10143 20125 30085 40147 56009 885// 333 56599 88620="}, {"year": 2026, "month": 7, "day": 24, "hour": 8, "minute": 0, "report": "AAXX 24084 87155 42565 81304 10143 20125 30086 40149 58012 885// 333 56599 88620="}, {"year": 2026, "month": 7, "day": 24, "hour": 7, "minute": 0, "report": "AAXX 24074 87155 42565 81303 10141 20123 30089 40151 58008 885// 333 56599 88620="}, {"year": 2026, "month": 7, "day": 24, "hour": 6, "minute": 0, "report": "AAXX 24064 87155 12565 81302 10141 20127 30094 40156 56009 60001 885// 333 56599 88620="}, {"year": 2026, "month": 7, "day": 24, "hour": 5, "minute": 0, "report": "AAXX 24054 87155 42565 81301 10143 20125 30098 40160 55007 885// 333 56599 88620="}, {"year": 2026, "month": 7, "day": 24, "hour": 4, "minute": 0, "report": "AAXX 24044 87155 42565 81101 10143 20121 30097 40159 58004 885// 333 56599 88625="}, {"year": 2026, "month": 7, "day": 24, "hour": 3, "minute": 0, "report": "AAXX 24034 87155 42565 81101 10143 20121 30104 40166 50000 885// 333 56599 88625="}, {"year": 2026, "month": 7, "day": 24, "hour": 2, "minute": 0, "report": "AAXX 24024 87155 42565 71102 10145 20116 30105 40168 50003 87500 333 56500 87625="}, {"year": 2026, "month": 7, "day": 24, "hour": 1, "minute": 0, "report": "AAXX 24014 87155 42565 71004 10145 20112 30101 40164 50003 87500 333 56300 87630="}, {"year": 2026, "month": 7, "day": 24, "hour": 0, "minute": 0, "report": "AAXX 24004 87155 12565 71004 10145 20116 30104 40167 53005 60001 86530 333 10173 20125 56360 86630 87360="}, {"year": 2026, "month": 7, "day": 23, "hour": 23, "minute": 0, "report": "AAXX 23234 87155 42965 71003 10145 20119 30102 40165 53004 87030 333 56030 87360="}, {"year": 2026, "month": 7, "day": 23, "hour": 22, "minute": 0, "report": "AAXX 23224 87155 42565 71002 10153 20120 30098 40162 55008 83530 333 56360 83630 87360="}, {"year": 2026, "month": 7, "day": 23, "hour": 21, "minute": 0, "report": "AAXX 23214 87155 42565 61003 10159 20117 30098 40162 56009 82532 333 56256 82630 84360="}, {"year": 2026, "month": 7, "day": 23, "hour": 20, "minute": 0, "report": "AAXX 23204 87155 42565 51204 10172 20126 30098 40160 57015 84502 333 56306 84628="}, {"year": 2026, "month": 7, "day": 23, "hour": 19, "minute": 0, "report": "AAXX 23194 87155 42565 61003 10169 20120 30106 40168 57023 86500 333 56300 86620="}, {"year": 2026, "month": 7, "day": 23, "hour": 18, "minute": 0, "report": "AAXX 23184 87155 11465 61203 10171 20123 30108 40170 57028 70252 86100 333 56300 69901 85816 84622="}, {"year": 2026, "month": 7, "day": 23, "hour": 17, "minute": 0, "report": "AAXX 23174 87155 41465 71302 10164 20125 30113 40176 58020 72052 87700 333 56300 83710 86620="}, {"year": 2026, "month": 7, "day": 23, "hour": 16, "minute": 0, "report": "AAXX 23164 87155 41350 81302 10144 20116 30129 40192 57007 75155 887// 333 56399 84708 88718="}, {"year": 2026, "month": 7, "day": 23, "hour": 15, "minute": 0, "report": "AAXX 23154 87155 41356 80503 10142 20120 30136 40198 55001 75155 887// 333 56199 84708 88718 96010="}, {"year": 2026, "month": 7, "day": 23, "hour": 14, "minute": 0, "report": "AAXX 23144 87155 41250 80803 10139 20123 30133 40196 50000 75055 887// 333 56200 83706 88718 96010="}, {"year": 2026, "month": 7, "day": 23, "hour": 13, "minute": 0, "report": "AAXX 23134 87155 41240 83302 10131 20122 30136 40199 50013 75052 887// 333 56699 83706 88715 96010="}], "87050": [{"year": 2026, "month": 7, "day": 24, "hour": 12, "minute": 0, "report": "AAXX 24124 87050 11345 81402 10098 20082 39198 48511 52013 60001 71022 887// 333 10108 20090="}, {"year": 2026, "month": 7, "day": 24, "hour": 0, "minute": 0, "report": "AAXX 24004 87050 11456 80502 10108 20092 39185 48499 54000 60001 71022 887// 333 10108 20075="}, {"year": 2026, "month": 7, "day": 23, "hour": 18, "minute": 0, "report": "AAXX 23184 87050 11456 83202 10096 20076 39170 48487 57027 60001 71022 887//="}], "87270": [{"year": 2026, "month": 7, "day": 24, "hour": 13, "minute": 0, "report": "AAXX 24134 87270 41460 30905 10158 20128 30117 40181 53009 70411 81570 333 56370 81615="}, {"year": 2026, "month": 7, "day": 24, "hour": 12, "minute": 0, "report": "AAXX 24123 87270 31458 50205 10134 20127 30110 40174 53009 71022 81570 333 10137 20127 56370 81615 84360="}, {"year": 2026, "month": 7, "day": 24, "hour": 11, "minute": 0, "report": "AAXX 24114 87270 41456 61105 10131 20124 30108 40172 51007 71022 83670 333 56370 83715 85360="}, {"year": 2026, "month": 7, "day": 24, "hour": 10, "minute": 0, "report": "AAXX 24104 87270 41456 81102 10136 20127 30108 40172 52012 71022 886// 333 56299 88715="}, {"year": 2026, "month": 7, "day": 24, "hour": 9, "minute": 0, "report": "AAXX 24093 87270 41456 81102 10132 20127 30101 40165 55001 71022 886// 333 56299 88715="}, {"year": 2026, "month": 7, "day": 24, "hour": 8, "minute": 0, "report": "AAXX 24084 87270 41458 81802 10131 20124 30101 40165 55013 71022 886// 333 56299 88715="}, {"year": 2026, "month": 7, "day": 24, "hour": 7, "minute": 0, "report": "AAXX 24074 87270 41458 81102 10131 20122 30096 40160 58015 71022 886// 333 56299 88715="}, {"year": 2026, "month": 7, "day": 24, "hour": 6, "minute": 0, "report": "AAXX 24063 87270 11458 80905 10135 20126 30102 40166 58008 60001 71022 886// 333 56300 88715="}, {"year": 2026, "month": 7, "day": 24, "hour": 5, "minute": 0, "report": "AAXX 24054 87270 41458 82002 10136 20125 30114 40178 53001 71022 886// 333 56299 88715="}, {"year": 2026, "month": 7, "day": 24, "hour": 4, "minute": 0, "report": "AAXX 24044 87270 42465 83202 10136 20123 30110 40175 52001 886// 333 56299 88715="}, {"year": 2026, "month": 7, "day": 24, "hour": 3, "minute": 0, "report": "AAXX 24033 87270 42465 80202 10136 20123 30110 40175 57001 886// 333 56299 88715="}, {"year": 2026, "month": 7, "day": 24, "hour": 2, "minute": 0, "report": "AAXX 24024 87270 42465 80000 10135 20120 30113 40177 53003 886// 333 56299 88715="}, {"year": 2026, "month": 7, "day": 24, "hour": 1, "minute": 0, "report": "AAXX 24014 87270 42465 81102 10136 20121 30109 40173 58001 886// 333 56299 88715="}, {"year": 2026, "month": 7, "day": 24, "hour": 0, "minute": 0, "report": "AAXX 24003 87270 12465 81102 10136 20121 30112 40176 52003 60001 886// 333 10149 20116 56299 83715 88620="}, {"year": 2026, "month": 7, "day": 23, "hour": 23, "minute": 0, "report": "AAXX 23234 87270 42465 81105 10137 20122 30110 40175 51003 886// 333 56299 84715 88620="}, {"year": 2026, "month": 7, "day": 23, "hour": 22, "minute": 0, "report": "AAXX 23224 87270 42465 81602 10140 20122 30110 40175 55005 886// 333 56299 88718="}, {"year": 2026, "month": 7, "day": 23, "hour": 21, "minute": 0, "report": "AAXX 23213 87270 42465 83602 10144 20118 30109 40173 55008 886// 333 56199 88718="}, {"year": 2026, "month": 7, "day": 23, "hour": 20, "minute": 0, "report": "AAXX 23204 87270 42465 83602 10144 20122 30108 40172 56020 886// 333 56199 88718="}, {"year": 2026, "month": 7, "day": 23, "hour": 19, "minute": 0, "report": "AAXX 23194 87270 42465 80505 10144 20116 30116 40180 56021 886// 333 56299 88715="}, {"year": 2026, "month": 7, "day": 23, "hour": 18, "minute": 0, "report": "AAXX 23183 87270 12465 80505 10146 20117 30117 40181 56029 60001 886// 333 56399 88715="}, {"year": 2026, "month": 7, "day": 23, "hour": 17, "minute": 0, "report": "AAXX 23174 87270 42465 80505 10139 20109 30128 40191 58019 886// 333 56399 88715="}, {"year": 2026, "month": 7, "day": 23, "hour": 16, "minute": 0, "report": "AAXX 23164 87270 42465 80505 10136 20110 30137 40201 58004 886// 333 56399 88715="}, {"year": 2026, "month": 7, "day": 23, "hour": 15, "minute": 0, "report": "AAXX 23153 87270 42465 80505 10132 20109 30146 40211 50009 886// 333 56399 88715="}, {"year": 2026, "month": 7, "day": 23, "hour": 14, "minute": 0, "report": "AAXX 23144 87270 42465 80905 10128 20105 30146 40211 53011 886// 333 56399 88715="}, {"year": 2026, "month": 7, "day": 23, "hour": 13, "minute": 0, "report": "AAXX 23134 87270 42465 80905 10122 20103 30141 40205 53012 886// 333 56399 88715="}], "87405": [{"year": 2026, "month": 7, "day": 24, "hour": 12, "minute": 0, "report": "AAXX 24123 87405 32965 60000 11026 21040 38149 48558 5//// 86010 333 10063 21030 56060 86465="}, {"year": 2026, "month": 7, "day": 24, "hour": 0, "minute": 0, "report": "AAXX 24003 87405 12765 80000 10063 21003 38096 48505 52013 60001 8802/ 333 10151 21040 56069 88550="}, {"year": 2026, "month": 7, "day": 23, "hour": 21, "minute": 0, "report": "AAXX 23213 87405 42765 60000 10072 20005 38082 48492 52003 86070 333 56060 86550="}, {"year": 2026, "month": 7, "day": 23, "hour": 18, "minute": 0, "report": "AAXX 23183 87405 12965 42302 10151 20000 38080 48482 57007 60001 84010 333 56050 84460="}, {"year": 2026, "month": 7, "day": 23, "hour": 15, "minute": 0, "report": "AAXX 23153 87405 42965 60000 10115 20000 38086 48492 52004 86010 333 56060 86460="}], "87715": [{"year": 2026, "month": 7, "day": 24, "hour": 13, "minute": 0, "report": "AAXX 24134 87715 41950 11102 10028 20018 39848 40179 52020 71000 81070 333 56060 81360="}, {"year": 2026, "month": 7, "day": 24, "hour": 12, "minute": 0, "report": "AAXX 24124 87715 31950 10000 10000 21003 39838 40171 52016 71000 81070 333 10089 21005 30104 56060 81360="}, {"year": 2026, "month": 7, "day": 24, "hour": 11, "minute": 0, "report": "AAXX 24114 87715 41956 00000 10001 21005 39836 40168 52015 71000="}, {"year": 2026, "month": 7, "day": 24, "hour": 10, "minute": 0, "report": "AAXX 24104 87715 41950 00000 10006 20006 39828 40159 53007 71000="}, {"year": 2026, "month": 7, "day": 24, "hour": 9, "minute": 0, "report": "AAXX 24094 87715 41950 00000 10010 20010 39822 40153 53005 71000="}, {"year": 2026, "month": 7, "day": 24, "hour": 8, "minute": 0, "report": "AAXX 24084 87715 41950 00902 10018 20015 39821 40151 51007 71000="}, {"year": 2026, "month": 7, "day": 24, "hour": 7, "minute": 0, "report": "AAXX 24074 87715 41950 11802 10029 20021 39821 40150 52009 71000 80005 333 56006 81270="}, {"year": 2026, "month": 7, "day": 24, "hour": 6, "minute": 0, "report": "AAXX 24064 87715 11950 10000 10028 20025 39817 40147 52012 60001 71000 80005 333 56006 81270="}, {"year": 2026, "month": 7, "day": 24, "hour": 5, "minute": 0, "report": "AAXX 24054 87715 41950 10000 10033 20031 39814 40145 52012 71000 80005 333 56005 81270="}, {"year": 2026, "month": 7, "day": 24, "hour": 4, "minute": 0, "report": "AAXX 24044 87715 41950 00000 10038 20036 39812 40142 52013 71000="}, {"year": 2026, "month": 7, "day": 24, "hour": 3, "minute": 0, "report": "AAXX 24034 87715 42957 10000 10050 20038 39805 40134 52012 80005 333 56006 81270="}, {"year": 2026, "month": 7, "day": 24, "hour": 2, "minute": 0, "report": "AAXX 24024 87715 42965 20000 10069 20053 39802 40130 52015 80005 333 56006 82270="}, {"year": 2026, "month": 7, "day": 24, "hour": 1, "minute": 0, "report": "AAXX 24014 87715 42965 30000 10084 20058 39798 40125 52019 81075 333 56066 81360 83270="}, {"year": 2026, "month": 7, "day": 24, "hour": 0, "minute": 0, "report": "AAXX 24004 87715 11965 20000 10084 20058 39793 40120 52015 60001 70162 80005 333 10118 20069 56006 82270="}, {"year": 2026, "month": 7, "day": 23, "hour": 23, "minute": 0, "report": "AAXX 23234 87715 42965 33603 10093 20051 39788 40114 52013 81075 333 56066 81360 83270="}, {"year": 2026, "month": 7, "day": 23, "hour": 22, "minute": 0, "report": "AAXX 23224 87715 42965 43602 10100 20062 39780 40105 52003 82076 333 56055 82360 83270="}, {"year": 2026, "month": 7, "day": 23, "hour": 21, "minute": 0, "report": "AAXX 23214 87715 41765 50903 10112 20056 39778 40103 54000 70262 82576 333 56555 82650 83360="}, {"year": 2026, "month": 7, "day": 23, "hour": 20, "minute": 0, "report": "AAXX 23204 87715 41765 50502 10106 20054 39774 40100 57011 70162 82576 333 56555 82650 83360="}, {"year": 2026, "month": 7, "day": 23, "hour": 19, "minute": 0, "report": "AAXX 23194 87715 41565 70204 10098 20055 39777 40103 57011 72162 85526 333 56555 85630 86558="}, {"year": 2026, "month": 7, "day": 23, "hour": 18, "minute": 0, "report": "AAXX 23184 87715 11465 73603 10090 20050 39778 40104 57015 60001 70262 85526 333 56555 85615 86558="}, {"year": 2026, "month": 7, "day": 23, "hour": 17, "minute": 0, "report": "AAXX 23174 87715 41465 70505 10086 20051 39785 40112 57008 70262 85526 333 56555 82717 83630 86558="}, {"year": 2026, "month": 7, "day": 23, "hour": 16, "minute": 0, "report": "AAXX 23164 87715 41665 70904 10084 20048 39788 40115 52001 76062 82526 333 56555 82645 86558="}, {"year": 2026, "month": 7, "day": 23, "hour": 15, "minute": 0, "report": "AAXX 23154 87715 42765 70906 10080 20049 39793 40120 52001 85570 333 56550 85650 86360="}, {"year": 2026, "month": 7, "day": 23, "hour": 14, "minute": 0, "report": "AAXX 23144 87715 42665 70905 10077 20048 39793 40120 52001 86570 333 56550 82740 84650 86358="}, {"year": 2026, "month": 7, "day": 23, "hour": 13, "minute": 0, "report": "AAXX 23134 87715 42565 70504 10076 20049 39786 40114 57005 86570 333 56550 83730 85640 86358="}], "87047": [{"year": 2026, "month": 7, "day": 24, "hour": 13, "minute": 0, "report": "AAXX 24134 87047 41457 82303 10095 20060 38800 48507 52025 71022 885// 333 56099 88612 90091 90527="}, {"year": 2026, "month": 7, "day": 24, "hour": 12, "minute": 0, "report": "AAXX 24124 87047 31459 82703 10089 20060 38790 48499 52020 71022 885// 333 10099 20084 30/// 56099 88612 90091 90517="}, {"year": 2026, "month": 7, "day": 24, "hour": 11, "minute": 0, "report": "AAXX 24114 87047 41460 82501 10089 20062 38780 48488 52015 71022 885// 333 56099 88612 90007 90083="}, {"year": 2026, "month": 7, "day": 24, "hour": 10, "minute": 0, "report": "AAXX 24104 87047 42465 80000 10092 20064 38775 48484 53008 885// 333 56099 88612="}, {"year": 2026, "month": 7, "day": 24, "hour": 9, "minute": 0, "report": "AAXX 24094 87047 42465 80000 10092 20064 38770 48480 53004 885// 333 56199 88612="}, {"year": 2026, "month": 7, "day": 24, "hour": 8, "minute": 0, "report": "AAXX 24084 87047 42465 80000 10092 20061 38765 48475 57005 885// 333 56199 88613="}, {"year": 2026, "month": 7, "day": 24, "hour": 7, "minute": 0, "report": "AAXX 24074 87047 42465 80000 10093 20063 38766 48477 58003 885// 333 56099 88613="}, {"year": 2026, "month": 7, "day": 24, "hour": 6, "minute": 0, "report": "AAXX 24064 87047 12465 80000 10093 20065 38766 48476 57005 60001 885// 333 56199 88613="}, {"year": 2026, "month": 7, "day": 24, "hour": 5, "minute": 0, "report": "AAXX 24054 87047 42465 80000 10093 20065 38770 48481 55008 885// 333 56199 88614="}, {"year": 2026, "month": 7, "day": 24, "hour": 4, "minute": 0, "report": "AAXX 24044 87047 42465 80000 10094 20064 38769 48479 57012 885// 333 56199 88614="}, {"year": 2026, "month": 7, "day": 24, "hour": 3, "minute": 0, "report": "AAXX 24034 87047 42465 80505 10095 20065 38772 48482 58007 885// 333 56199 88615="}, {"year": 2026, "month": 7, "day": 24, "hour": 2, "minute": 0, "report": "AAXX 24024 87047 42465 83603 10098 20066 38778 48487 50003 885// 333 56199 88616="}, {"year": 2026, "month": 7, "day": 24, "hour": 1, "minute": 0, "report": "AAXX 24014 87047 42465 80504 10096 20061 38781 48489 52011 885// 333 56199 88617="}, {"year": 2026, "month": 7, "day": 24, "hour": 0, "minute": 0, "report": "AAXX 24004 87047 12465 80504 10099 20067 38778 48486 51012 60001 885// 333 10126 20086 56199 88617="}, {"year": 2026, "month": 7, "day": 23, "hour": 23, "minute": 0, "report": "AAXX 23234 87047 42465 70506 10099 20063 38776 48485 52013 87500 333 56100 87617="}, {"year": 2026, "month": 7, "day": 23, "hour": 22, "minute": 0, "report": "AAXX 23224 87047 42465 70508 10103 20063 38770 48479 53009 87500 333 56100 87617="}, {"year": 2026, "month": 7, "day": 23, "hour": 21, "minute": 0, "report": "AAXX 23214 87047 42465 50508 10108 20066 38766 48477 55004 85500 333 56100 85617="}, {"year": 2026, "month": 7, "day": 23, "hour": 20, "minute": 0, "report": "AAXX 23204 87047 42465 50509 10113 20061 38762 48472 55015 85500 333 56100 85619="}, {"year": 2026, "month": 7, "day": 23, "hour": 19, "minute": 0, "report": "AAXX 23194 87047 42565 53608 10122 20058 38761 48472 57029 85500 333 56100 85622="}, {"year": 2026, "month": 7, "day": 23, "hour": 18, "minute": 0, "report": "AAXX 23184 87047 11565 73606 10118 20062 38770 48480 57027 60001 70252 87500 333 56100 87623="}, {"year": 2026, "month": 7, "day": 23, "hour": 17, "minute": 0, "report": "AAXX 23174 87047 42565 70503 10120 20060 38777 48487 57032 87500 333 56100 87626="}, {"year": 2026, "month": 7, "day": 23, "hour": 16, "minute": 0, "report": "AAXX 23164 87047 42465 80000 10114 20062 38791 48500 58016 885// 333 56199 82713 88625="}, {"year": 2026, "month": 7, "day": 23, "hour": 15, "minute": 0, "report": "AAXX 23154 87047 41465 80502 10110 20066 38797 48505 57012 70252 885// 333 56199 82612 88625="}, {"year": 2026, "month": 7, "day": 23, "hour": 14, "minute": 0, "report": "AAXX 23144 87047 41365 83603 10092 20068 38809 48516 52005 72052 887// 333 56299 83708 88623="}, {"year": 2026, "month": 7, "day": 23, "hour": 13, "minute": 0, "report": "AAXX 23134 87047 41360 83602 10090 20078 38806 48513 50004 75052 887// 333 56299 82708 85615 88622 90014 90096="}], "87148": [{"year": 2026, "month": 7, "day": 24, "hour": 13, "minute": 0, "report": "AAXX 24134 87148 41270 81402 10151 20139 30066 40177 51016 70252 886// 333 56399 88705="}, {"year": 2026, "month": 7, "day": 24, "hour": 12, "minute": 0, "report": "AAXX 24124 87148 01270 81102 10143 20134 30061 40171 53023 69924 72052 886// 333 10155 20139 30014 56399 69922 88705="}, {"year": 2026, "month": 7, "day": 24, "hour": 11, "minute": 0, "report": "AAXX 24114 87148 41230 81102 10141 20134 30054 40164 51025 75052 886// 333 56399 88705="}, {"year": 2026, "month": 7, "day": 24, "hour": 10, "minute": 0, "report": "AAXX 24104 87148 42270 80000 10142 20135 30050 40160 53016 886// 333 56599 88706="}, {"year": 2026, "month": 7, "day": 24, "hour": 9, "minute": 0, "report": "AAXX 24094 87148 42370 81401 10141 20136 30038 40148 56008 886// 333 56599 88706="}, {"year": 2026, "month": 7, "day": 24, "hour": 6, "minute": 0, "report": "AAXX 24064 87148 11320 80000 10142 20135 30046 40156 56008 69901 75152 886// 333 56599 88708="}, {"year": 2026, "month": 7, "day": 24, "hour": 3, "minute": 0, "report": "AAXX 24034 87148 42370 80901 10150 20127 30054 40165 51004 886// 333 56599 88708="}, {"year": 2026, "month": 7, "day": 24, "hour": 0, "minute": 0, "report": "AAXX 24004 87148 12570 81102 10155 20119 30050 40161 53007 60001 885// 333 10171 20120 56199 88625="}, {"year": 2026, "month": 7, "day": 23, "hour": 23, "minute": 0, "report": "AAXX 23234 87148 42570 81103 10156 20118 30046 40157 52005 885// 333 56199 88625="}, {"year": 2026, "month": 7, "day": 23, "hour": 22, "minute": 0, "report": "AAXX 23224 87148 42570 71103 10159 20115 30042 40153 57008 87500 333 56100 87625="}, {"year": 2026, "month": 7, "day": 23, "hour": 21, "minute": 0, "report": "AAXX 23214 87148 42570 71106 10165 20114 30044 40154 55015 87500 333 56100 87625="}, {"year": 2026, "month": 7, "day": 23, "hour": 20, "minute": 0, "report": "AAXX 23204 87148 42570 71105 10168 20107 30041 40151 58025 87500 333 56100 87625="}, {"year": 2026, "month": 7, "day": 23, "hour": 19, "minute": 0, "report": "AAXX 23194 87148 42570 71104 10166 20107 30050 40160 56027 87500 333 56100 87625="}, {"year": 2026, "month": 7, "day": 23, "hour": 18, "minute": 0, "report": "AAXX 23184 87148 12570 71103 10164 20109 30058 40169 55028 60001 87500 333 56100 87625="}, {"year": 2026, "month": 7, "day": 23, "hour": 17, "minute": 0, "report": "AAXX 23174 87148 42570 71105 10158 20104 30066 40176 58027 87500 333 56100 87620="}, {"year": 2026, "month": 7, "day": 23, "hour": 16, "minute": 0, "report": "AAXX 23164 87148 42570 71104 10153 20104 30077 40188 58013 87500 333 56100 87620="}, {"year": 2026, "month": 7, "day": 23, "hour": 15, "minute": 0, "report": "AAXX 23154 87148 42570 71103 10149 20100 30086 40198 58004 87500 333 56100 87620="}, {"year": 2026, "month": 7, "day": 23, "hour": 14, "minute": 0, "report": "AAXX 23144 87148 42470 70504 10143 20099 30093 40204 53003 87600 333 56100 87710="}, {"year": 2026, "month": 7, "day": 23, "hour": 13, "minute": 0, "report": "AAXX 23134 87148 42470 71802 10133 20100 30090 40201 51007 87600 333 56100 87710="}], "87679": [{"year": 2026, "month": 7, "day": 24, "hour": 12, "minute": 0, "report": "AAXX 24124 87679 01220 83205 10091 20087 39817 40184 5//// 69954 71052 886// 333 10091 20085 31007 56799 69952 88705="}, {"year": 2026, "month": 7, "day": 24, "hour": 0, "minute": 0, "report": "AAXX 24004 87679 11320 83618 10087 20081 39806 40175 5//// 69901 75052 886// 333 10099 20053 56899 88709="}, {"year": 2026, "month": 7, "day": 23, "hour": 18, "minute": 0, "report": "AAXX 23184 87679 11360 83618 10077 20059 39806 40177 5//// 60001 71021 886// 333 56899 88709="}], "87934": [{"year": 2026, "month": 7, "day": 24, "hour": 13, "minute": 0, "report": "AAXX 24134 87934 41580 81805 11024 21036 30082 40111 55004 70372 885// 333 56699 88630="}, {"year": 2026, "month": 7, "day": 24, "hour": 12, "minute": 0, "report": "AAXX 24124 87934 01580 71806 11022 21031 30081 40109 57008 69904 72272 87500 333 11022 21040 56600 69901 87625="}, {"year": 2026, "month": 7, "day": 24, "hour": 11, "minute": 0, "report": "AAXX 24114 87934 41459 81906 11025 21037 30084 40112 57009 77072 88700 333 56500 88714="}, {"year": 2026, "month": 7, "day": 24, "hour": 10, "minute": 0, "report": "AAXX 24104 87934 42480 82004 11026 21039 30086 40114 57012 88500 333 56500 88612="}, {"year": 2026, "month": 7, "day": 24, "hour": 9, "minute": 0, "report": "AAXX 24094 87934 42480 89902 11031 21057 30089 40117 57016 88500 333 56500 88619="}, {"year": 2026, "month": 7, "day": 24, "hour": 8, "minute": 0, "report": "AAXX 24084 87934 42480 71904 11034 21052 30093 40121 57021 87500 333 56500 87617="}, {"year": 2026, "month": 7, "day": 24, "hour": 7, "minute": 0, "report": "AAXX 24074 87934 42580 81805 11024 21036 30098 40127 57016 88500 333 56500 88623="}, {"year": 2026, "month": 7, "day": 24, "hour": 6, "minute": 0, "report": "AAXX 24064 87934 12580 82007 11023 21029 30105 40133 57009 60001 88500 333 56500 88625="}, {"year": 2026, "month": 7, "day": 24, "hour": 5, "minute": 0, "report": "AAXX 24054 87934 42580 82407 11024 21038 30114 40142 54000 88500 333 56500 88621="}, {"year": 2026, "month": 7, "day": 24, "hour": 4, "minute": 0, "report": "AAXX 24044 87934 42580 81904 11026 21046 30114 40142 57003 88500 333 56500 88621="}, {"year": 2026, "month": 7, "day": 24, "hour": 3, "minute": 0, "report": "AAXX 24034 87934 42580 81905 11027 21050 30114 40143 57004 88500 333 56500 88621="}, {"year": 2026, "month": 7, "day": 24, "hour": 2, "minute": 0, "report": "AAXX 24024 87934 42580 81906 11031 21052 30114 40142 57005 88500 333 56500 88621="}, {"year": 2026, "month": 7, "day": 24, "hour": 1, "minute": 0, "report": "AAXX 24014 87934 42580 82603 11030 21048 30117 40146 57004 88500 333 56500 88621="}, {"year": 2026, "month": 7, "day": 24, "hour": 0, "minute": 0, "report": "AAXX 24004 87934 12580 81705 11036 21055 30118 40147 57005 60001 88500 333 10010 21106 56500 88623="}, {"year": 2026, "month": 7, "day": 23, "hour": 23, "minute": 0, "report": "AAXX 23234 87934 42580 82303 11040 21057 30120 40149 57008 885// 333 56799 88625="}, {"year": 2026, "month": 7, "day": 23, "hour": 22, "minute": 0, "report": "AAXX 23224 87934 42580 62303 11042 21059 30121 40150 57009 84506 333 56706 84623 86270="}, {"year": 2026, "month": 7, "day": 23, "hour": 21, "minute": 0, "report": "AAXX 23214 87934 42580 82505 11030 21048 30124 40152 57012 85507 333 56706 85623 88270="}, {"year": 2026, "month": 7, "day": 23, "hour": 20, "minute": 0, "report": "AAXX 23204 87934 42680 72304 11024 21044 30128 40156 57011 81506 333 56706 81646 87270="}, {"year": 2026, "month": 7, "day": 23, "hour": 19, "minute": 0, "report": "AAXX 23194 87934 42680 52505 11004 21025 30130 40158 57013 81505 333 56706 81646 85270="}, {"year": 2026, "month": 7, "day": 23, "hour": 18, "minute": 0, "report": "AAXX 23184 87934 12980 32103 10007 21023 30136 40164 58008 60001 80005 333 56006 83270="}, {"year": 2026, "month": 7, "day": 23, "hour": 17, "minute": 0, "report": "AAXX 23174 87934 42980 22103 11004 21034 30138 40167 58003 80005 333 56006 82270="}, {"year": 2026, "month": 7, "day": 23, "hour": 16, "minute": 0, "report": "AAXX 23164 87934 42980 11904 11033 21048 30144 40172 52004 80005 333 56006 81270="}, {"year": 2026, "month": 7, "day": 23, "hour": 15, "minute": 0, "report": "AAXX 23154 87934 42980 12003 11052 21074 30144 40172 52004 80005 333 56006 81270="}, {"year": 2026, "month": 7, "day": 23, "hour": 14, "minute": 0, "report": "AAXX 23144 87934 42980 02203 11080 21090 30141 40170 52003="}, {"year": 2026, "month": 7, "day": 23, "hour": 13, "minute": 0, "report": "AAXX 23134 87934 42980 02205 11102 21125 30140 40169 51001="}], "87688": [{"year": 2026, "month": 7, "day": 24, "hour": 12, "minute": 0, "report": "AAXX 24124 87688 01256 83204 10103 20095 30056 40196 5//// 69904 76062 885// 333 10103 20089 56799 69902 88606="}, {"year": 2026, "month": 7, "day": 24, "hour": 0, "minute": 0, "report": "AAXX 24004 87688 11360 80507 10098 20077 30048 40190 57003 69901 70252 885// 333 10101 20034 56899 88609="}, {"year": 2026, "month": 7, "day": 23, "hour": 21, "minute": 0, "report": "AAXX 23214 87688 41458 83608 10099 20072 30050 40194 57013 75052 885// 333 56899 88612="}, {"year": 2026, "month": 7, "day": 23, "hour": 18, "minute": 0, "report": "AAXX 23184 87688 12462 88612 10089 20059 30064 40207 57020 60001 885// 333 56899 83609="}, {"year": 2026, "month": 7, "day": 23, "hour": 15, "minute": 0, "report": "AAXX 23154 87688 42460 73607 10070 20042 30084 40228 57003 83530 333 56880 83612 84360="}], "87217": [{"year": 2026, "month": 7, "day": 24, "hour": 13, "minute": 0, "report": "AAXX 24134 87217 42470 72306 10088 20074 39666 40189 51020 87600 333 56400 87715="}, {"year": 2026, "month": 7, "day": 24, "hour": 12, "minute": 0, "report": "AAXX 24124 87217 32470 72304 10082 20072 39658 40180 52023 87600 333 10097 20025 56400 87715="}, {"year": 2026, "month": 7, "day": 24, "hour": 11, "minute": 0, "report": "AAXX 24114 87217 42470 72708 10073 20065 39656 40176 52021 87600 333 56400 87715="}, {"year": 2026, "month": 7, "day": 24, "hour": 10, "minute": 0, "report": "AAXX 24104 87217 42470 12306 10063 20052 39646 40167 53004 81600 333 56400 81710="}, {"year": 2026, "month": 7, "day": 24, "hour": 9, "minute": 0, "report": "AAXX 24094 87217 42970 02704 10046 20029 39636 40157 53001="}, {"year": 2026, "month": 7, "day": 24, "hour": 8, "minute": 0, "report": "AAXX 24084 87217 42970 00000 10057 20036 39634 40154 55000="}, {"year": 2026, "month": 7, "day": 24, "hour": 7, "minute": 0, "report": "AAXX 24074 87217 42970 00000 10073 20056 39642 40162 53007="}, {"year": 2026, "month": 7, "day": 24, "hour": 6, "minute": 0, "report": "AAXX 24064 87217 12970 00000 10075 20062 39634 40152 54000 60001="}, {"year": 2026, "month": 7, "day": 24, "hour": 5, "minute": 0, "report": "AAXX 24054 87217 42970 00000 10076 20061 39634 40152 50004="}, {"year": 2026, "month": 7, "day": 24, "hour": 4, "minute": 0, "report": "AAXX 24044 87217 42970 02704 10078 20065 39636 40155 51011="}, {"year": 2026, "month": 7, "day": 24, "hour": 3, "minute": 0, "report": "AAXX 24034 87217 42970 02704 10081 20066 39634 40156 51020="}, {"year": 2026, "month": 7, "day": 24, "hour": 2, "minute": 0, "report": "AAXX 24024 87217 42970 00000 10083 20066 39630 40151 53016="}, {"year": 2026, "month": 7, "day": 24, "hour": 1, "minute": 0, "report": "AAXX 24014 87217 42970 00000 10085 20064 39625 40146 53008="}, {"year": 2026, "month": 7, "day": 24, "hour": 0, "minute": 0, "report": "AAXX 24004 87217 12970 02704 10097 20073 39614 40134 55003 60001 333 10196 20077="}, {"year": 2026, "month": 7, "day": 23, "hour": 23, "minute": 0, "report": "AAXX 23234 87217 42570 62704 10133 20074 39614 40134 58001 86500 333 56500 86630="}, {"year": 2026, "month": 7, "day": 23, "hour": 22, "minute": 0, "report": "AAXX 23224 87217 42570 63204 10136 20073 39617 40136 55001 86500 333 56500 86630="}, {"year": 2026, "month": 7, "day": 23, "hour": 21, "minute": 0, "report": "AAXX 23214 87217 41665 62303 10139 20069 39617 40135 56009 70422 86500 333 56200 86645="}, {"year": 2026, "month": 7, "day": 23, "hour": 20, "minute": 0, "report": "AAXX 23204 87217 41665 70000 10140 20073 39616 40133 56019 70422 87500 333 56100 87645="}, {"year": 2026, "month": 7, "day": 23, "hour": 19, "minute": 0, "report": "AAXX 23194 87217 41665 82303 10137 20074 39618 40135 57029 70422 884// 333 56199 88645="}, {"year": 2026, "month": 7, "day": 23, "hour": 18, "minute": 0, "report": "AAXX 23184 87217 11665 72304 10135 20069 39626 40142 57028 60001 70422 87100 333 56100 87845="}, {"year": 2026, "month": 7, "day": 23, "hour": 17, "minute": 0, "report": "AAXX 23174 87217 41665 72303 10133 20076 39634 40151 57023 70422 85106 333 56107 85845 85270="}, {"year": 2026, "month": 7, "day": 23, "hour": 16, "minute": 0, "report": "AAXX 23164 87217 41562 61804 10121 20075 39648 40166 58012 70422 82506 333 56407 82630 86270="}, {"year": 2026, "month": 7, "day": 23, "hour": 15, "minute": 0, "report": "AAXX 23154 87217 42670 71804 10095 20075 39654 40175 58005 85570 333 56560 85635 84360="}, {"year": 2026, "month": 7, "day": 23, "hour": 14, "minute": 0, "report": "AAXX 23144 87217 42665 71803 10092 20082 39657 40179 51003 87600 333 56400 81735 87650="}, {"year": 2026, "month": 7, "day": 23, "hour": 13, "minute": 0, "report": "AAXX 23134 87217 41665 72304 10085 20071 39660 40183 53009 70421 87600 333 56400 81735 87650="}], "87046": [{"year": 2026, "month": 7, "day": 24, "hour": 13, "minute": 0, "report": "AAXX 24134 87046 41559 82303 10120 20069 39141 48511 52029 70522 885// 333 56099 88626="}, {"year": 2026, "month": 7, "day": 24, "hour": 12, "minute": 0, "report": "AAXX 24124 87046 31560 83002 10113 20072 39129 48500 52023 70422 885// 333 10115 20098 56099 88626="}, {"year": 2026, "month": 7, "day": 24, "hour": 11, "minute": 0, "report": "AAXX 24114 87046 41560 83302 10107 20074 39120 48491 52019 70422 885// 333 56099 88625="}, {"year": 2026, "month": 7, "day": 24, "hour": 10, "minute": 0, "report": "AAXX 24104 87046 42565 83202 10103 20088 39112 48484 53008 885// 333 56499 88628="}, {"year": 2026, "month": 7, "day": 24, "hour": 9, "minute": 0, "report": "AAXX 24094 87046 42565 89901 10101 20088 39106 48480 55000 885// 333 56499 88629="}, {"year": 2026, "month": 7, "day": 24, "hour": 8, "minute": 0, "report": "AAXX 24084 87046 42565 83202 10100 20083 39101 48475 57009 885// 333 56499 88630="}, {"year": 2026, "month": 7, "day": 24, "hour": 7, "minute": 0, "report": "AAXX 24074 87046 42565 80000 10102 20081 39104 48478 57003 885// 333 56499 88630="}, {"year": 2026, "month": 7, "day": 24, "hour": 6, "minute": 0, "report": "AAXX 24064 87046 12565 80000 10101 20084 39106 48480 57005 60001 885// 333 56499 88631="}, {"year": 2026, "month": 7, "day": 24, "hour": 5, "minute": 0, "report": "AAXX 24054 87046 42565 81802 10099 20082 39110 48484 57012 885// 333 56499 88633="}, {"year": 2026, "month": 7, "day": 24, "hour": 4, "minute": 0, "report": "AAXX 24044 87046 42565 80902 10100 20083 39106 48481 57016 885// 333 56499 88630="}, {"year": 2026, "month": 7, "day": 24, "hour": 3, "minute": 0, "report": "AAXX 24034 87046 42565 89902 10103 20084 39112 48484 58003 885// 333 56499 88630="}, {"year": 2026, "month": 7, "day": 24, "hour": 2, "minute": 0, "report": "AAXX 24024 87046 42565 89902 10106 20083 39122 48493 50008 885// 333 56499 88630="}, {"year": 2026, "month": 7, "day": 24, "hour": 1, "minute": 0, "report": "AAXX 24014 87046 42565 81403 10108 20083 39122 48493 53012 885// 333 56499 88633="}, {"year": 2026, "month": 7, "day": 24, "hour": 0, "minute": 0, "report": "AAXX 24004 87046 12565 80902 10111 20082 39114 48486 51007 60001 885// 333 10141 20098 56499 88633="}, {"year": 2026, "month": 7, "day": 23, "hour": 23, "minute": 0, "report": "AAXX 23234 87046 42565 80904 10113 20076 39114 48486 52012 885// 333 56499 88633="}, {"year": 2026, "month": 7, "day": 23, "hour": 22, "minute": 0, "report": "AAXX 23224 87046 42562 80903 10119 20083 39110 48482 53004 885// 333 56699 88630="}, {"year": 2026, "month": 7, "day": 23, "hour": 21, "minute": 0, "report": "AAXX 23214 87046 42562 80904 10126 20078 39108 48481 55000 885// 333 88630="}, {"year": 2026, "month": 7, "day": 23, "hour": 20, "minute": 0, "report": "AAXX 23204 87046 42562 80604 10131 20077 39102 48477 57016 885// 333 88630="}, {"year": 2026, "month": 7, "day": 23, "hour": 19, "minute": 0, "report": "AAXX 23194 87046 42562 80605 10132 20079 39106 48480 57023 885// 333 82620 88635="}, {"year": 2026, "month": 7, "day": 23, "hour": 18, "minute": 0, "report": "AAXX 23184 87046 12562 80705 10133 20078 39108 48482 57033 60001 885// 333 82620 88635="}, {"year": 2026, "month": 7, "day": 23, "hour": 17, "minute": 0, "report": "AAXX 23174 87046 42562 80805 10134 20081 39118 48491 57028 885// 333 82620 88635="}, {"year": 2026, "month": 7, "day": 23, "hour": 16, "minute": 0, "report": "AAXX 23164 87046 42560 80804 10134 20083 39129 48501 57021 885// 333 84620 88640="}, {"year": 2026, "month": 7, "day": 23, "hour": 15, "minute": 0, "report": "AAXX 23154 87046 42460 80604 10120 20078 39141 48510 58009 886// 333 86715 88640="}, {"year": 2026, "month": 7, "day": 23, "hour": 14, "minute": 0, "report": "AAXX 23144 87046 42460 80403 10110 20075 39146 48515 50001 886// 333 86715 88640="}, {"year": 2026, "month": 7, "day": 23, "hour": 13, "minute": 0, "report": "AAXX 23134 87046 42460 80602 10102 20077 39150 48517 51009 886// 333 84710 88640="}], "87244": [{"year": 2026, "month": 7, "day": 24, "hour": 12, "minute": 0, "report": "AAXX 24123 87244 32556 60000 10048 20039 39774 40187 5//// 71022 82506 333 10080 20032 56806 82630 84270 5555 90000="}, {"year": 2026, "month": 7, "day": 24, "hour": 0, "minute": 0, "report": "AAXX 24003 87244 12560 50000 10080 20063 39754 40165 5//// 60001 83506 333 10147 20078 56406 83630="}, {"year": 2026, "month": 7, "day": 23, "hour": 18, "minute": 0, "report": "AAXX 23183 87244 12560 80505 10128 20079 39762 40175 5//// 60001 886// 333 56899 88730="}], "87904": [{"year": 2026, "month": 7, "day": 24, "hour": 13, "minute": 0, "report": "AAXX 24134 87904 41230 80903 11036 21043 39828 40086 53001 72842 87636 333 56666 83705 84710 96010="}, {"year": 2026, "month": 7, "day": 24, "hour": 12, "minute": 0, "report": "AAXX 24124 87904 11103 21104 11038 21038 39825 40083 58001 60034 74642 88606 333 11021 21066 47011 56606 84702 84710="}, {"year": 2026, "month": 7, "day": 24, "hour": 11, "minute": 0, "report": "AAXX 24114 87904 41115 21303 11040 21040 39826 40085 56004 71022 886// 333 56600 84703 84710="}, {"year": 2026, "month": 7, "day": 24, "hour": 10, "minute": 0, "report": "AAXX 24104 87904 41215 81205 11046 21046 39826 40086 56009 71022 886// 333 56699 85705 83710="}, {"year": 2026, "month": 7, "day": 24, "hour": 9, "minute": 0, "report": "AAXX 24094 87904 41360 81406 11044 21051 39826 40085 57012 71522 886// 333 56699 82707 88730="}, {"year": 2026, "month": 7, "day": 24, "hour": 8, "minute": 0, "report": "AAXX 24084 87904 41460 80903 11034 21041 39830 40089 57012 71522 886// 333 56699 82710 88730="}, {"year": 2026, "month": 7, "day": 24, "hour": 7, "minute": 0, "report": "AAXX 24074 87904 41460 81101 11024 21033 39836 40093 57011 71562 886// 333 56699 82010 88730="}, {"year": 2026, "month": 7, "day": 24, "hour": 6, "minute": 0, "report": "AAXX 24064 87904 11460 81802 11024 21033 39838 40096 57011 69921 72476 886// 333 56699 82710 88730="}, {"year": 2026, "month": 7, "day": 24, "hour": 5, "minute": 0, "report": "AAXX 24054 87904 41360 82501 11026 21036 39842 40100 57008 76666 886// 333 56699 88707="}, {"year": 2026, "month": 7, "day": 24, "hour": 4, "minute": 0, "report": "AAXX 24044 87904 41460 82304 11030 21036 39846 40104 57008 76676 886// 333 56699 82710 88730="}, {"year": 2026, "month": 7, "day": 24, "hour": 3, "minute": 0, "report": "AAXX 24034 87904 41412 82507 11036 21043 39849 40108 57011 77177 886// 333 56699 83710 88730="}, {"year": 2026, "month": 7, "day": 24, "hour": 2, "minute": 0, "report": "AAXX 24024 87904 41412 82304 11044 21051 39850 40110 57011 77177 886// 333 56699 83710 88730="}, {"year": 2026, "month": 7, "day": 24, "hour": 1, "minute": 0, "report": "AAXX 24014 87904 41412 82002 11054 21061 39854 40116 57008 77177 886// 333 56699 83710 88730="}, {"year": 2026, "month": 7, "day": 24, "hour": 0, "minute": 0, "report": "AAXX 24004 87904 11412 82003 11056 21056 39860 40122 57007 60031 77177 886// 333 11049 21099 56699 88710="}, {"year": 2026, "month": 7, "day": 23, "hour": 23, "minute": 0, "report": "AAXX 23234 87904 41311 81403 11058 21065 39861 40123 57009 77177 886// 333 56699 88708="}, {"year": 2026, "month": 7, "day": 23, "hour": 22, "minute": 0, "report": "AAXX 23224 87904 41308 80703 11060 21067 39862 40124 57013 77177 886// 333 56699 88708="}, {"year": 2026, "month": 7, "day": 23, "hour": 21, "minute": 0, "report": "AAXX 23214 87904 41420 80904 11054 21069 39866 40128 57020 77377 8662/ 333 56669 84710 86720 88540="}, {"year": 2026, "month": 7, "day": 23, "hour": 20, "minute": 0, "report": "AAXX 23204 87904 41435 80504 11050 21072 39870 40131 57025 77177 8662/ 333 56669 84710 84720 88540="}, {"year": 2026, "month": 7, "day": 23, "hour": 19, "minute": 0, "report": "AAXX 23194 87904 41450 89902 11050 21072 39876 40137 57032 77177 8662/ 333 56669 84710 84720 88540="}, {"year": 2026, "month": 7, "day": 23, "hour": 18, "minute": 0, "report": "AAXX 23184 87904 11470 80905 11056 21071 39886 40149 57025 69901 77172 8662/ 333 56669 84710 84720 88550="}, {"year": 2026, "month": 7, "day": 23, "hour": 17, "minute": 0, "report": "AAXX 23174 87904 41470 80505 11062 21077 39896 40158 57015 77077 8662/ 333 56669 84710 84720 88550="}, {"year": 2026, "month": 7, "day": 23, "hour": 16, "minute": 0, "report": "AAXX 23164 87904 41470 80906 11062 21070 39908 40170 57005 77072 8662/ 333 56669 84710 84720 88550="}, {"year": 2026, "month": 7, "day": 23, "hour": 15, "minute": 0, "report": "AAXX 23154 87904 42480 80705 11064 21080 39912 40174 54000 8662/ 333 56669 84710 84720 86550="}, {"year": 2026, "month": 7, "day": 23, "hour": 14, "minute": 0, "report": "AAXX 23144 87904 42480 80903 11078 21086 39910 40174 51001 8662/ 333 56669 83710 84725 86557="}, {"year": 2026, "month": 7, "day": 23, "hour": 13, "minute": 0, "report": "AAXX 23134 87904 42480 81403 11088 21097 39913 40176 55001 886// 333 56699 84710 88725="}], "87078": [{"year": 2026, "month": 7, "day": 24, "hour": 12, "minute": 0, "report": "AAXX 24123 87078 32970 80902 10146 20132 30012 40166 5//// 8807/ 333 10146 20130 56099 88360="}, {"year": 2026, "month": 7, "day": 24, "hour": 0, "minute": 0, "report": "AAXX 24003 87078 12970 82302 10142 20116 30002 40158 52001 60001 8807/ 333 10153 20112 56099 88360="}, {"year": 2026, "month": 7, "day": 23, "hour": 21, "minute": 0, "report": "AAXX 23213 87078 42570 82302 10150 20109 30001 40157 57009 8357/ 333 56399 83620 88360="}, {"year": 2026, "month": 7, "day": 23, "hour": 18, "minute": 0, "report": "AAXX 23183 87078 12570 80000 10146 20105 30010 40167 57032 60001 8357/ 333 56499 83620 88360="}, {"year": 2026, "month": 7, "day": 23, "hour": 15, "minute": 0, "report": "AAXX 23153 87078 42470 81402 10142 20104 30042 40199 57004 886// 333 56099 88710="}], "87453": [{"year": 2026, "month": 7, "day": 24, "hour": 13, "minute": 0, "report": "AAXX 24134 87453 41458 73006 10064 20053 39693 4//// 52031 72842 81606 333 56400 81715 86270 96010="}, {"year": 2026, "month": 7, "day": 24, "hour": 12, "minute": 0, "report": "AAXX 24124 87453 11/01 93205 10050 20050 39686 40194 52024 69904 74340 333 10090 20041 30004="}, {"year": 2026, "month": 7, "day": 24, "hour": 11, "minute": 0, "report": "AAXX 24114 87453 41/00 93203 10060 20060 39678 40183 52016 74540="}, {"year": 2026, "month": 7, "day": 24, "hour": 10, "minute": 0, "report": "AAXX 24104 87453 41/00 90203 10065 20059 39669 40172 52006 74740="}, {"year": 2026, "month": 7, "day": 24, "hour": 9, "minute": 0, "report": "AAXX 24094 87453 41/00 90204 10062 20060 39662 40165 52007 74740="}, {"year": 2026, "month": 7, "day": 24, "hour": 0, "minute": 0, "report": "AAXX 24004 87453 92565 70212 10090 20067 39643 40145 50004 85570 333 10126 20080 56880 85630="}, {"year": 2026, "month": 7, "day": 23, "hour": 23, "minute": 0, "report": "AAXX 23234 87453 42565 70211 10100 20060 39643 40144 53004 85570 333 56880 85630="}, {"year": 2026, "month": 7, "day": 23, "hour": 22, "minute": 0, "report": "AAXX 23224 87453 42565 70213 10110 20067 39640 40141 54000 87570 333 56880 85730="}, {"year": 2026, "month": 7, "day": 23, "hour": 21, "minute": 0, "report": "AAXX 23214 87453 42565 70215 10120 20056 39638 40139 56011 87570 333 56880 87630="}, {"year": 2026, "month": 7, "day": 23, "hour": 20, "minute": 0, "report": "AAXX 23204 87453 42565 70216 10126 20058 39638 4//// 56017 87570 333 56889 87630="}, {"year": 2026, "month": 7, "day": 23, "hour": 19, "minute": 0, "report": "AAXX 23194 87453 42565 80215 10120 20056 39640 4//// 56031 8757/ 333 56889 87630="}, {"year": 2026, "month": 7, "day": 23, "hour": 18, "minute": 0, "report": "AAXX 23184 87453 11465 70216 10108 20065 39649 4//// 57027 69901 70152 87500 333 56800 87615="}, {"year": 2026, "month": 7, "day": 23, "hour": 17, "minute": 0, "report": "AAXX 23174 87453 41465 80215 10114 20072 39656 4//// 58016 70352 885// 333 56899 88615="}, {"year": 2026, "month": 7, "day": 23, "hour": 16, "minute": 0, "report": "AAXX 23164 87453 41260 70215 10104 20078 39670 4//// 58004 70252 87600 333 56800 85705 86710 96010="}, {"year": 2026, "month": 7, "day": 23, "hour": 15, "minute": 0, "report": "AAXX 23154 87453 41250 80113 10092 20082 39676 4//// 53005 75055 886// 333 56899 87704 88708 96010="}, {"year": 2026, "month": 7, "day": 23, "hour": 14, "minute": 0, "report": "AAXX 23144 87453 41230 80216 10086 20084 39672 4//// 58005 75255 886// 333 56899 88704 91024 86010="}, {"year": 2026, "month": 7, "day": 23, "hour": 13, "minute": 0, "report": "AAXX 23134 87453 41218 80217 10082 20080 39674 4//// 58003 75255 886// 333 56899 87705 88710 96010="}], "87467": [{"year": 2026, "month": 7, "day": 24, "hour": 13, "minute": 0, "report": "AAXX 24134 87467 41460 82703 10104 20096 30062 4//// 53020 71022 885// 333 56599 88615="}, {"year": 2026, "month": 7, "day": 24, "hour": 12, "minute": 0, "report": "AAXX 24124 87467 11460 82701 10098 20092 30054 40194 53019 69904 710// 885// 333 10108 20072 30006 56599 88615="}, {"year": 2026, "month": 7, "day": 24, "hour": 0, "minute": 0, "report": "AAXX 24004 87467 12470 80502 10108 20090 30033 40171 53005 60001 885// 333 10140 20099 56599 88615="}, {"year": 2026, "month": 7, "day": 23, "hour": 23, "minute": 0, "report": "AAXX 23234 87467 42470 80203 10108 20088 30031 4//// 53002 885// 333 56599 88612="}, {"year": 2026, "month": 7, "day": 23, "hour": 22, "minute": 0, "report": "AAXX 23224 87467 42470 80202 10124 20093 30031 4//// 55002 885// 333 56599 88615="}, {"year": 2026, "month": 7, "day": 23, "hour": 21, "minute": 0, "report": "AAXX 23214 87467 42470 83604 10131 20092 30028 4//// 57009 885// 333 56599 88613="}, {"year": 2026, "month": 7, "day": 23, "hour": 20, "minute": 0, "report": "AAXX 23204 87467 42470 80205 10133 20092 30029 4//// 57014 885// 333 56599 88612="}, {"year": 2026, "month": 7, "day": 23, "hour": 19, "minute": 0, "report": "AAXX 23194 87467 42470 80512 10139 20090 30033 4//// 57022 885// 333 56599 88610="}, {"year": 2026, "month": 7, "day": 23, "hour": 18, "minute": 0, "report": "AAXX 23184 87467 11470 80509 10130 20093 30037 4//// 57027 69901 70252 885// 333 56599 88612="}, {"year": 2026, "month": 7, "day": 23, "hour": 17, "minute": 0, "report": "AAXX 23174 87467 41470 80212 10120 20099 30043 4//// 57023 72052 885// 333 56599 88610="}, {"year": 2026, "month": 7, "day": 23, "hour": 16, "minute": 0, "report": "AAXX 23164 87467 41360 80211 10122 20103 30055 4//// 58012 75055 886// 333 56599 88708="}, {"year": 2026, "month": 7, "day": 23, "hour": 15, "minute": 0, "report": "AAXX 23154 87467 41360 80213 10115 20103 30064 4//// 58003 75052 886// 333 56599 88708="}, {"year": 2026, "month": 7, "day": 23, "hour": 14, "minute": 0, "report": "AAXX 23144 87467 42470 80211 10113 20099 30066 4//// 50003 886// 333 56699 88710="}, {"year": 2026, "month": 7, "day": 23, "hour": 13, "minute": 0, "report": "AAXX 23134 87467 42470 80712 10109 20095 30067 4//// 53002 886// 333 56599 88712="}], "87572": [{"year": 2026, "month": 7, "day": 24, "hour": 13, "minute": 0, "report": "AAXX 24134 87572 42560 70703 10128 20107 30160 4//// 5//// 83876 333 56316 83630 86360 86270="}, {"year": 2026, "month": 7, "day": 24, "hour": 12, "minute": 0, "report": "AAXX 24124 87572 32560 70202 10122 20107 30156 40195 5//// 83870 333 1//// 20114 56410 83630 87360="}, {"year": 2026, "month": 7, "day": 24, "hour": 11, "minute": 0, "report": "AAXX 24114 87572 42960 70503 10120 20109 30152 40190 5//// 87070 333 56010 87360="}, {"year": 2026, "month": 7, "day": 24, "hour": 0, "minute": 0, "report": "AAXX 24004 87572 12960 73604 10130 20091 30156 40195 55001 60001 87070 333 1//// 20100 56060 87360="}, {"year": 2026, "month": 7, "day": 23, "hour": 23, "minute": 0, "report": "AAXX 23234 87572 42560 53605 10130 20095 30156 40194 56001 85500 333 56100 85625="}, {"year": 2026, "month": 7, "day": 23, "hour": 22, "minute": 0, "report": "AAXX 23224 87572 42460 50203 10132 20105 30156 4//// 57003 85870 333 56160 81815 85625="}, {"year": 2026, "month": 7, "day": 23, "hour": 21, "minute": 0, "report": "AAXX 23214 87572 42560 70707 10142 20100 30157 4//// 56003 87500 333 56100 82620 87630="}, {"year": 2026, "month": 7, "day": 23, "hour": 20, "minute": 0, "report": "AAXX 23204 87572 42560 70706 10144 20098 30157 4//// 57009 87500 333 56100 82620 87630="}, {"year": 2026, "month": 7, "day": 23, "hour": 19, "minute": 0, "report": "AAXX 23194 87572 42560 70505 10148 20098 30158 4//// 57012 87500 333 56100 87620="}, {"year": 2026, "month": 7, "day": 23, "hour": 18, "minute": 0, "report": "AAXX 23184 87572 12560 70508 10144 20094 30160 4//// 57024 60001 87500 333 56100 87620="}, {"year": 2026, "month": 7, "day": 23, "hour": 17, "minute": 0, "report": "AAXX 23174 87572 42460 60709 10142 20087 30166 4//// 57021 86500 333 56100 86618="}, {"year": 2026, "month": 7, "day": 23, "hour": 16, "minute": 0, "report": "AAXX 23164 87572 42460 40509 10146 20083 30170 4//// 58017 83505 333 56106 83618="}, {"year": 2026, "month": 7, "day": 23, "hour": 15, "minute": 0, "report": "AAXX 23154 87572 42460 40508 10142 20078 30184 4//// 58007 83404 333 56106 83618="}, {"year": 2026, "month": 7, "day": 23, "hour": 14, "minute": 0, "report": "AAXX 23144 87572 42460 40710 10118 20094 30188 4//// 58001 81104 333 56206 81815 84070="}, {"year": 2026, "month": 7, "day": 23, "hour": 13, "minute": 0, "report": "AAXX 23134 87572 42460 40707 10110 20090 30188 4//// 5//// 81704 333 56206 81710 84070="}], "87623": [{"year": 2026, "month": 7, "day": 24, "hour": 13, "minute": 0, "report": "AAXX 24134 87623 41/01 92502 10075 20075 39961 40194 52024 74544="}, {"year": 2026, "month": 7, "day": 24, "hour": 12, "minute": 0, "report": "AAXX 24124 87623 01/01 92704 10075 20075 39954 40187 52021 69904 74764 333 10094 20068 69901="}, {"year": 2026, "month": 7, "day": 24, "hour": 11, "minute": 0, "report": "AAXX 24114 87623 41/04 92904 10076 20076 39946 40179 52016 74742="}, {"year": 2026, "month": 7, "day": 24, "hour": 10, "minute": 0, "report": "AAXX 24104 87623 41150 83206 10080 20076 39937 40169 52008 71042 886// 333 56899 88703="}, {"year": 2026, "month": 7, "day": 24, "hour": 9, "minute": 0, "report": "AAXX 24094 87623 41158 83205 10081 20079 39933 40164 53001 72864 886// 333 56899 88703 96010="}, {"year": 2026, "month": 7, "day": 24, "hour": 8, "minute": 0, "report": "AAXX 24084 87623 41105 73407 10080 20078 39930 40162 55004 74664 86670 333 56860 86703 84360 96021="}, {"year": 2026, "month": 7, "day": 24, "hour": 7, "minute": 0, "report": "AAXX 24074 87623 41258 83607 10083 20081 39929 40160 58003 76162 8477/ 333 56869 84704 88360="}, {"year": 2026, "month": 7, "day": 24, "hour": 6, "minute": 0, "report": "AAXX 24064 87623 12280 83606 10086 20082 39932 40163 58003 60001 8567/ 333 56860 85704 88360="}, {"year": 2026, "month": 7, "day": 24, "hour": 5, "minute": 0, "report": "AAXX 24054 87623 42980 83406 10089 20085 39934 40166 51005 8807/ 333 56069 88360="}, {"year": 2026, "month": 7, "day": 24, "hour": 4, "minute": 0, "report": "AAXX 24044 87623 42280 83608 10090 20086 39932 40163 50005 8367/ 333 56869 83704 88360="}, {"year": 2026, "month": 7, "day": 24, "hour": 3, "minute": 0, "report": "AAXX 24034 87623 42280 83608 10090 20084 39934 40166 52011 8267/ 333 56869 82705 88360="}, {"year": 2026, "month": 7, "day": 24, "hour": 2, "minute": 0, "report": "AAXX 24024 87623 42980 83611 10092 20084 39929 40161 52011 8807/ 333 56069 88360="}, {"year": 2026, "month": 7, "day": 24, "hour": 1, "minute": 0, "report": "AAXX 24014 87623 42980 83610 10093 20083 39926 40159 53008 8807/ 333 56069 88360="}, {"year": 2026, "month": 7, "day": 24, "hour": 0, "minute": 0, "report": "AAXX 24004 87623 12980 83612 10094 20082 39924 40156 50013 60001 86076 333 10121 20069 56066 86360 87270="}, {"year": 2026, "month": 7, "day": 23, "hour": 23, "minute": 0, "report": "AAXX 23234 87623 42980 80212 10101 20081 39918 40150 53005 85076 333 56066 85360 87270="}, {"year": 2026, "month": 7, "day": 23, "hour": 22, "minute": 0, "report": "AAXX 23224 87623 42480 80110 10101 20081 39918 40151 55000 885// 333 56899 88615="}, {"year": 2026, "month": 7, "day": 23, "hour": 21, "minute": 0, "report": "AAXX 23214 87623 42480 80313 10111 20081 39910 40142 57016 8367/ 333 56169 81710 83617 88360="}, {"year": 2026, "month": 7, "day": 23, "hour": 20, "minute": 0, "report": "AAXX 23204 87623 42580 80118 10116 20075 39913 40144 57025 8357/ 333 56869 83623 88360="}, {"year": 2026, "month": 7, "day": 23, "hour": 19, "minute": 0, "report": "AAXX 23194 87623 42580 80118 10118 20075 39918 40149 57028 8357/ 333 56869 83623 88360="}, {"year": 2026, "month": 7, "day": 23, "hour": 18, "minute": 0, "report": "AAXX 23184 87623 11560 80216 10114 20079 39926 40157 57024 60001 71022 8457/ 333 56879 84620 88360="}, {"year": 2026, "month": 7, "day": 23, "hour": 17, "minute": 0, "report": "AAXX 23174 87623 41480 83414 10106 20082 39938 40169 57012 71022 8657/ 333 56869 86615 88360="}, {"year": 2026, "month": 7, "day": 23, "hour": 16, "minute": 0, "report": "AAXX 23164 87623 41480 83619 10100 20082 39946 40178 58008 71022 8657/ 333 56889 86614 88360="}, {"year": 2026, "month": 7, "day": 23, "hour": 15, "minute": 0, "report": "AAXX 23154 87623 41450 83617 10088 20075 39950 40182 56003 71022 886// 333 56899 84710 88614="}, {"year": 2026, "month": 7, "day": 23, "hour": 14, "minute": 0, "report": "AAXX 23144 87623 41457 83615 10080 20069 39950 40184 50004 71022 886// 333 56899 84710 88614="}, {"year": 2026, "month": 7, "day": 23, "hour": 13, "minute": 0, "report": "AAXX 23134 87623 42480 83515 10075 20062 39954 40187 52004 886// 333 56899 85710 87614="}], "87593": [{"year": 2026, "month": 7, "day": 24, "hour": 13, "minute": 0, "report": "AAXX 24134 87593 42460 70305 10123 20106 30184 40211 52007 81670 333 56870 81715 87360="}, {"year": 2026, "month": 7, "day": 24, "hour": 12, "minute": 0, "report": "AAXX 24124 87593 32560 60404 10111 20101 30181 40209 52005 83678 333 10122 20103 30009 56177 83725 84360 86270="}, {"year": 2026, "month": 7, "day": 24, "hour": 11, "minute": 0, "report": "AAXX 24114 87593 42460 70503 10106 20098 30180 40208 52007 83678 333 56177 81715 83620 85360="}, {"year": 2026, "month": 7, "day": 24, "hour": 10, "minute": 0, "report": "AAXX 24104 87593 42460 80503 10112 20098 30177 40205 53001 886// 333 56199 84715 88620="}, {"year": 2026, "month": 7, "day": 24, "hour": 9, "minute": 0, "report": "AAXX 24094 87593 42460 80704 10112 20098 30176 40203 55001 886// 333 56199 84715 88620="}, {"year": 2026, "month": 7, "day": 24, "hour": 8, "minute": 0, "report": "AAXX 24084 87593 42560 80505 10114 20100 30173 40201 57011 888// 333 56199 81820 88625="}, {"year": 2026, "month": 7, "day": 24, "hour": 7, "minute": 0, "report": "AAXX 24074 87593 42560 80705 10115 20099 30176 40203 57007 888// 333 56199 81820 88625="}, {"year": 2026, "month": 7, "day": 24, "hour": 6, "minute": 0, "report": "AAXX 24064 87593 12560 80707 10118 20101 30177 40205 57005 60001 888// 333 56199 81825 88630="}, {"year": 2026, "month": 7, "day": 24, "hour": 5, "minute": 0, "report": "AAXX 24054 87593 42560 80506 10121 20102 30184 40211 52008 885// 333 56199 88625="}, {"year": 2026, "month": 7, "day": 24, "hour": 4, "minute": 0, "report": "AAXX 24044 87593 42560 80706 10122 20103 30182 40210 52005 885// 333 56199 88620="}, {"year": 2026, "month": 7, "day": 24, "hour": 3, "minute": 0, "report": "AAXX 24034 87593 42560 80505 10122 20105 30182 40210 52007 885// 333 56199 88620="}, {"year": 2026, "month": 7, "day": 24, "hour": 2, "minute": 0, "report": "AAXX 24024 87593 42560 80907 10121 20104 30176 40204 57004 885// 333 56299 88620="}, {"year": 2026, "month": 7, "day": 24, "hour": 1, "minute": 0, "report": "AAXX 24014 87593 42560 70909 10122 20103 30177 40205 57008 84578 333 56218 84620 87270="}, {"year": 2026, "month": 7, "day": 24, "hour": 0, "minute": 0, "report": "AAXX 24004 87593 12960 70708 10114 20098 30176 40204 57011 60001 83078 333 10148 20073 56018 83360 87270="}, {"year": 2026, "month": 7, "day": 23, "hour": 23, "minute": 0, "report": "AAXX 23234 87593 42560 50908 10113 20103 30180 40207 57008 84808 333 56107 81822 84628 85270="}, {"year": 2026, "month": 7, "day": 23, "hour": 22, "minute": 0, "report": "AAXX 23224 87593 42560 71009 10116 20094 30185 40213 58003 87800 333 56200 81822 87628="}, {"year": 2026, "month": 7, "day": 23, "hour": 21, "minute": 0, "report": "AAXX 23214 87593 42560 70907 10120 20092 30186 40214 50001 85504 333 56207 81622 85628="}, {"year": 2026, "month": 7, "day": 23, "hour": 20, "minute": 0, "report": "AAXX 23204 87593 42960 60909 10132 20093 30188 40215 55003 80004 333 56007 86070="}, {"year": 2026, "month": 7, "day": 23, "hour": 19, "minute": 0, "report": "AAXX 23194 87593 42960 50510 10139 20088 30188 40215 55017 80004 333 56007 85070="}, {"year": 2026, "month": 7, "day": 23, "hour": 18, "minute": 0, "report": "AAXX 23184 87593 11960 30510 10143 20086 30185 40213 57028 60001 70341 80004 333 56007 83070="}, {"year": 2026, "month": 7, "day": 23, "hour": 17, "minute": 0, "report": "AAXX 23174 87593 42960 20709 10145 20080 30190 40218 58023 81034 333 56067 81360="}, {"year": 2026, "month": 7, "day": 23, "hour": 16, "minute": 0, "report": "AAXX 23164 87593 42460 30710 10138 20087 30205 40233 57011 81134 333 56167 81818="}, {"year": 2026, "month": 7, "day": 23, "hour": 15, "minute": 0, "report": "AAXX 23154 87593 41460 50609 10136 20089 30213 40241 50001 70141 81104 333 56107 81818 85070="}, {"year": 2026, "month": 7, "day": 23, "hour": 14, "minute": 0, "report": "AAXX 23144 87593 41460 60506 10119 20102 30213 40241 57003 70341 84504 333 56107 84615 83070="}, {"year": 2026, "month": 7, "day": 23, "hour": 13, "minute": 0, "report": "AAXX 23134 87593 41360 40704 10100 20096 30216 40244 52004 72841 81604 333 56207 81708 84070="}], "87506": [{"year": 2026, "month": 7, "day": 24, "hour": 13, "minute": 0, "report": "AAXX 24134 87506 42970 72704 10026 21060 38585 4//// 52015 84074 333 56066 84360 85070 95000="}, {"year": 2026, "month": 7, "day": 24, "hour": 12, "minute": 0, "report": "AAXX 24124 87506 12970 72703 10000 21059 38580 48501 52015 69904 83074 333 10052 21006 56066 83360 85070 95000="}, {"year": 2026, "month": 7, "day": 24, "hour": 11, "minute": 0, "report": "AAXX 24114 87506 42970 43403 11006 21046 38576 48497 52016 83071 333 56066 83360 95090="}, {"year": 2026, "month": 7, "day": 24, "hour": 10, "minute": 0, "report": "AAXX 24104 87506 42970 03203 10003 21045 38570 48491 52009 333 95090="}, {"year": 2026, "month": 7, "day": 24, "hour": 9, "minute": 0, "report": "AAXX 24094 87506 42970 01804 10024 21055 38565 48487 52005 333 95090="}, {"year": 2026, "month": 7, "day": 24, "hour": 0, "minute": 0, "report": "AAXX 24004 87506 11465 62703 10052 20020 38554 48476 52017 69901 70252 83624 333 10095 20000 56766 83715 83525 95090="}, {"year": 2026, "month": 7, "day": 23, "hour": 23, "minute": 0, "report": "AAXX 23234 87506 42465 63604 10057 20019 38546 48470 52019 83624 333 56766 83715 83525 95090="}, {"year": 2026, "month": 7, "day": 23, "hour": 22, "minute": 0, "report": "AAXX 23224 87506 41465 62703 10058 20017 38542 48465 52017 70152 83624 333 56766 83715 83525 95062="}, {"year": 2026, "month": 7, "day": 23, "hour": 21, "minute": 0, "report": "AAXX 23214 87506 41465 82904 10074 20019 38537 48460 53017 72052 84621 333 56769 84710 85550 95080="}, {"year": 2026, "month": 7, "day": 23, "hour": 20, "minute": 0, "report": "AAXX 23204 87506 42565 82710 10092 20004 38528 4//// 53001 85621 333 56769 85720 86560 95080="}, {"year": 2026, "month": 7, "day": 23, "hour": 19, "minute": 0, "report": "AAXX 23194 87506 42465 82706 10090 20015 38525 4//// 55008 85611 333 56799 85710 86460 95080="}, {"year": 2026, "month": 7, "day": 23, "hour": 18, "minute": 0, "report": "AAXX 23184 87506 12465 80505 10091 20036 38520 4//// 57019 60001 85611 333 56769 85710 86425 95080="}, {"year": 2026, "month": 7, "day": 23, "hour": 17, "minute": 0, "report": "AAXX 23174 87506 42465 81402 10054 20032 38526 4//// 57020 85611 333 56799 83710 85725 85460 95080="}, {"year": 2026, "month": 7, "day": 23, "hour": 16, "minute": 0, "report": "AAXX 23164 87506 42465 81402 10044 20011 38533 4//// 58008 85611 333 56399 82715 85725 85460 95080="}, {"year": 2026, "month": 7, "day": 23, "hour": 15, "minute": 0, "report": "AAXX 23154 87506 42462 83603 10038 20010 38538 4//// 50007 8671/ 333 56390 82710 85720 95080="}, {"year": 2026, "month": 7, "day": 23, "hour": 14, "minute": 0, "report": "AAXX 23144 87506 41458 80502 10018 20003 38546 4//// 52013 71022 886// 333 56399 88710 95080="}, {"year": 2026, "month": 7, "day": 23, "hour": 13, "minute": 0, "report": "AAXX 23134 87506 42456 81403 10009 20002 38541 4//// 53009 71022 886// 333 56399 88710 95090="}], "87596": [{"year": 2026, "month": 7, "day": 24, "hour": 13, "minute": 0, "report": "AAXX 24134 87596 42460 80709 10122 20102 30184 40211 52005 72052 8452/ 333 56779 84715 88550="}, {"year": 2026, "month": 7, "day": 24, "hour": 12, "minute": 0, "report": "AAXX 24124 87596 01460 80606 10112 20110 30182 40209 52006 69904 75022 8452/ 333 10102 20090 56779 69902 84710 88550="}, {"year": 2026, "month": 7, "day": 24, "hour": 0, "minute": 0, "report": "AAXX 24004 87596 12960 70916 10102 20088 30180 40207 58008 60001 80006 333 10150 20065 56005 87270="}, {"year": 2026, "month": 7, "day": 23, "hour": 23, "minute": 0, "report": "AAXX 23234 87596 42960 71115 10105 20074 30184 40211 58014 80006 333 56005 87270="}, {"year": 2026, "month": 7, "day": 23, "hour": 22, "minute": 0, "report": "AAXX 23224 87596 42960 61110 10100 20079 30188 40215 56003 80006 333 56005 86270="}, {"year": 2026, "month": 7, "day": 23, "hour": 21, "minute": 0, "report": "AAXX 23214 87596 42960 31312 10108 20070 30188 40215 58003 80005 333 56005 83270="}, {"year": 2026, "month": 7, "day": 23, "hour": 20, "minute": 0, "report": "AAXX 23204 87596 42960 21210 10128 20093 30194 40220 53003 80005 333 56005 82270="}, {"year": 2026, "month": 7, "day": 23, "hour": 19, "minute": 0, "report": "AAXX 23194 87596 42960 20913 10135 20106 30191 40218 58015 80005 333 56005 82270="}, {"year": 2026, "month": 7, "day": 23, "hour": 18, "minute": 0, "report": "AAXX 23184 87596 12960 21113 10140 20102 30190 40217 57025 60001 80005 333 56005 82270="}, {"year": 2026, "month": 7, "day": 23, "hour": 17, "minute": 0, "report": "AAXX 23174 87596 42960 31114 10155 20108 30191 40218 58024 80005 333 56005 83270="}, {"year": 2026, "month": 7, "day": 23, "hour": 16, "minute": 0, "report": "AAXX 23164 87596 42460 31110 10140 20112 30206 40233 53003 82506 333 56505 82615 83270="}, {"year": 2026, "month": 7, "day": 23, "hour": 15, "minute": 0, "report": "AAXX 23154 87596 42960 60912 10135 20106 30215 40242 51003 84506 333 56505 84615 86270="}, {"year": 2026, "month": 7, "day": 23, "hour": 14, "minute": 0, "report": "AAXX 23144 87596 42960 60910 10100 20075 30215 40249 53001 845060 333 56505 84615 86270="}, {"year": 2026, "month": 7, "day": 23, "hour": 13, "minute": 0, "report": "AAXX 23134 87596 42960 61210 10075 20040 30213 40240 50000 80006 333 56005 86270="}], "87814": [{"year": 2026, "month": 7, "day": 24, "hour": 12, "minute": 0, "report": "AAXX 24123 87814 12983 42708 10025 20001 39538 40114 52014 60054 83078 333 10031 21017 42999 56066 83460="}, {"year": 2026, "month": 7, "day": 24, "hour": 0, "minute": 0, "report": "AAXX 24003 87814 11580 50000 10006 20003 39503 40079 51015 60021 72162 83670 333 10015 21017 56660 83625 84460="}, {"year": 2026, "month": 7, "day": 23, "hour": 21, "minute": 0, "report": "AAXX 23213 87814 41440 80000 10007 21003 39489 4//// 55002 71027 887// 333 56799 88712="}, {"year": 2026, "month": 7, "day": 23, "hour": 18, "minute": 0, "report": "AAXX 23183 87814 11304 80502 10005 21004 39491 4//// 57015 60031 77874 887// 333 56799 88708="}, {"year": 2026, "month": 7, "day": 23, "hour": 15, "minute": 0, "report": "AAXX 23153 87814 41202 80202 11001 21008 39506 4//// 58013 74647 887// 333 56099 88704="}], "87663": [{"year": 2026, "month": 7, "day": 24, "hour": 13, "minute": 0, "report": "AAXX 24134 87663 42960 83608 10100 20090 30200 40208 50003 8807/ 333 56069 88360="}, {"year": 2026, "month": 7, "day": 24, "hour": 12, "minute": 0, "report": "AAXX 24124 87663 32960 83603 10097 20089 30201 40210 50009 8807/ 333 10097 20071 56069 88360="}, {"year": 2026, "month": 7, "day": 24, "hour": 11, "minute": 0, "report": "AAXX 24114 87663 42960 83603 10095 20085 30200 40209 5//// 8807/ 333 56069 88360="}, {"year": 2026, "month": 7, "day": 24, "hour": 0, "minute": 0, "report": "AAXX 24004 87663 12960 80204 10075 20064 30209 40218 58007 60001 80007 333 10126 20030 56006 88270="}, {"year": 2026, "month": 7, "day": 23, "hour": 23, "minute": 0, "report": "AAXX 23234 87663 42960 53604 10070 20059 30213 40222 57003 80001 333 56006 85070="}, {"year": 2026, "month": 7, "day": 23, "hour": 22, "minute": 0, "report": "AAXX 23224 87663 42960 50203 10070 20059 30214 40223 58001 80001 333 56006 85070="}, {"year": 2026, "month": 7, "day": 23, "hour": 21, "minute": 0, "report": "AAXX 23214 87663 42560 50203 10086 20073 30216 40225 54000 82506 333 56706 82625 85270="}, {"year": 2026, "month": 7, "day": 23, "hour": 20, "minute": 0, "report": "AAXX 23204 87663 42560 60507 10110 20079 30216 40225 55004 82576 333 56766 82625 86270="}, {"year": 2026, "month": 7, "day": 23, "hour": 19, "minute": 0, "report": "AAXX 23194 87663 42560 60508 10115 20085 30216 40224 56017 83576 333 56166 83625 83360 86270="}, {"year": 2026, "month": 7, "day": 23, "hour": 18, "minute": 0, "report": "AAXX 23184 87663 12560 50507 10120 20080 30216 40224 56028 60001 83575 333 56166 83625 84270="}, {"year": 2026, "month": 7, "day": 23, "hour": 17, "minute": 0, "report": "AAXX 23174 87663 42560 60208 10112 20077 30220 40229 58024 85575 333 56166 85625 83360="}, {"year": 2026, "month": 7, "day": 23, "hour": 16, "minute": 0, "report": "AAXX 23164 87663 42560 70507 10111 20076 30233 40242 58007 86576 333 56166 86625 83360 85270="}, {"year": 2026, "month": 7, "day": 23, "hour": 15, "minute": 0, "report": "AAXX 23154 87663 42560 60504 10109 20069 30244 40252 50005 84576 333 56166 84625 85270="}, {"year": 2026, "month": 7, "day": 23, "hour": 14, "minute": 0, "report": "AAXX 23144 87663 42560 50506 10110 20068 30244 40252 53008 82576 333 56166 82625 85270="}, {"year": 2026, "month": 7, "day": 23, "hour": 13, "minute": 0, "report": "AAXX 23134 87663 42560 60504 10086 20073 30240 40249 53001 85576 333 56166 85625 83360 85270="}], "87828": [{"year": 2026, "month": 7, "day": 24, "hour": 13, "minute": 0, "report": "AAXX 24134 87828 42980 22503 10034 20019 30066 40120 51012 81072 333 56066 81360="}, {"year": 2026, "month": 7, "day": 24, "hour": 12, "minute": 0, "report": "AAXX 24124 87828 12980 22707 10028 20012 30066 40119 52017 60014 81072 333 10085 20010 56077 81360="}, {"year": 2026, "month": 7, "day": 24, "hour": 11, "minute": 0, "report": "AAXX 24114 87828 42980 22907 10014 20005 30058 40111 52012 81072 333 56077 81360="}, {"year": 2026, "month": 7, "day": 24, "hour": 10, "minute": 0, "report": "AAXX 24104 87828 42980 22906 10020 20010 30054 40108 52013 81071 333 56077 81360="}, {"year": 2026, "month": 7, "day": 24, "hour": 9, "minute": 0, "report": "AAXX 24094 87828 42980 22704 10038 20020 30049 40102 52011 81071 333 56077 81360="}, {"year": 2026, "month": 7, "day": 24, "hour": 8, "minute": 0, "report": "AAXX 24084 87828 42980 33104 10038 20028 30046 40099 52009 83070 333 56070 83360="}, {"year": 2026, "month": 7, "day": 24, "hour": 7, "minute": 0, "report": "AAXX 24074 87828 42980 42805 10061 20040 30041 40094 53004 84070 333 56070 84360="}, {"year": 2026, "month": 7, "day": 24, "hour": 6, "minute": 0, "report": "AAXX 24064 87828 12880 63104 10066 20041 30038 40092 53008 60001 86070 333 56070 86358="}, {"year": 2026, "month": 7, "day": 24, "hour": 5, "minute": 0, "report": "AAXX 24054 87828 42880 53006 10063 20045 30037 40089 51009 85070 333 56070 85358="}, {"year": 2026, "month": 7, "day": 24, "hour": 4, "minute": 0, "report": "AAXX 24044 87828 42880 53108 10074 20044 30037 40089 52015 85070 333 56070 85356="}, {"year": 2026, "month": 7, "day": 24, "hour": 3, "minute": 0, "report": "AAXX 24034 87828 42880 73213 10083 20052 30030 40083 52008 87070 333 56070 87358="}, {"year": 2026, "month": 7, "day": 24, "hour": 2, "minute": 0, "report": "AAXX 24024 87828 42980 73413 10085 20054 30028 40081 52008 87070 333 56070 87360="}, {"year": 2026, "month": 7, "day": 24, "hour": 1, "minute": 0, "report": "AAXX 24014 87828 42980 73415 10082 20056 30022 40076 52004 87070 333 56060 87459="}, {"year": 2026, "month": 7, "day": 24, "hour": 0, "minute": 0, "report": "AAXX 24004 87828 11980 73418 10084 20058 30022 40075 55000 60011 70262 87078 333 10085 20008 56066 87359="}, {"year": 2026, "month": 7, "day": 23, "hour": 23, "minute": 0, "report": "AAXX 23234 87828 42980 73519 10085 20061 30020 40073 55011 87078 333 56066 87359="}, {"year": 2026, "month": 7, "day": 23, "hour": 22, "minute": 0, "report": "AAXX 23224 87828 41970 73524 10084 20065 30018 40071 57020 70262 84078 333 56066 84360 83273="}, {"year": 2026, "month": 7, "day": 23, "hour": 21, "minute": 0, "report": "AAXX 23214 87828 41970 80118 10080 20067 30022 40075 57028 72162 86078 333 56066 86359="}, {"year": 2026, "month": 7, "day": 23, "hour": 20, "minute": 0, "report": "AAXX 23204 87828 41760 80120 10078 20065 30030 40083 57024 76162 8802/ 333 56069 88550="}, {"year": 2026, "month": 7, "day": 23, "hour": 19, "minute": 0, "report": "AAXX 23194 87828 41470 80109 10084 20058 30038 40092 57025 72162 8252/ 333 56669 82617 86557="}, {"year": 2026, "month": 7, "day": 23, "hour": 18, "minute": 0, "report": "AAXX 23184 87828 11568 80208 10078 20061 30050 40103 57019 69901 76165 8252/ 333 56669 82620 86531="}, {"year": 2026, "month": 7, "day": 23, "hour": 17, "minute": 0, "report": "AAXX 23174 87828 41480 80108 10083 20050 30054 40107 57023 75052 85676 333 56666 85719="}, {"year": 2026, "month": 7, "day": 23, "hour": 16, "minute": 0, "report": "AAXX 23164 87828 42880 80209 10079 20048 30064 40117 57020 81676 333 56666 81757 86360="}, {"year": 2026, "month": 7, "day": 23, "hour": 15, "minute": 0, "report": "AAXX 23154 87828 42880 81603 10040 20030 30069 40122 57015 81676 333 56666 81757 86360="}, {"year": 2026, "month": 7, "day": 23, "hour": 14, "minute": 0, "report": "AAXX 23144 87828 42980 89901 10037 20025 30077 40130 57005 85076 333 56066 85360 83270="}, {"year": 2026, "month": 7, "day": 23, "hour": 13, "minute": 0, "report": "AAXX 23134 87828 42980 80702 10020 20018 30084 40138 57003 85076 333 56066 85360 83270="}], "87418": [{"year": 2026, "month": 7, "day": 24, "hour": 13, "minute": 0, "report": "AAXX 24134 87418 41956 31802 10060 20037 39361 40191 52013 71000 80005 333 56004 83270="}, {"year": 2026, "month": 7, "day": 24, "hour": 12, "minute": 0, "report": "AAXX 24124 87418 31958 30000 10034 20027 39354 40188 51008 71000 80005 333 10086 20023 56004 83270="}, {"year": 2026, "month": 7, "day": 24, "hour": 11, "minute": 0, "report": "AAXX 24114 87418 41958 22303 10028 20018 39352 40184 52008 71000 80005 333 56005 82270="}, {"year": 2026, "month": 7, "day": 24, "hour": 10, "minute": 0, "report": "AAXX 24104 87418 41958 22303 10030 20020 39348 40178 52008 71000 80005 333 56005 82270="}, {"year": 2026, "month": 7, "day": 24, "hour": 9, "minute": 0, "report": "AAXX 24094 87418 41956 01402 10032 20022 39346 40173 53005 71000="}, {"year": 2026, "month": 7, "day": 24, "hour": 8, "minute": 0, "report": "AAXX 24084 87418 41958 00000 10044 20020 39344 40168 53001 71000="}, {"year": 2026, "month": 7, "day": 24, "hour": 7, "minute": 0, "report": "AAXX 24074 87418 41958 02302 10046 20027 39340 40165 50009 71000="}, {"year": 2026, "month": 7, "day": 24, "hour": 6, "minute": 0, "report": "AAXX 24064 87418 11958 02303 10051 20032 39341 40167 50017 60001 71000="}, {"year": 2026, "month": 7, "day": 24, "hour": 5, "minute": 0, "report": "AAXX 24054 87418 41957 02304 10052 20031 39342 40169 52021 71000="}, {"year": 2026, "month": 7, "day": 24, "hour": 4, "minute": 0, "report": "AAXX 24044 87418 41957 31804 10056 20033 39330 40156 52012 71000 81075 333 56055 81360="}, {"year": 2026, "month": 7, "day": 24, "hour": 3, "minute": 0, "report": "AAXX 24034 87418 41957 31802 10074 20038 39324 40149 52011 70500 82075 333 56055 82360="}, {"year": 2026, "month": 7, "day": 24, "hour": 2, "minute": 0, "report": "AAXX 24024 87418 41956 31804 10076 20040 39321 40148 52016 70500 82075 333 56055 82360="}, {"year": 2026, "month": 7, "day": 24, "hour": 1, "minute": 0, "report": "AAXX 24014 87418 42558 32303 10080 20045 39318 40146 52024 83500 333 56500 83630="}, {"year": 2026, "month": 7, "day": 24, "hour": 0, "minute": 0, "report": "AAXX 24004 87418 11958 22303 10086 20052 39313 40138 52023 60001 70500 80005 333 10133 20058 56005 82270="}, {"year": 2026, "month": 7, "day": 23, "hour": 23, "minute": 0, "report": "AAXX 23234 87418 42965 21802 10094 20051 39305 40128 53015 81075 333 56066 81360="}, {"year": 2026, "month": 7, "day": 23, "hour": 22, "minute": 0, "report": "AAXX 23224 87418 42965 20000 10106 20053 39294 40115 53004 81075 333 56066 81360="}, {"year": 2026, "month": 7, "day": 23, "hour": 21, "minute": 0, "report": "AAXX 23214 87418 42965 20000 10123 20055 39290 40109 56012 81075 333 56066 81368="}, {"year": 2026, "month": 7, "day": 23, "hour": 20, "minute": 0, "report": "AAXX 23204 87418 42965 21402 10128 20043 39290 40108 56019 81075 333 56066 81368="}, {"year": 2026, "month": 7, "day": 23, "hour": 19, "minute": 0, "report": "AAXX 23194 87418 42965 33603 10120 20038 39290 40110 57024 83070 333 56060 83368="}, {"year": 2026, "month": 7, "day": 23, "hour": 18, "minute": 0, "report": "AAXX 23184 87418 12565 61405 10107 20040 39302 40125 57017 60001 81670 333 56060 81727 85360="}, {"year": 2026, "month": 7, "day": 23, "hour": 17, "minute": 0, "report": "AAXX 23174 87418 42565 70905 10099 20040 39309 40132 57012 86670 333 56060 86726="}, {"year": 2026, "month": 7, "day": 23, "hour": 16, "minute": 0, "report": "AAXX 23164 87418 42565 60704 10101 20042 39314 40139 58008 85670 333 56660 85727="}, {"year": 2026, "month": 7, "day": 23, "hour": 15, "minute": 0, "report": "AAXX 23154 87418 41558 70503 10078 20040 39320 40146 58001 71022 86670 333 56060 86727="}, {"year": 2026, "month": 7, "day": 23, "hour": 14, "minute": 0, "report": "AAXX 23144 87418 41557 70502 10066 20041 39321 40149 56001 71022 86670 333 56060 86727="}, {"year": 2026, "month": 7, "day": 23, "hour": 13, "minute": 0, "report": "AAXX 23134 87418 41556 73602 10060 20040 39322 40151 51008 71022 86570 333 56060 83625 83640="}], "87570": [{"year": 2026, "month": 7, "day": 24, "hour": 13, "minute": 0, "report": "AAXX 24134 87570 42660 70505 10128 20111 30173 40205 52011 85570 333 56500 85640 85360="}, {"year": 2026, "month": 7, "day": 24, "hour": 12, "minute": 0, "report": "AAXX 24124 87570 31660 80503 10121 20110 30169 40201 52013 700// 8557/ 333 1//// 20094 56009 85640 85360="}, {"year": 2026, "month": 7, "day": 24, "hour": 0, "minute": 0, "report": "AAXX 24004 87570 12560 80209 10127 20106 30169 40201 57003 60001 884// 333 1//// 20099 56199 88625="}, {"year": 2026, "month": 7, "day": 23, "hour": 23, "minute": 0, "report": "AAXX 23234 87570 42560 80209 10130 20097 30168 40199 58004 884// 333 56899 88625="}, {"year": 2026, "month": 7, "day": 23, "hour": 22, "minute": 0, "report": "AAXX 23224 87570 42960 40207 10128 20099 30170 40202 54000 84070 333 56080 84360="}, {"year": 2026, "month": 7, "day": 23, "hour": 21, "minute": 0, "report": "AAXX 23214 87570 42460 70707 10130 20109 30172 40203 54000 87400 333 56200 87618="}, {"year": 2026, "month": 7, "day": 23, "hour": 20, "minute": 0, "report": "AAXX 23204 87570 42460 70906 10138 20108 30172 40203 57004 87400 333 56200 87618="}, {"year": 2026, "month": 7, "day": 23, "hour": 19, "minute": 0, "report": "AAXX 23194 87570 42460 70507 10148 20103 30170 40202 57013 87400 333 56100 87618="}, {"year": 2026, "month": 7, "day": 23, "hour": 18, "minute": 0, "report": "AAXX 23184 87570 12460 60507 10146 20100 30172 40203 57025 60001 86400 333 56100 86618="}, {"year": 2026, "month": 7, "day": 23, "hour": 17, "minute": 0, "report": "AAXX 23174 87570 42460 40509 10151 20093 30176 40208 57027 84400 333 56100 84618="}, {"year": 2026, "month": 7, "day": 23, "hour": 16, "minute": 0, "report": "AAXX 23164 87570 42460 20710 10148 20092 30184 40215 57019 82100 333 56200 82818="}, {"year": 2026, "month": 7, "day": 23, "hour": 15, "minute": 0, "report": "AAXX 23154 87570 42460 20510 10134 20091 30197 40229 57007 81101 333 56101 81818="}, {"year": 2026, "month": 7, "day": 23, "hour": 14, "minute": 0, "report": "AAXX 23144 87570 42960 10511 10130 20089 30202 40234 52004 80001 333 56001 81070="}, {"year": 2026, "month": 7, "day": 23, "hour": 13, "minute": 0, "report": "AAXX 23134 87570 42460 30709 10117 20087 30202 40234 58006 82705 333 56202 82715="}], "87576": [{"year": 2026, "month": 7, "day": 24, "hour": 13, "minute": 0, "report": "AAXX 24134 87576 42760 70507 10130 20117 30176 40199 53005 87070 333 56070 87550="}, {"year": 2026, "month": 7, "day": 24, "hour": 12, "minute": 0, "report": "AAXX 24124 87576 31760 80905 10120 20112 30174 40198 53011 70352 8807/ 333 10154 20112 56019 88556="}, {"year": 2026, "month": 7, "day": 24, "hour": 11, "minute": 0, "report": "AAXX 24114 87576 41660 70904 10119 20111 30169 40193 50004 70252 84570 333 56110 84635 87550="}, {"year": 2026, "month": 7, "day": 24, "hour": 10, "minute": 0, "report": "AAXX 24104 87576 41560 80505 10125 20112 30170 40194 55001 72052 85570 333 56110 85629 87550="}, {"year": 2026, "month": 7, "day": 24, "hour": 9, "minute": 0, "report": "AAXX 24094 87576 41458 80705 10126 20111 30164 40188 57009 75055 887// 333 56199 85714 88628="}, {"year": 2026, "month": 7, "day": 24, "hour": 8, "minute": 0, "report": "AAXX 24084 87576 41459 83602 10127 20114 30165 40189 57009 75155 887// 333 56199 85713 88624="}, {"year": 2026, "month": 7, "day": 24, "hour": 7, "minute": 0, "report": "AAXX 24074 87576 41258 80205 10131 20112 30172 40195 58003 75152 8657/ 333 56119 81706 86624 88550="}, {"year": 2026, "month": 7, "day": 24, "hour": 6, "minute": 0, "report": "AAXX 24064 87576 12660 80706 10130 20109 30173 40197 50000 60001 885// 333 56199 85636 88645="}, {"year": 2026, "month": 7, "day": 24, "hour": 5, "minute": 0, "report": "AAXX 24054 87576 42660 80907 10133 20112 30174 40198 51003 885// 333 56199 84640 88648="}, {"year": 2026, "month": 7, "day": 24, "hour": 4, "minute": 0, "report": "AAXX 24044 87576 42660 80704 10133 20109 30174 40198 52005 885// 333 56199 85638 88645="}, {"year": 2026, "month": 7, "day": 24, "hour": 3, "minute": 0, "report": "AAXX 24034 87576 42660 80504 10139 20105 30173 40197 53001 885// 333 56199 88646="}, {"year": 2026, "month": 7, "day": 24, "hour": 2, "minute": 0, "report": "AAXX 24024 87576 42660 80203 10141 20103 30172 40195 55000 885// 333 56199 84635 88645="}, {"year": 2026, "month": 7, "day": 24, "hour": 1, "minute": 0, "report": "AAXX 24014 87576 42560 70705 10136 20106 30169 40193 57005 86506 333 56102 82824 86641 87270="}, {"year": 2026, "month": 7, "day": 24, "hour": 0, "minute": 0, "report": "AAXX 24004 87576 12560 70705 10135 20109 30172 40196 56003 60001 85506 333 10159 20086 56101 85627 87270="}, {"year": 2026, "month": 7, "day": 23, "hour": 23, "minute": 0, "report": "AAXX 23234 87576 42560 60708 10131 20100 30172 40196 57004 84506 333 56101 84632 86270="}, {"year": 2026, "month": 7, "day": 23, "hour": 22, "minute": 0, "report": "AAXX 23224 87576 42560 70709 10134 20087 30174 40198 57004 87800 333 56800 83632 84842="}, {"year": 2026, "month": 7, "day": 23, "hour": 21, "minute": 0, "report": "AAXX 23214 87576 42560 80910 10138 20091 30174 40198 57004 85807 333 56806 82632 84845 88270="}, {"year": 2026, "month": 7, "day": 23, "hour": 20, "minute": 0, "report": "AAXX 23204 87576 42560 60708 10144 20098 30176 40200 57005 86800 333 56800 83630 85843="}, {"year": 2026, "month": 7, "day": 23, "hour": 19, "minute": 0, "report": "AAXX 23194 87576 42560 60509 10150 20092 30178 40202 57016 86800 333 56800 83632 84835="}, {"year": 2026, "month": 7, "day": 23, "hour": 18, "minute": 0, "report": "AAXX 23184 87576 12560 40509 10154 20088 30178 40202 57028 60001 84806 333 56807 82625 83838="}, {"year": 2026, "month": 7, "day": 23, "hour": 17, "minute": 0, "report": "AAXX 23174 87576 42960 30711 10146 20083 30181 40206 57025 81036 333 56066 81360 83270="}, {"year": 2026, "month": 7, "day": 23, "hour": 16, "minute": 0, "report": "AAXX 23164 87576 42960 30713 10146 20074 30194 40219 57013 82031 333 56066 82360="}, {"year": 2026, "month": 7, "day": 23, "hour": 15, "minute": 0, "report": "AAXX 23154 87576 42960 40513 10136 20071 30206 40231 56001 84030 333 56080 84360="}, {"year": 2026, "month": 7, "day": 23, "hour": 14, "minute": 0, "report": "AAXX 23144 87576 42460 50510 10130 20087 30206 40231 56001 82106 333 56808 82817 85270="}, {"year": 2026, "month": 7, "day": 23, "hour": 13, "minute": 0, "report": "AAXX 23134 87576 42960 50905 10106 20094 30208 40232 54000 80006 333 56008 85270="}], "87347": [{"year": 2026, "month": 7, "day": 24, "hour": 12, "minute": 0, "report": "AAXX 24124 87347 11330 42007 10055 20048 39600 40196 52030 69904 710// 84701 333 1//// 20045 56400 84708="}, {"year": 2026, "month": 7, "day": 24, "hour": 0, "minute": 0, "report": "AAXX 24004 87347 12960 50406 10097 20066 39565 40155 50004 60001 82076 333 1//// 20085 56000 82360 85270="}, {"year": 2026, "month": 7, "day": 23, "hour": 23, "minute": 0, "report": "AAXX 23234 87347 42960 50208 10105 20064 39570 40162 52012 82076 333 56000 82360 85270="}, {"year": 2026, "month": 7, "day": 23, "hour": 22, "minute": 0, "report": "AAXX 23224 87347 42960 50307 10110 20067 39564 40155 53001 82076 333 56000 82360 85270="}, {"year": 2026, "month": 7, "day": 23, "hour": 21, "minute": 0, "report": "AAXX 23214 87347 42660 50409 10118 20072 39561 40150 55007 81506 333 56100 81635 85270="}, {"year": 2026, "month": 7, "day": 23, "hour": 20, "minute": 0, "report": "AAXX 23204 87347 42560 60214 10121 20073 39558 40146 57013 82576 333 56100 82630 83360 86270="}, {"year": 2026, "month": 7, "day": 23, "hour": 19, "minute": 0, "report": "AAXX 23194 87347 42560 70311 10132 20073 39562 40149 57023 83576 333 56000 83625 83360 86270="}, {"year": 2026, "month": 7, "day": 23, "hour": 18, "minute": 0, "report": "AAXX 23184 87347 12560 70213 10131 20074 39568 40156 57029 60001 85506 333 56100 85625 86270="}, {"year": 2026, "month": 7, "day": 23, "hour": 17, "minute": 0, "report": "AAXX 23174 87347 42560 70213 10135 20072 39572 40159 57031 85506 333 56000 85620 86270="}, {"year": 2026, "month": 7, "day": 23, "hour": 16, "minute": 0, "report": "AAXX 23164 87347 42460 70212 10132 20070 39585 40174 57024 87600 333 56000 84712 86630="}, {"year": 2026, "month": 7, "day": 23, "hour": 15, "minute": 0, "report": "AAXX 23154 87347 42460 70311 10115 20075 39597 40188 57015 87600 333 56100 83710 87630="}, {"year": 2026, "month": 7, "day": 23, "hour": 14, "minute": 0, "report": "AAXX 23144 87347 42460 80309 10098 20069 39602 40196 57010 886// 333 56199 85710 87630="}, {"year": 2026, "month": 7, "day": 23, "hour": 13, "minute": 0, "report": "AAXX 23134 87347 42460 80207 10091 20066 39609 40203 58001 886// 333 56099 84715 87625="}], "87097": [{"year": 2026, "month": 7, "day": 24, "hour": 13, "minute": 0, "report": "AAXX 24134 87097 41150 81103 10166 20164 39857 40175 53017 72052 887// 333 56099 84702 86710 88645 96010="}, {"year": 2026, "month": 7, "day": 24, "hour": 12, "minute": 0, "report": "AAXX 24124 87097 01110 80903 10155 20155 39850 40168 53016 69904 75052 887// 333 10197 20134 56099 69901 85702 88710 96010="}, {"year": 2026, "month": 7, "day": 24, "hour": 11, "minute": 0, "report": "AAXX 24114 87097 41112 80906 10152 20152 39846 40163 52016 75352 887// 333 56599 82702 88710 96010="}, {"year": 2026, "month": 7, "day": 24, "hour": 10, "minute": 0, "report": "AAXX 24104 87097 42460 80704 10154 20152 39840 40156 52011 886// 333 56899 88716="}, {"year": 2026, "month": 7, "day": 24, "hour": 9, "minute": 0, "report": "AAXX 24094 87097 42460 814021 10151 20149 39834 40151 55000 885// 333 56799 88617="}, {"year": 2026, "month": 7, "day": 24, "hour": 8, "minute": 0, "report": "AAXX 24084 87097 42560 80904 10151 20148 39830 40146 55005 885// 333 56299 82623 88647="}, {"year": 2026, "month": 7, "day": 24, "hour": 7, "minute": 0, "report": "AAXX 24074 87097 42960 80904 10148 20145 39829 40144 57009 8807/ 333 56019 88360="}, {"year": 2026, "month": 7, "day": 24, "hour": 6, "minute": 0, "report": "AAXX 24064 87097 12970 30903 10141 20137 39834 40150 57008 60001 83030 333 56070 83360="}, {"year": 2026, "month": 7, "day": 24, "hour": 5, "minute": 0, "report": "AAXX 24054 87097 42970 30902 10142 20138 39836 40152 57007 83030 333 56080 83360="}, {"year": 2026, "month": 7, "day": 24, "hour": 4, "minute": 0, "report": "AAXX 24044 87097 42260 40902 10144 20140 39838 40154 58006 81670 333 56770 81704 83360="}, {"year": 2026, "month": 7, "day": 24, "hour": 3, "minute": 0, "report": "AAXX 24034 87097 42970 52303 10148 20145 39842 40160 50000 85050 333 56070 85360="}, {"year": 2026, "month": 7, "day": 24, "hour": 2, "minute": 0, "report": "AAXX 24024 87097 42970 52303 10154 20151 39842 40160 50003 85050 333 56070 85360="}, {"year": 2026, "month": 7, "day": 24, "hour": 1, "minute": 0, "report": "AAXX 24014 87097 42970 52308 10156 20151 39844 40161 52001 85050 333 56070 85360="}, {"year": 2026, "month": 7, "day": 24, "hour": 0, "minute": 0, "report": "AAXX 24004 87097 12970 32304 10162 20155 39842 40160 52001 60001 83030 333 10222 20155 56070 83360="}, {"year": 2026, "month": 7, "day": 23, "hour": 23, "minute": 0, "report": "AAXX 23234 87097 42970 52503 10174 20154 39840 40157 50005 85070 333 56070 85360="}, {"year": 2026, "month": 7, "day": 23, "hour": 22, "minute": 0, "report": "AAXX 23224 87097 42670 62704 10180 20155 39842 40160 51011 83530 333 56180 83645 83360="}, {"year": 2026, "month": 7, "day": 23, "hour": 21, "minute": 0, "report": "AAXX 23214 87097 42570 40000 10195 20162 39841 40157 53003 84800 333 56100 81620 83849="}, {"year": 2026, "month": 7, "day": 23, "hour": 20, "minute": 0, "report": "AAXX 23204 87097 42470 62704 10212 20152 39834 40150 55008 84806 333 56801 81616 83837="}, {"year": 2026, "month": 7, "day": 23, "hour": 19, "minute": 0, "report": "AAXX 23194 87097 42570 63204 10215 20138 39832 40146 55020 83806 333 56807 81621 83836="}, {"year": 2026, "month": 7, "day": 23, "hour": 18, "minute": 0, "report": "AAXX 23184 87097 12470 70000 10206 20145 39838 40153 55020 60001 87800 333 56800 84618 86839="}, {"year": 2026, "month": 7, "day": 23, "hour": 17, "minute": 0, "report": "AAXX 23174 87097 42470 83202 10202 20144 39842 40158 58021 888// 333 56799 83617 85627 88834="}, {"year": 2026, "month": 7, "day": 23, "hour": 16, "minute": 0, "report": "AAXX 23164 87097 42470 82002 10196 20147 39852 40168 58015 888// 333 56499 84618 88827="}, {"year": 2026, "month": 7, "day": 23, "hour": 15, "minute": 0, "report": "AAXX 23154 87097 42470 72007 10185 20142 39858 40175 58005 87500 333 56400 84616 85620="}, {"year": 2026, "month": 7, "day": 23, "hour": 14, "minute": 0, "report": "AAXX 23144 87097 42470 51403 10174 20136 39864 40181 50003 85500 333 56400 85615="}, {"year": 2026, "month": 7, "day": 23, "hour": 13, "minute": 0, "report": "AAXX 23134 87097 42470 62005 10171 20152 39866 40183 50012 84606 333 56406 83710 83615="}], "87322": [{"year": 2026, "month": 7, "day": 24, "hour": 12, "minute": 0, "report": "AAXX 24123 87322 32965 23602 10052 20038 39424 40188 5//// 81034 333 10088 20045 56045 81360="}, {"year": 2026, "month": 7, "day": 24, "hour": 0, "minute": 0, "report": "AAXX 24003 87322 12965 30505 10088 20054 39380 40137 5//// 60001 82034 333 10135 20082 56056 82360="}, {"year": 2026, "month": 7, "day": 23, "hour": 18, "minute": 0, "report": "AAXX 23183 87322 12665 50505 10128 20063 39385 4//// 5//// 60001 82524 333 56772 82645 83560="}], "87534": [{"year": 2026, "month": 7, "day": 24, "hour": 13, "minute": 0, "report": "AAXX 24134 87534 41420 73202 10087 20072 30033 40200 52019 72842 87500 333 56800 87617="}, {"year": 2026, "month": 7, "day": 24, "hour": 12, "minute": 0, "report": "AAXX 24124 87534 31408 70000 10067 20037 30030 40197 52032 74241 87500 333 10110 20045 56800 87617="}, {"year": 2026, "month": 7, "day": 24, "hour": 11, "minute": 0, "report": "AAXX 24114 87534 41301 80000 10063 20052 30025 40192 5//// 74441 886// 333 56899 88708="}, {"year": 2026, "month": 7, "day": 24, "hour": 10, "minute": 0, "report": "AAXX 24104 87534 41901 00000 10053 20046 30014 40181 5//// 74440="}, {"year": 2026, "month": 7, "day": 24, "hour": 9, "minute": 0, "report": "AAXX 24094 87534 41903 00000 10053 20046 39998 40165 5//// 74440="}, {"year": 2026, "month": 7, "day": 24, "hour": 0, "minute": 0, "report": "AAXX 24003 87534 12560 70513 10108 20075 39992 40159 55001 60001 85576 333 10131 20063 56166 85620 84360="}, {"year": 2026, "month": 7, "day": 23, "hour": 23, "minute": 0, "report": "AAXX 23233 87534 42560 70508 10109 20074 39990 40157 56003 83576 333 56155 83620 85360="}, {"year": 2026, "month": 7, "day": 23, "hour": 22, "minute": 0, "report": "AAXX 23223 87534 42560 80508 10117 20074 39990 40156 57005 8657/ 333 56159 86620 85360="}, {"year": 2026, "month": 7, "day": 23, "hour": 21, "minute": 0, "report": "AAXX 23213 87534 42560 80508 10125 20074 39993 40159 56004 8657/ 333 56169 86620 85360="}, {"year": 2026, "month": 7, "day": 23, "hour": 20, "minute": 0, "report": "AAXX 23203 87534 42560 80513 10128 20080 39993 40158 57009 8657/ 333 56169 86620 84360="}, {"year": 2026, "month": 7, "day": 23, "hour": 19, "minute": 0, "report": "AAXX 23193 87534 42560 80518 10131 20072 39996 40162 56025 8757/ 333 56069 87620 84360="}, {"year": 2026, "month": 7, "day": 23, "hour": 18, "minute": 0, "report": "AAXX 23183 87534 12560 80518 10126 20068 39997 40163 57029 60001 86576 333 56166 86620 84360="}, {"year": 2026, "month": 7, "day": 23, "hour": 17, "minute": 0, "report": "AAXX 23173 87534 42560 80518 10121 20079 30002 40169 58023 86576 333 56166 86620 84270="}, {"year": 2026, "month": 7, "day": 23, "hour": 16, "minute": 0, "report": "AAXX 23163 87534 42560 70513 10125 20076 30021 40188 58004 87506 333 56106 87620 85270="}, {"year": 2026, "month": 7, "day": 23, "hour": 15, "minute": 0, "report": "AAXX 23153 87534 42560 70518 10121 20079 30026 40193 53001 87506 333 56106 87620 86270="}, {"year": 2026, "month": 7, "day": 23, "hour": 14, "minute": 0, "report": "AAXX 23143 87534 41459 60518 10111 20076 30025 40192 54000 71022 84506 333 56106 84615 86270="}, {"year": 2026, "month": 7, "day": 23, "hour": 13, "minute": 0, "report": "AAXX 23133 87534 41256 60513 10091 20076 30025 40192 54000 71011 82706 333 56106 82705 86270="}], "87374": [{"year": 2026, "month": 7, "day": 24, "hour": 13, "minute": 0, "report": "AAXX 24134 87374 41256 81803 10126 20122 30106 40195 52025 71041 8467/ 333 56479 84706 86360 96028="}, {"year": 2026, "month": 7, "day": 24, "hour": 12, "minute": 0, "report": "AAXX 24124 87374 31902 73602 10108 20106 30090 40180 52012 74441 87070 333 10136 20105 56070 87360="}, {"year": 2026, "month": 7, "day": 24, "hour": 11, "minute": 0, "report": "AAXX 24114 87374 41902 80000 10106 20106 30089 40179 53009 74644 8807/ 333 56079 88360="}, {"year": 2026, "month": 7, "day": 24, "hour": 10, "minute": 0, "report": "AAXX 24104 87374 41504 31603 10105 20103 30081 40170 52003 74640 83500 333 56400 83625="}, {"year": 2026, "month": 7, "day": 24, "hour": 9, "minute": 0, "report": "AAXX 24094 87374 41550 30000 10105 20101 30078 40167 57003 71000 83500 333 56100 83625="}, {"year": 2026, "month": 7, "day": 24, "hour": 8, "minute": 0, "report": "AAXX 24084 87374 42565 40000 10112 20108 30080 40169 55007 84500 333 56100 84625="}, {"year": 2026, "month": 7, "day": 24, "hour": 7, "minute": 0, "report": "AAXX 24074 87374 42565 33202 10116 20110 30078 40168 57009 83500 333 56200 83625="}, {"year": 2026, "month": 7, "day": 24, "hour": 6, "minute": 0, "report": "AAXX 24064 87374 12565 60702 10122 20115 30081 40170 50001 60001 86500 333 56100 86625="}, {"year": 2026, "month": 7, "day": 24, "hour": 5, "minute": 0, "report": "AAXX 24054 87374 42565 80000 10125 20118 30086 40176 52003 885// 333 56199 88625="}, {"year": 2026, "month": 7, "day": 24, "hour": 4, "minute": 0, "report": "AAXX 24044 87374 42565 53403 10121 20113 30088 40177 52004 85500 333 56800 85625="}, {"year": 2026, "month": 7, "day": 24, "hour": 3, "minute": 0, "report": "AAXX 24034 87374 42565 30405 10127 20114 30080 40169 57001 83500 333 56100 83625="}, {"year": 2026, "month": 7, "day": 24, "hour": 2, "minute": 0, "report": "AAXX 24024 87374 42565 80204 10135 20113 30084 40173 57003 885// 333 56199 88625="}, {"year": 2026, "month": 7, "day": 24, "hour": 1, "minute": 0, "report": "AAXX 24014 87374 42565 73604 10136 20112 30084 40173 52001 87500 333 56100 87620="}, {"year": 2026, "month": 7, "day": 24, "hour": 0, "minute": 0, "report": "AAXX 24004 87374 12565 70405 10136 20110 30081 40170 57003 60001 87500 333 10150 20110 56100 87620="}, {"year": 2026, "month": 7, "day": 23, "hour": 23, "minute": 0, "report": "AAXX 23234 87374 42465 80304 10138 20112 30086 40176 52004 885// 333 56199 88618="}, {"year": 2026, "month": 7, "day": 23, "hour": 22, "minute": 0, "report": "AAXX 23224 87374 42465 80304 10142 20104 30082 40171 54000 885// 333 56899 88618="}, {"year": 2026, "month": 7, "day": 23, "hour": 21, "minute": 0, "report": "AAXX 23214 87374 42465 80205 10146 20109 30084 40173 55004 885// 333 56899 88618="}, {"year": 2026, "month": 7, "day": 23, "hour": 20, "minute": 0, "report": "AAXX 23204 87374 42465 83607 10146 20109 30082 40171 56012 885// 333 56899 88616="}, {"year": 2026, "month": 7, "day": 23, "hour": 19, "minute": 0, "report": "AAXX 23194 87374 42365 83610 10148 20107 30082 40172 57024 886// 333 56899 83708 88616="}, {"year": 2026, "month": 7, "day": 23, "hour": 18, "minute": 0, "report": "AAXX 23184 87374 12365 83609 10146 20109 30088 40177 57020 60001 886// 333 56899 85707 88614="}, {"year": 2026, "month": 7, "day": 23, "hour": 17, "minute": 0, "report": "AAXX 23174 87374 42365 80109 10140 20104 30094 40183 57021 886// 333 56899 85707 88710="}, {"year": 2026, "month": 7, "day": 23, "hour": 16, "minute": 0, "report": "AAXX 23164 87374 42365 80210 10138 20102 30106 40196 58008 886// 333 56899 86707 88610="}, {"year": 2026, "month": 7, "day": 23, "hour": 15, "minute": 0, "report": "AAXX 23154 87374 42265 80411 10135 20101 30108 40198 58003 886// 333 56199 87706 88708="}, {"year": 2026, "month": 7, "day": 23, "hour": 14, "minute": 0, "report": "AAXX 23144 87374 42265 80610 10128 20111 30116 40206 53003 886// 333 56299 84705 86708 88612="}, {"year": 2026, "month": 7, "day": 23, "hour": 13, "minute": 0, "report": "AAXX 23134 87374 41259 80609 10117 20104 30114 40205 53001 71022 886// 333 56299 86705 87707="}], "87121": [{"year": 2026, "month": 7, "day": 24, "hour": 13, "minute": 0, "report": "AAXX 24134 87121 41658 29903 10129 20093 39650 40177 51020 71000 82500 333 56400 82640="}, {"year": 2026, "month": 7, "day": 24, "hour": 12, "minute": 0, "report": "AAXX 24124 87121 31657 33404 10101 20089 39648 40177 51023 71011 83500 333 10112 20094 56400 83640="}, {"year": 2026, "month": 7, "day": 24, "hour": 11, "minute": 0, "report": "AAXX 24114 87121 41650 73404 10099 20091 39641 40170 53019 71022 87500 333 56300 87640="}, {"year": 2026, "month": 7, "day": 24, "hour": 10, "minute": 0, "report": "AAXX 24104 87121 41658 83603 10100 20090 39630 40158 52013 71022 885// 333 56799 88639 96004="}, {"year": 2026, "month": 7, "day": 24, "hour": 9, "minute": 0, "report": "AAXX 24094 87121 41658 83603 10102 20092 39625 40152 53007 71022 885// 333 56799 88638 96004="}, {"year": 2026, "month": 7, "day": 24, "hour": 8, "minute": 0, "report": "AAXX 24084 87121 41558 83202 10101 20093 39622 40149 53004 71022 885// 333 56799 82633 88638="}, {"year": 2026, "month": 7, "day": 24, "hour": 7, "minute": 0, "report": "AAXX 24074 87121 41658 82502 10100 20094 39617 40143 58008 71022 885// 333 56799 88639 96004="}, {"year": 2026, "month": 7, "day": 24, "hour": 6, "minute": 0, "report": "AAXX 24064 87121 11658 82702 10099 20091 39618 40145 56008 60001 71022 885// 333 56799 88640 96004="}, {"year": 2026, "month": 7, "day": 24, "hour": 5, "minute": 0, "report": "AAXX 24054 87121 41658 81402 10100 20090 39618 40145 58005 71022 885// 333 56799 88640 96004="}, {"year": 2026, "month": 7, "day": 24, "hour": 4, "minute": 0, "report": "AAXX 24044 87121 41658 83202 10101 20093 39625 40152 50004 71022 885// 333 56799 88640 96004="}, {"year": 2026, "month": 7, "day": 24, "hour": 3, "minute": 0, "report": "AAXX 24034 87121 41658 82302 10102 20094 39626 40154 55001 71022 885// 333 56799 88640="}, {"year": 2026, "month": 7, "day": 24, "hour": 2, "minute": 0, "report": "AAXX 24024 87121 41658 82302 10103 20093 39624 40151 55003 71022 885// 333 56799 88640 96004="}, {"year": 2026, "month": 7, "day": 24, "hour": 1, "minute": 0, "report": "AAXX 24014 87121 41658 82702 10104 20092 39621 40148 58003 71022 885// 333 56799 88640 96004="}, {"year": 2026, "month": 7, "day": 24, "hour": 0, "minute": 0, "report": "AAXX 24004 87121 11658 82303 10103 20091 39628 40157 52007 60001 71022 885// 333 10133 20097 56799 88640="}, {"year": 2026, "month": 7, "day": 23, "hour": 23, "minute": 0, "report": "AAXX 23234 87121 41458 82903 10105 20091 39626 40154 52008 71022 885// 333 56799 82716 88637 96004="}, {"year": 2026, "month": 7, "day": 23, "hour": 22, "minute": 0, "report": "AAXX 23224 87121 41558 82304 10111 20090 39624 40152 53005 71022 885// 333 56499 82620 88634="}, {"year": 2026, "month": 7, "day": 23, "hour": 21, "minute": 0, "report": "AAXX 23214 87121 41558 82305 10115 20090 39621 40148 56005 71022 887// 333 56499 88620="}, {"year": 2026, "month": 7, "day": 23, "hour": 20, "minute": 0, "report": "AAXX 23204 87121 41458 82304 10119 20088 39618 40144 56020 71022 887// 333 56499 86717 88627="}, {"year": 2026, "month": 7, "day": 23, "hour": 19, "minute": 0, "report": "AAXX 23194 87121 41458 89902 10119 20086 39618 40145 57029 71022 887// 333 56499 86717 88627="}, {"year": 2026, "month": 7, "day": 23, "hour": 18, "minute": 0, "report": "AAXX 23184 87121 11458 82303 10119 20088 39626 40153 57029 60001 71022 887// 333 56499 86717 88627="}, {"year": 2026, "month": 7, "day": 23, "hour": 17, "minute": 0, "report": "AAXX 23174 87121 41458 82703 10121 20088 39638 40165 57023 71022 887// 333 56499 83713 85623 88635="}, {"year": 2026, "month": 7, "day": 23, "hour": 16, "minute": 0, "report": "AAXX 23164 87121 41558 82703 10115 20086 39648 40176 56011 71022 885// 333 56499 85622 88645="}, {"year": 2026, "month": 7, "day": 23, "hour": 15, "minute": 0, "report": "AAXX 23154 87121 41558 82504 10111 20090 39656 40184 58009 71022 885// 333 56499 85624 88645="}, {"year": 2026, "month": 7, "day": 23, "hour": 14, "minute": 0, "report": "AAXX 23144 87121 42660 82705 10115 20082 39661 40189 53005 885// 333 56499 88642="}, {"year": 2026, "month": 7, "day": 23, "hour": 13, "minute": 0, "report": "AAXX 23134 87121 42660 80706 10105 20079 39658 40187 50003 885// 333 56499 88637="}], "87823": [{"year": 2026, "month": 7, "day": 24, "hour": 13, "minute": 0, "report": "AAXX 24134 87823 42980 32908 10040 20020 39954 40122 52013 82075 333 56000 82360="}, {"year": 2026, "month": 7, "day": 24, "hour": 12, "minute": 0, "report": "AAXX 24124 87823 12580 32707 10019 20011 39952 40119 52020 69994 81505 333 1082 20013 56300 81620="}, {"year": 2026, "month": 7, "day": 24, "hour": 11, "minute": 0, "report": "AAXX 24114 87823 42580 32708 10015 20001 39945 40112 52028 81505 333 56200 81620="}, {"year": 2026, "month": 7, "day": 24, "hour": 10, "minute": 0, "report": "AAXX 24104 87823 42580 42706 10022 20006 39941 40108 52021 82505 333 56300 82620 83270="}, {"year": 2026, "month": 7, "day": 24, "hour": 9, "minute": 0, "report": "AAXX 24094 87823 42580 42708 10034 20019 39932 40098 52017 82505 333 56300 82620 83270="}, {"year": 2026, "month": 7, "day": 24, "hour": 2, "minute": 0, "report": "AAXX 24024 87823 42580 73215 10081 20052 39920 40086 52004 84520 333 56000 84620 87560="}, {"year": 2026, "month": 7, "day": 24, "hour": 1, "minute": 0, "report": "AAXX 24014 87823 42580 73217 10082 20053 39918 40085 50004 84520 333 56000 84620 87560="}, {"year": 2026, "month": 7, "day": 24, "hour": 0, "minute": 0, "report": "AAXX 24004 87823 11580 73216 10080 20053 39920 40086 55003 69991 70262 84520 333 10085 20040 56000 84620 87560="}, {"year": 2026, "month": 7, "day": 23, "hour": 23, "minute": 0, "report": "AAXX 23234 87823 42580 73417 10082 20058 39916 40082 57011 84520 333 56000 84620 87560="}, {"year": 2026, "month": 7, "day": 23, "hour": 22, "minute": 0, "report": "AAXX 23224 87823 41580 73415 10082 20065 39914 40081 57012 70262 84520 333 56000 84620 87560="}, {"year": 2026, "month": 7, "day": 23, "hour": 21, "minute": 0, "report": "AAXX 23214 87823 41580 73417 10085 20066 39922 40089 57013 72162 84720 333 56000 82715 84620 87550="}, {"year": 2026, "month": 7, "day": 23, "hour": 20, "minute": 0, "report": "AAXX 23204 87823 41556 83316 10079 20066 39926 40093 56016 76362 8472/ 333 56009 84720 88560="}, {"year": 2026, "month": 7, "day": 23, "hour": 19, "minute": 0, "report": "AAXX 23194 87823 42580 83413 10085 20059 39926 40093 57024 8652/ 333 56009 86625 88560="}, {"year": 2026, "month": 7, "day": 23, "hour": 18, "minute": 0, "report": "AAXX 23184 87823 11580 73417 10085 20052 39936 40102 57023 69901 72162 86520 333 56000 86625 87560="}, {"year": 2026, "month": 7, "day": 23, "hour": 17, "minute": 0, "report": "AAXX 23174 87823 42580 83415 10083 20054 39942 40110 57020 8552/ 333 56009 85625="}, {"year": 2026, "month": 7, "day": 23, "hour": 16, "minute": 0, "report": "AAXX 23164 87823 41580 83415 10077 20053 39950 40117 57020 70262 8552/ 333 56009 85265="}, {"year": 2026, "month": 7, "day": 23, "hour": 15, "minute": 0, "report": "AAXX 23154 87823 41580 83614 10068 20050 39958 40126 58008 72162 8452/ 333 56009 84620 88545="}, {"year": 2026, "month": 7, "day": 23, "hour": 14, "minute": 0, "report": "AAXX 23144 87823 41570 83610 10062 20044 39962 40129 58003 76062 8352/ 333 56009 83625 88545="}, {"year": 2026, "month": 7, "day": 23, "hour": 13, "minute": 0, "report": "AAXX 23134 87823 41570 83408 10055 20043 39970 40139 53003 76062 83526 333 56000 85545="}], "87420": [{"year": 2026, "month": 7, "day": 24, "hour": 13, "minute": 0, "report": "AAXX 24134 87420 42565 20000 10082 20043 39221 48490 52015 81706 333 56606 81725="}, {"year": 2026, "month": 7, "day": 24, "hour": 12, "minute": 0, "report": "AAXX 24124 87420 32565 32603 10040 20021 39214 48480 53008 81706 333 10062 20030 30000 56606 81725 83270="}, {"year": 2026, "month": 7, "day": 24, "hour": 11, "minute": 0, "report": "AAXX 24114 87420 42965 00000 10038 20029 39212 48479 5////="}, {"year": 2026, "month": 7, "day": 24, "hour": 10, "minute": 0, "report": "AAXX 24104 87420 42965 02703 10038 20029 39206 48474 5////="}, {"year": 2026, "month": 7, "day": 24, "hour": 9, "minute": 0, "report": "AAXX 24094 87420 42965 02404 10034 20027 39206 48477 5////="}, {"year": 2026, "month": 7, "day": 24, "hour": 0, "minute": 0, "report": "AAXX 24004 87420 12965 02503 10059 20044 39174 48445 52019 60001 333 10119 20048="}, {"year": 2026, "month": 7, "day": 23, "hour": 23, "minute": 0, "report": "AAXX 23234 87420 42965 02503 10065 20048 39170 48443 52019="}, {"year": 2026, "month": 7, "day": 23, "hour": 22, "minute": 0, "report": "AAXX 23224 87420 42965 12503 10074 20053 39157 48432 53003 80008 333 56006 81270="}, {"year": 2026, "month": 7, "day": 23, "hour": 21, "minute": 0, "report": "AAXX 23214 87420 42965 10000 10101 20058 39156 48434 55008 81058 333 56066 81360="}, {"year": 2026, "month": 7, "day": 23, "hour": 20, "minute": 0, "report": "AAXX 23204 87420 42965 20903 10112 20053 39152 48432 57019 81058 333 56066 81360="}, {"year": 2026, "month": 7, "day": 23, "hour": 19, "minute": 0, "report": "AAXX 23194 87420 42965 20000 10115 20056 39154 48434 57021 81058 333 56060 81360="}, {"year": 2026, "month": 7, "day": 23, "hour": 18, "minute": 0, "report": "AAXX 23184 87420 12465 60000 10102 20048 39164 48442 57013 60001 85550 333 56000 85615="}, {"year": 2026, "month": 7, "day": 23, "hour": 17, "minute": 0, "report": "AAXX 23174 87420 42465 80000 10090 20068 39170 48446 57009 887// 333 56099 88715="}, {"year": 2026, "month": 7, "day": 23, "hour": 16, "minute": 0, "report": "AAXX 23164 87420 42465 80904 10089 20049 39176 48451 56004 887// 333 56099 88715 90105="}, {"year": 2026, "month": 7, "day": 23, "hour": 15, "minute": 0, "report": "AAXX 23154 87420 42458 70000 10081 20045 39177 48450 58001 71022 87700 333 56000 87715 90037="}, {"year": 2026, "month": 7, "day": 23, "hour": 14, "minute": 0, "report": "AAXX 23144 87420 42458 71103 10078 20048 39180 48452 55001 71022 87500 333 56000 87615 90027="}, {"year": 2026, "month": 7, "day": 23, "hour": 13, "minute": 0, "report": "AAXX 23134 87420 41460 70000 10061 20046 39180 48451 52003 71022 87700 333 56000 87715 90017="}], "87582": [{"year": 2026, "month": 7, "day": 24, "hour": 13, "minute": 0, "report": "AAXX 24134 87582 42460 80305 10135 20109 30196 40202 53008 8467/ 333 56159 84710 88557="}, {"year": 2026, "month": 7, "day": 24, "hour": 12, "minute": 0, "report": "AAXX 24124 87582 01460 80406 10133 20109 30192 40199 52009 69904 70362 886// 333 10145 20123 30011 56199 69901 82712 88650="}, {"year": 2026, "month": 7, "day": 24, "hour": 11, "minute": 0, "report": "AAXX 24114 87582 42460 70305 10130 20103 30188 40195 51008 87600 333 56800 82712 87648="}, {"year": 2026, "month": 7, "day": 24, "hour": 10, "minute": 0, "report": "AAXX 24104 87582 42460 83607 10132 20107 30188 40194 55000 886// 333 56899 84713 88635="}, {"year": 2026, "month": 7, "day": 24, "hour": 9, "minute": 0, "report": "AAXX 24094 87582 41460 80207 10132 20105 30182 40189 55005 70262 886// 333 56899 85713 88628="}, {"year": 2026, "month": 7, "day": 24, "hour": 8, "minute": 0, "report": "AAXX 24084 87582 41458 80308 10131 20112 30180 40186 58012 72165 886// 333 56199 82713 85725 88632 96050="}, {"year": 2026, "month": 7, "day": 24, "hour": 7, "minute": 0, "report": "AAXX 24074 87582 41460 80307 10134 20112 30118 40194 58004 76062 886// 333 56199 88718="}, {"year": 2026, "month": 7, "day": 24, "hour": 6, "minute": 0, "report": "AAXX 24064 87582 12560 80610 10134 20112 30188 40195 58001 60001 886// 333 56199 82728 85639 88845="}, {"year": 2026, "month": 7, "day": 24, "hour": 5, "minute": 0, "report": "AAXX 24054 87582 42660 80608 10137 20115 30192 40198 51003 886// 333 56199 82740 88644="}, {"year": 2026, "month": 7, "day": 24, "hour": 4, "minute": 0, "report": "AAXX 24044 87582 42660 80506 10141 20113 30192 40198 52004 886// 333 56199 82734 85639 88845="}, {"year": 2026, "month": 7, "day": 24, "hour": 3, "minute": 0, "report": "AAXX 24034 87582 42660 80406 10140 20118 30189 40196 55000 885// 333 56199 84637 88845="}, {"year": 2026, "month": 7, "day": 24, "hour": 2, "minute": 0, "report": "AAXX 24024 87582 42660 80306 10140 20116 30189 40196 55001 885// 333 56199 83637 88843="}, {"year": 2026, "month": 7, "day": 24, "hour": 1, "minute": 0, "report": "AAXX 24014 87582 42660 80206 10140 20112 30188 40194 57004 881// 333 56199 82634 88841="}, {"year": 2026, "month": 7, "day": 24, "hour": 0, "minute": 0, "report": "AAXX 24004 87582 12560 70208 10140 20108 30189 40196 57004 60001 86506 333 10140 20105 56806 82628 86843 86270="}, {"year": 2026, "month": 7, "day": 23, "hour": 23, "minute": 0, "report": "AAXX 23234 87582 42660 70108 10139 20105 30190 40197 58004 86106 333 56106 86843 86270="}, {"year": 2026, "month": 7, "day": 23, "hour": 22, "minute": 0, "report": "AAXX 23224 87582 42560 60808 10133 20118 30192 40199 56004 86576 333 56866 82723 86631="}, {"year": 2026, "month": 7, "day": 23, "hour": 21, "minute": 0, "report": "AAXX 23214 87582 42460 61011 10131 20110 30193 40200 58003 86506 333 56706 82719 86629="}, {"year": 2026, "month": 7, "day": 23, "hour": 20, "minute": 0, "report": "AAXX 23204 87582 42560 71110 10132 20105 30194 40201 56005 87500 333 56700 84631 87648="}, {"year": 2026, "month": 7, "day": 23, "hour": 19, "minute": 0, "report": "AAXX 23194 87582 42560 71109 10132 20105 30196 40202 55016 87600 333 56800 82726 87640="}, {"year": 2026, "month": 7, "day": 23, "hour": 18, "minute": 0, "report": "AAXX 23184 87582 12560 61010 10130 20105 30196 40202 56031 60001 85506 333 56807 85629 84270="}, {"year": 2026, "month": 7, "day": 23, "hour": 17, "minute": 0, "report": "AAXX 23174 87582 42560 31008 10126 20103 30200 40207 57032 81176 333 56877 81820 83270="}, {"year": 2026, "month": 7, "day": 23, "hour": 16, "minute": 0, "report": "AAXX 23164 87582 42460 40709 10130 20099 30212 40219 58012 81676 333 56177 81710 83270="}, {"year": 2026, "month": 7, "day": 23, "hour": 15, "minute": 0, "report": "AAXX 23154 87582 42360 60707 10122 20095 30226 40233 54000 83636 333 56177 83707 85270="}, {"year": 2026, "month": 7, "day": 23, "hour": 14, "minute": 0, "report": "AAXX 23144 87582 42260 50808 10116 20098 30232 40238 53005 84606 333 56107 84706 84270="}, {"year": 2026, "month": 7, "day": 23, "hour": 13, "minute": 0, "report": "AAXX 23134 87582 42360 60808 10110 20098 30224 40231 50000 84606 333 56107 84707 85270="}], "87719": [{"year": 2026, "month": 7, "day": 24, "hour": 12, "minute": 0, "report": "AAXX 24123 87719 32975 13601 10015 20006 39851 40175 52010 81030 333 10086 20010 56060 81360="}, {"year": 2026, "month": 7, "day": 24, "hour": 0, "minute": 0, "report": "AAXX 24003 87719 12975 23203 10086 20051 39804 40123 54000 60001 82030 333 10116 20070 56060 82360="}, {"year": 2026, "month": 7, "day": 23, "hour": 18, "minute": 0, "report": "AAXX 23183 87719 11775 83605 10095 20046 39792 40109 57004 69901 71452 88076 333 56076 88360="}], "87178": [{"year": 2026, "month": 7, "day": 24, "hour": 13, "minute": 0, "report": "AAXX 24134 87178 42570 81403 10155 20141 30026 40176 52020 885// 333 56799 88628="}, {"year": 2026, "month": 7, "day": 24, "hour": 12, "minute": 0, "report": "AAXX 24124 87178 12570 81403 10150 20136 30014 40164 53015 69904 8557/ 333 10152 20124 30011 56779 85628 88360="}, {"year": 2026, "month": 7, "day": 24, "hour": 11, "minute": 0, "report": "AAXX 24114 87178 42570 60906 10143 20132 30005 40154 50008 84570 333 56770 84628 86360="}, {"year": 2026, "month": 7, "day": 24, "hour": 10, "minute": 0, "report": "AAXX 24104 87178 42570 71103 10143 20132 30006 40156 53007 82570 333 56660 82625 87360="}, {"year": 2026, "month": 7, "day": 24, "hour": 9, "minute": 0, "report": "AAXX 24094 87178 42570 70904 10143 20138 30000 40148 55004 81570 333 56760 81625 87360="}, {"year": 2026, "month": 7, "day": 24, "hour": 8, "minute": 0, "report": "AAXX 24084 87178 42570 71105 10141 20136 39997 40145 57012 81570 333 56760 81625 87360="}, {"year": 2026, "month": 7, "day": 24, "hour": 7, "minute": 0, "report": "AAXX 24074 87178 42570 71405 10138 20129 30000 40148 57012 82570 333 56760 82625 87360="}, {"year": 2026, "month": 7, "day": 24, "hour": 6, "minute": 0, "report": "AAXX 24064 87178 12970 11102 10131 20127 30004 40153 57012 60001 81070 333 56060 81360="}, {"year": 2026, "month": 7, "day": 24, "hour": 5, "minute": 0, "report": "AAXX 24054 87178 42970 01403 10139 20132 30009 40158 57008="}, {"year": 2026, "month": 7, "day": 24, "hour": 4, "minute": 0, "report": "AAXX 24044 87178 42970 01405 10144 20135 30012 40161 57011="}, {"year": 2026, "month": 7, "day": 24, "hour": 3, "minute": 0, "report": "AAXX 24034 87178 42570 31603 10145 20136 30016 40165 50001 83500 333 56400 83625="}, {"year": 2026, "month": 7, "day": 24, "hour": 2, "minute": 0, "report": "AAXX 24024 87178 42570 71040 10149 20137 30017 40166 55001 87570 333 56450 87625="}, {"year": 2026, "month": 7, "day": 24, "hour": 1, "minute": 0, "report": "AAXX 24014 87178 42570 72302 10149 20137 30022 40172 53004 87570 333 56540 87625 10179="}, {"year": 2026, "month": 7, "day": 24, "hour": 0, "minute": 0, "report": "AAXX 24004 87178 22570 41603 10149 20133 30014 40163 58004 83570 333 10177 20134 56440 60005 83625=="}, {"year": 2026, "month": 7, "day": 23, "hour": 23, "minute": 0, "report": "AAXX 23234 87178 42570 41404 10155 20139 30018 40167 52003 83570="}, {"year": 2026, "month": 7, "day": 23, "hour": 22, "minute": 0, "report": "AAXX 23224 87178 42570 51604 10163 20140 30018 40167 53004 333 56530 83625 84360="}, {"year": 2026, "month": 7, "day": 23, "hour": 21, "minute": 0, "report": "AAXX 23214 87178 42570 61606 10172 20137 30018 40168 54000 83570 333 56530 83625 86360="}, {"year": 2026, "month": 7, "day": 23, "hour": 20, "minute": 0, "report": "AAXX 23204 87178 42570 61604 10174 20136 30016 40165 55008 86500 333 56500 86625="}, {"year": 2026, "month": 7, "day": 23, "hour": 19, "minute": 0, "report": "AAXX 23194 87178 42570 71605 10176 20134 30014 40163 57017 87700 333 56500 87720="}, {"year": 2026, "month": 7, "day": 23, "hour": 18, "minute": 0, "report": "AAXX 23184 87178 11570 71403 10174 20136 30018 40168 57019 69901 70252 87700 333 56500 87720="}, {"year": 2026, "month": 7, "day": 23, "hour": 17, "minute": 0, "report": "AAXX 23174 87178 42570 70904 10172 20133 30024 40173 57019 87500 333 56500 87625="}, {"year": 2026, "month": 7, "day": 23, "hour": 16, "minute": 0, "report": "AAXX 23164 87178 42370 80703 10166 20138 30032 40181 58011 886// 333 56599 83707 86620="}, {"year": 2026, "month": 7, "day": 23, "hour": 15, "minute": 0, "report": "AAXX 23154 87178 41370 80703 10150 20136 30037 40186 58003 70252 886// 333 56599 88707="}, {"year": 2026, "month": 7, "day": 23, "hour": 14, "minute": 0, "report": "AAXX 23144 87178 41370 81403 10146 20135 30042 40193 52008 72052 886// 333 56599 88707="}, {"year": 2026, "month": 7, "day": 23, "hour": 13, "minute": 0, "report": "AAXX 23134 87178 41250 81404 10140 20133 30042 40192 52015 75152 886// 333 56599 88705 96010="}], "87311": [{"year": 2026, "month": 7, "day": 24, "hour": 13, "minute": 0, "report": "AAXX 24134 87311 42465 80000 10058 20047 39489 40201 52017 887// 333 56699 88710="}, {"year": 2026, "month": 7, "day": 24, "hour": 12, "minute": 0, "report": "AAXX 24124 87311 32465 80000 10047 20035 39486 40198 52016 88700 333 10095 20023 56600 88710="}, {"year": 2026, "month": 7, "day": 24, "hour": 11, "minute": 0, "report": "AAXX 24114 87311 42465 40000 10037 20001 39478 40190 52016 84700 333 56200 84710="}, {"year": 2026, "month": 7, "day": 24, "hour": 10, "minute": 0, "report": "AAXX 24104 87311 42465 40000 10023 20018 39472 40183 52016 84700 333 56200 84710="}, {"year": 2026, "month": 7, "day": 24, "hour": 9, "minute": 0, "report": "AAXX 24094 87311 42465 41405 10032 20012 39470 40178 52012 84700 333 56400 84710="}, {"year": 2026, "month": 7, "day": 24, "hour": 8, "minute": 0, "report": "AAXX 24084 87311 42965 11405 10053 20032 39462 40166 52012 80001 333 56006 81070="}, {"year": 2026, "month": 7, "day": 24, "hour": 7, "minute": 0, "report": "AAXX 24074 87311 42965 21808 10047 20031 39456 40159 52012 80001 333 56006 82070="}, {"year": 2026, "month": 7, "day": 24, "hour": 6, "minute": 0, "report": "AAXX 24064 87311 12965 21806 10044 20027 39458 40164 52020 60001 80001 333 56006 82070="}, {"year": 2026, "month": 7, "day": 24, "hour": 5, "minute": 0, "report": "AAXX 24054 87311 42965 12004 10053 20034 39450 40155 52016 80001 333 56006 81070="}, {"year": 2026, "month": 7, "day": 24, "hour": 4, "minute": 0, "report": "AAXX 24044 87311 42965 01802 10065 20030 39444 40148 52013="}, {"year": 2026, "month": 7, "day": 24, "hour": 3, "minute": 0, "report": "AAXX 24034 87311 42965 01807 10070 20036 39438 40144 52012="}, {"year": 2026, "month": 7, "day": 24, "hour": 2, "minute": 0, "report": "AAXX 24024 87311 42965 01803 10077 20039 39434 40140 52016="}, {"year": 2026, "month": 7, "day": 24, "hour": 1, "minute": 0, "report": "AAXX 24014 87311 42965 01803 10076 20035 39430 40143 52020="}, {"year": 2026, "month": 7, "day": 24, "hour": 0, "minute": 0, "report": "AAXX 24004 87311 12965 02002 10090 20034 39426 40138 52013 60001 333 10140 20007="}, {"year": 2026, "month": 7, "day": 23, "hour": 23, "minute": 0, "report": "AAXX 23234 87311 42965 12004 10098 20036 39418 40130 51003 80001 333 56006 81070="}, {"year": 2026, "month": 7, "day": 23, "hour": 22, "minute": 0, "report": "AAXX 23224 87311 42965 31805 10113 20045 39410 40118 57004 80008 333 56006 83270="}, {"year": 2026, "month": 7, "day": 23, "hour": 21, "minute": 0, "report": "AAXX 23214 87311 42965 41806 10135 20034 39413 40114 57005 80008 333 56006 84270="}, {"year": 2026, "month": 7, "day": 23, "hour": 20, "minute": 0, "report": "AAXX 23204 87311 42965 61807 10138 20049 39416 40117 57009 80008 333 56006 86270="}, {"year": 2026, "month": 7, "day": 23, "hour": 19, "minute": 0, "report": "AAXX 23194 87311 42965 41412 10139 20047 39414 40115 57020 80008 333 56006 84270="}, {"year": 2026, "month": 7, "day": 23, "hour": 18, "minute": 0, "report": "AAXX 23184 87311 11965 41806 10125 20052 39418 40121 57023 60001 70341 80008 333 56006 84270="}, {"year": 2026, "month": 7, "day": 23, "hour": 17, "minute": 0, "report": "AAXX 23174 87311 42965 21606 10122 20061 39425 40128 57021 80008 333 56006 82270="}, {"year": 2026, "month": 7, "day": 23, "hour": 16, "minute": 0, "report": "AAXX 23164 87311 42565 31402 10108 20058 39434 40140 57012 81108 333 56000 81830="}, {"year": 2026, "month": 7, "day": 23, "hour": 15, "minute": 0, "report": "AAXX 23154 87311 41560 30503 10090 20044 39441 40148 58001 70141 81108 333 56606 81830="}, {"year": 2026, "month": 7, "day": 23, "hour": 14, "minute": 0, "report": "AAXX 23144 87311 41957 50902 10070 20043 39446 40156 52004 71042 80008 333 56006 85270="}, {"year": 2026, "month": 7, "day": 23, "hour": 13, "minute": 0, "report": "AAXX 23134 87311 41930 60903 10030 20015 39446 40162 53004 72842 80008 333 56000 86270 90104 90204 96010="}], "87281": [{"year": 2026, "month": 7, "day": 24, "hour": 12, "minute": 0, "report": "AAXX 24124 87281 32465 60503 10132 20125 30054 40182 53021 82556 333 10140 20110 56356 82615 85360 86270="}, {"year": 2026, "month": 7, "day": 24, "hour": 0, "minute": 0, "report": "AAXX 24004 87281 11465 80904 10140 20125 30051 40180 53003 60001 71422 8457/ 333 10154 20120 56369 84615 88360="}, {"year": 2026, "month": 7, "day": 23, "hour": 18, "minute": 0, "report": "AAXX 23184 87281 12465 80207 10150 20117 30052 40180 56023 60001 8557/ 333 56369 85615 88360="}], "87925": [{"year": 2026, "month": 7, "day": 24, "hour": 13, "minute": 0, "report": "AAXX 24134 87925 41103 81004 10016 20016 30038 40071 56009 85154 886// 333 56899 85703 88706 96046="}, {"year": 2026, "month": 7, "day": 24, "hour": 12, "minute": 0, "report": "AAXX 24124 87925 01112 89902 10012 20012 30042 40074 57012 60014 75165 886// 333 10022 21076 44998 56899 69991 88703 96010="}, {"year": 2026, "month": 7, "day": 24, "hour": 11, "minute": 0, "report": "AAXX 24114 87925 41230 81305 10010 20007 30045 40077 57013 75155 886// 333 56899 84704 88710 96010="}, {"year": 2026, "month": 7, "day": 24, "hour": 10, "minute": 0, "report": "AAXX 24104 87925 41456 81505 10008 21003 30048 40080 57018 75152 8362/ 333 56889 83710 88545="}, {"year": 2026, "month": 7, "day": 24, "hour": 9, "minute": 0, "report": "AAXX 24094 87925 41456 80905 10009 21002 30054 40086 57016 75165 8462/ 333 56889 84717 88550="}, {"year": 2026, "month": 7, "day": 24, "hour": 8, "minute": 0, "report": "AAXX 24084 87925 41565 80906 10019 20006 30058 40090 57017 76062 8262/ 333 56889 82720 88550="}, {"year": 2026, "month": 7, "day": 24, "hour": 7, "minute": 0, "report": "AAXX 24074 87925 42580 81006 10019 20003 30066 40098 57013 8562/ 333 56889 82724 83734 88560="}, {"year": 2026, "month": 7, "day": 24, "hour": 6, "minute": 0, "report": "AAXX 24064 87925 12580 80908 10014 21021 30070 40103 57013 60001 8557/ 333 56889 85626 88360="}, {"year": 2026, "month": 7, "day": 24, "hour": 5, "minute": 0, "report": "AAXX 24054 87925 42580 80907 11001 21019 30076 40108 57015 82576 333 56111 82630 84360 88270="}, {"year": 2026, "month": 7, "day": 24, "hour": 4, "minute": 0, "report": "AAXX 24044 87925 42580 70902 11042 21049 30080 40112 57015 84570 333 56110 84630 87359="}, {"year": 2026, "month": 7, "day": 24, "hour": 3, "minute": 0, "report": "AAXX 24034 87925 42580 71403 11049 21060 30084 40117 57015 84570 333 56110 84630 87360="}, {"year": 2026, "month": 7, "day": 24, "hour": 2, "minute": 0, "report": "AAXX 24024 87925 42580 72501 11060 21071 30090 40123 57015 85570 333 56110 85630 87360="}, {"year": 2026, "month": 7, "day": 24, "hour": 1, "minute": 0, "report": "AAXX 24014 87925 42480 71403 11064 21076 30094 40128 57017 84570 333 56110 81615 84630 87360="}, {"year": 2026, "month": 7, "day": 24, "hour": 0, "minute": 0, "report": "AAXX 24004 87925 11480 71402 11076 21084 30098 40132 57020 69911 70272 84770 333 11072 21146 56110 81715 83729 87360="}, {"year": 2026, "month": 7, "day": 23, "hour": 23, "minute": 0, "report": "AAXX 23234 87925 41580 71402 11080 21088 30105 40138 57016 70272 87770 333 56110 87729 87360="}, {"year": 2026, "month": 7, "day": 23, "hour": 22, "minute": 0, "report": "AAXX 23224 87925 41480 71902 11074 21082 30112 40145 57012 72272 87700 333 56100 84717 87728="}, {"year": 2026, "month": 7, "day": 23, "hour": 21, "minute": 0, "report": "AAXX 23214 87925 41558 71403 11076 21088 30118 40151 57015 72272 87700 333 56100 87724 90103="}, {"year": 2026, "month": 7, "day": 23, "hour": 20, "minute": 0, "report": "AAXX 23204 87925 42580 73204 11082 21090 30121 40154 57020 87700 333 56700 87728="}, {"year": 2026, "month": 7, "day": 23, "hour": 19, "minute": 0, "report": "AAXX 23194 87925 42580 79901 11090 21118 30124 40157 57027 84505 333 56607 84627 86270="}, {"year": 2026, "month": 7, "day": 23, "hour": 18, "minute": 0, "report": "AAXX 23184 87925 12580 79902 11097 21111 30133 40166 57017 60001 85505 333 56607 85623 86270="}, {"year": 2026, "month": 7, "day": 23, "hour": 17, "minute": 0, "report": "AAXX 23174 87925 42580 71804 11112 21133 30143 40174 58011 82505 333 56607 82630 87270="}, {"year": 2026, "month": 7, "day": 23, "hour": 16, "minute": 0, "report": "AAXX 23164 87925 42480 72303 11106 21126 30150 40183 51001 81606 333 56607 81712 87270="}, {"year": 2026, "month": 7, "day": 23, "hour": 15, "minute": 0, "report": "AAXX 23154 87925 42480 72304 11120 21142 30150 40183 50005 81607 333 56607 81711 87270 99021="}, {"year": 2026, "month": 7, "day": 23, "hour": 14, "minute": 0, "report": "AAXX 23144 87925 42380 72804 11138 21162 30152 40185 53009 81605 333 56707 81709 87270="}, {"year": 2026, "month": 7, "day": 23, "hour": 13, "minute": 0, "report": "AAXX 23134 87925 42380 72304 11136 21160 30149 40182 54000 81605 333 56707 81709 87270="}], "87800": [{"year": 2026, "month": 7, "day": 24, "hour": 12, "minute": 0, "report": "AAXX 24123 87800 01670 70000 10003 21003 39746 40147 53010 60024 7155/ 83820 333 10037 21005 56660 69902 82838 84548="}, {"year": 2026, "month": 7, "day": 24, "hour": 0, "minute": 0, "report": "AAXX 24003 87800 12680 50000 10037 20022 39710 40108 52019 69971 85800 333 10075 20008 56600 84842="}, {"year": 2026, "month": 7, "day": 23, "hour": 21, "minute": 0, "report": "AAXX 23213 87800 42680 60000 10061 20040 39692 40088 53031 86800 333 56600 84840="}, {"year": 2026, "month": 7, "day": 23, "hour": 18, "minute": 0, "report": "AAXX 23183 87800 11560 70000 10062 20039 39661 40056 58001 60011 75052 84720 333 56660 84730 85548="}, {"year": 2026, "month": 7, "day": 23, "hour": 15, "minute": 0, "report": "AAXX 23153 87800 41640 80000 10021 20013 39662 40059 53011 75152 8372/ 333 56669 83735 88548="}], "87544": [{"year": 2026, "month": 7, "day": 24, "hour": 13, "minute": 0, "report": "AAXX 24133 87544 41210 83203 10116 20110 30093 40199 52022 72842 886// 333 56799 88704 96010="}, {"year": 2026, "month": 7, "day": 24, "hour": 12, "minute": 0, "report": "AAXX 24123 87544 01208 03602 10112 20106 30086 40192 52016 60034 74442 886// 333 10112 20101 56899 60032 88704="}, {"year": 2026, "month": 7, "day": 24, "hour": 0, "minute": 0, "report": "AAXX 24003 87544 11250 83611 10108 20090 30072 40179 54000 69901 75152 886// 333 10122 20063 56899 88705="}, {"year": 2026, "month": 7, "day": 23, "hour": 23, "minute": 0, "report": "AAXX 23233 87544 41250 83611 10111 20089 30070 40178 55004 75152 886// 333 56899 88705="}, {"year": 2026, "month": 7, "day": 23, "hour": 22, "minute": 0, "report": "AAXX 23223 87544 41465 83611 10112 20088 30068 40175 57012 72052 886// 333 56899 88715="}, {"year": 2026, "month": 7, "day": 23, "hour": 21, "minute": 0, "report": "AAXX 23213 87544 41258 83610 10114 20092 30072 40179 57008 75152 886// 333 56899 88705="}, {"year": 2026, "month": 7, "day": 23, "hour": 20, "minute": 0, "report": "AAXX 23203 87544 41230 83610 10114 20086 30074 40180 57013 75152 886// 333 56899 88705="}, {"year": 2026, "month": 7, "day": 23, "hour": 19, "minute": 0, "report": "AAXX 23193 87544 42465 83610 10115 20085 30080 40187 56019 886// 333 56899 88714="}, {"year": 2026, "month": 7, "day": 23, "hour": 18, "minute": 0, "report": "AAXX 23183 87544 11465 83610 10118 20084 30080 40186 57023 60001 70242 886// 333 56899 88714="}, {"year": 2026, "month": 7, "day": 23, "hour": 17, "minute": 0, "report": "AAXX 23173 87544 42465 83612 10118 20084 30088 40194 57017 886// 333 56899 88714="}, {"year": 2026, "month": 7, "day": 23, "hour": 16, "minute": 0, "report": "AAXX 23163 87544 42465 83615 10118 20088 30098 40206 58007 886// 333 56899 88711="}, {"year": 2026, "month": 7, "day": 23, "hour": 15, "minute": 0, "report": "AAXX 23153 87544 41260 80512 10099 20085 30102 40209 58004 71042 886// 333 56199 88706="}, {"year": 2026, "month": 7, "day": 23, "hour": 14, "minute": 0, "report": "AAXX 23143 87544 41230 80510 10084 20069 30105 40212 56006 72842 886// 333 56199 88705="}, {"year": 2026, "month": 7, "day": 23, "hour": 13, "minute": 0, "report": "AAXX 23133 87544 41207 80510 10073 20064 30105 40212 57007 74244 886// 333 56199 88704="}], "87305": [{"year": 2026, "month": 7, "day": 24, "hour": 12, "minute": 0, "report": "AAXX 24124 87305 31960 20000 10017 20004 38845 48504 5//// 70400 82060 333 10185 20004 56060 82360 95000="}, {"year": 2026, "month": 7, "day": 24, "hour": 0, "minute": 0, "report": "AAXX 24004 87305 12965 43208 10183 21035 38794 48456 52019 60001 84070 333 10234 20009 56060 84360 95000="}, {"year": 2026, "month": 7, "day": 23, "hour": 21, "minute": 0, "report": "AAXX 23214 87305 42965 42708 10222 21060 38776 4//// 54000 83075 333 56066 83360 95000="}, {"year": 2026, "month": 7, "day": 23, "hour": 18, "minute": 0, "report": "AAXX 23184 87305 11960 52718 10221 21043 38776 48439 57024 60001 73232 84075 333 56066 84360 95000="}, {"year": 2026, "month": 7, "day": 23, "hour": 15, "minute": 0, "report": "AAXX 23154 87305 42765 63208 10146 21023 38800 4//// 57005 81574 333 56566 81656 84360 95032="}], "87852": [{"year": 2026, "month": 7, "day": 24, "hour": 13, "minute": 0, "report": "AAXX 24133 87852 41/04 90000 11120 21125 39565 4//// 52012 74741="}, {"year": 2026, "month": 7, "day": 24, "hour": 12, "minute": 0, "report": "AAXX 24124 87852 12484 73605 11132 21132 39562 40104 52009 60034 87600 333 11037 21132 49015 56600 87710="}, {"year": 2026, "month": 7, "day": 24, "hour": 11, "minute": 0, "report": "AAXX 24113 87852 42484 40000 11130 21135 39557 4//// 5//// 84600 333 56600 84718="}, {"year": 2026, "month": 7, "day": 24, "hour": 10, "minute": 0, "report": "AAXX 24104 87852 42480 70000 11120 21125 39553 4//// 5//// 87500 333 56600 87712="}, {"year": 2026, "month": 7, "day": 24, "hour": 9, "minute": 0, "report": "AAXX 24093 87852 42480 70000 11106 21111 39553 4//// 5//// 87600 333 56600 87710="}, {"year": 2026, "month": 7, "day": 24, "hour": 0, "minute": 0, "report": "AAXX 24003 87852 11450 80000 11037 21040 39548 40071 5//// 60021 71572 887// 333 11025 21046 56699 88715="}, {"year": 2026, "month": 7, "day": 23, "hour": 18, "minute": 0, "report": "AAXX 23183 87852 11450 81405 11045 21052 39549 4//// 57020 69961 77377 887// 333 56699 88715="}, {"year": 2026, "month": 7, "day": 23, "hour": 17, "minute": 0, "report": "AAXX 23173 87852 41450 81408 11025 21040 39557 4//// 57023 77377 887// 333 56699 88715="}, {"year": 2026, "month": 7, "day": 23, "hour": 16, "minute": 0, "report": "AAXX 23163 87852 41450 81410 11032 21035 39568 4//// 57020 77477 887// 333 56699 88715="}, {"year": 2026, "month": 7, "day": 23, "hour": 15, "minute": 0, "report": "AAXX 23153 87852 41450 81420 11033 21043 39569 4//// 57028 77277 887// 333 56699 88715="}, {"year": 2026, "month": 7, "day": 23, "hour": 14, "minute": 0, "report": "AAXX 23143 87852 41450 81420 11039 21045 39580 4//// 5//// 77377 887// 333 56699 88715="}, {"year": 2026, "month": 7, "day": 23, "hour": 13, "minute": 0, "report": "AAXX 23133 87852 41450 80920 11043 21046 39588 4//// 5//// 77377 887// 333 56699 88715="}], "87211": [{"year": 2026, "month": 7, "day": 24, "hour": 12, "minute": 0, "report": "AAXX 24123 87211 32970 21608 10032 20005 38799 48488 51040 80001 333 10094 20000 56005="}, {"year": 2026, "month": 7, "day": 24, "hour": 0, "minute": 0, "report": "AAXX 24003 87211 12970 00208 1094 20040 38765 48457 51013 333 10170 20024="}, {"year": 2026, "month": 7, "day": 23, "hour": 21, "minute": 0, "report": "AAXX 23214 87211 42970 31118 10158 20053 38755 48449 56027 83080 333 56060 555="}, {"year": 2026, "month": 7, "day": 23, "hour": 18, "minute": 0, "report": "AAXX 23183 87211 12970 50905 10140 20060 38747 48445 57037 60001 80004 333 56007 555="}, {"year": 2026, "month": 7, "day": 23, "hour": 15, "minute": 0, "report": "AAXX 23154 87211 42970 52702 10112 20053 38775 48462 58025 80004 333 56007 555="}], "87166": [{"year": 2026, "month": 7, "day": 24, "hour": 13, "minute": 0, "report": "AAXX 24134 87166 42560 71407 10155 20126 30102 40176 53020 82570 333 56170 82625 87360="}, {"year": 2026, "month": 7, "day": 24, "hour": 12, "minute": 0, "report": "AAXX 24124 87166 12560 81807 10143 20125 30097 40172 51023 69904 8457/ 333 10143 20136 56179 84620 88360="}, {"year": 2026, "month": 7, "day": 24, "hour": 11, "minute": 0, "report": "AAXX 24114 87166 42360 82005 10136 20127 30097 40172 53021 8767/ 333 56379 81707 83620 88360="}, {"year": 2026, "month": 7, "day": 24, "hour": 10, "minute": 0, "report": "AAXX 24104 87166 42360 81606 10137 20122 30082 40156 53004 886// 333 56399 83708 88620="}, {"year": 2026, "month": 7, "day": 24, "hour": 9, "minute": 0, "report": "AAXX 24094 87166 42560 81705 10136 20125 30074 40148 56009 885// 333 56299 88621="}, {"year": 2026, "month": 7, "day": 24, "hour": 8, "minute": 0, "report": "AAXX 24084 87166 42560 81705 10137 20122 30076 40150 58007 885// 333 56399 88625="}, {"year": 2026, "month": 7, "day": 24, "hour": 7, "minute": 0, "report": "AAXX 24074 87166 42560 81906 10139 20123 30078 40153 58008 885// 333 56299 88625="}, {"year": 2026, "month": 7, "day": 24, "hour": 6, "minute": 0, "report": "AAXX 24064 87166 12560 81804 10139 20124 30084 40158 55011 60001 885// 333 56299 88625="}, {"year": 2026, "month": 7, "day": 24, "hour": 5, "minute": 0, "report": "AAXX 24054 87166 42560 81503 10142 20120 30082 40157 56016 885// 333 56299 88625="}, {"year": 2026, "month": 7, "day": 24, "hour": 4, "minute": 0, "report": "AAXX 24044 87166 42560 81603 10140 20122 30086 40161 58007 885// 333 56299 88625="}, {"year": 2026, "month": 7, "day": 24, "hour": 3, "minute": 0, "report": "AAXX 24034 87166 42560 81704 10139 20121 30094 40169 54000 885// 333 56299 88625="}, {"year": 2026, "month": 7, "day": 24, "hour": 2, "minute": 0, "report": "AAXX 24024 87166 42560 81504 10139 20121 30098 40173 51008 885// 333 56299 88625="}, {"year": 2026, "month": 7, "day": 24, "hour": 1, "minute": 0, "report": "AAXX 24014 87166 42560 81506 10139 20117 30093 40168 50004 885// 333 56299 88625="}, {"year": 2026, "month": 7, "day": 24, "hour": 0, "minute": 0, "report": "AAXX 24004 87166 12560 71305 10137 20117 30094 40169 53004 60001 87506 333 10165 20125 56306 87625 86270="}, {"year": 2026, "month": 7, "day": 23, "hour": 23, "minute": 0, "report": "AAXX 23234 87166 42560 61405 10139 20117 30090 40165 55001 82506 333 56306 82625 86270="}, {"year": 2026, "month": 7, "day": 23, "hour": 22, "minute": 0, "report": "AAXX 23224 87166 42560 71406 10148 20121 30089 40164 55008 85556 333 56376 85630 84360="}, {"year": 2026, "month": 7, "day": 23, "hour": 21, "minute": 0, "report": "AAXX 23214 87166 42560 71407 10157 20119 30090 40165 55009 87500 333 56300 87625="}, {"year": 2026, "month": 7, "day": 23, "hour": 20, "minute": 0, "report": "AAXX 23204 87166 42460 81305 10165 20118 30092 40166 56015 886// 333 56399 83712 88620="}, {"year": 2026, "month": 7, "day": 23, "hour": 19, "minute": 0, "report": "AAXX 23194 87166 42460 81704 10165 20116 30097 40171 56023 886// 333 56399 83712 88620="}, {"year": 2026, "month": 7, "day": 23, "hour": 18, "minute": 0, "report": "AAXX 23184 87166 11460 81505 10161 20117 30100 40174 58023 69901 70252 886// 333 56399 83710 88618="}, {"year": 2026, "month": 7, "day": 23, "hour": 17, "minute": 0, "report": "AAXX 23174 87166 42460 81605 10156 20120 30106 40182 58017 886// 333 56300 83710 88616="}, {"year": 2026, "month": 7, "day": 23, "hour": 16, "minute": 0, "report": "AAXX 23164 87166 41460 89901 10147 20120 30120 40194 56005 70252 886// 333 56399 84710 88616="}, {"year": 2026, "month": 7, "day": 23, "hour": 15, "minute": 0, "report": "AAXX 23154 87166 41360 81302 10142 20116 30122 40197 55000 72052 886// 333 56399 86708 88615="}, {"year": 2026, "month": 7, "day": 23, "hour": 14, "minute": 0, "report": "AAXX 23144 87166 41358 81304 10139 20117 30124 40199 50005 75052 886// 333 56300 85708 88613="}, {"year": 2026, "month": 7, "day": 23, "hour": 13, "minute": 0, "report": "AAXX 23134 87166 42360 81603 10131 20120 30125 40200 51019 886// 333 56399 83708 88614="}], "87289": [{"year": 2026, "month": 7, "day": 24, "hour": 13, "minute": 0, "report": "AAXX 24134 87289 42360 70910 10139 20128 30100 40184 50012 82676 333 56366 82708 86360="}, {"year": 2026, "month": 7, "day": 24, "hour": 12, "minute": 0, "report": "AAXX 24124 87289 32360 51103 10135 20128 30106 40190 52020 81676 333 10152 20122 31009 56366 81708 85360="}, {"year": 2026, "month": 7, "day": 24, "hour": 11, "minute": 0, "report": "AAXX 24114 87289 42960 40904 10123 20117 30097 40181 53015 83076 333 56066 83360="}, {"year": 2026, "month": 7, "day": 24, "hour": 10, "minute": 0, "report": "AAXX 24104 87289 42960 60904 10122 20118 30088 40172 53007 84076 333 56066 84360="}, {"year": 2026, "month": 7, "day": 24, "hour": 9, "minute": 0, "report": "AAXX 24094 87289 42960 20904 10124 20118 30086 40171 54000 80006 333 56006 82270="}, {"year": 2026, "month": 7, "day": 24, "hour": 0, "minute": 0, "report": "AAXX 24004 87289 12460 60908 10152 20127 30096 40180 57001 60001 86500 333 10165 20130 56200 86610="}, {"year": 2026, "month": 7, "day": 23, "hour": 23, "minute": 0, "report": "AAXX 23234 87289 42460 70905 10154 20129 30098 40182 54000 87500 333 56200 87610="}, {"year": 2026, "month": 7, "day": 23, "hour": 22, "minute": 0, "report": "AAXX 23224 87289 42460 80906 10155 20128 30097 40181 52001 885// 333 56699 88610="}, {"year": 2026, "month": 7, "day": 23, "hour": 21, "minute": 0, "report": "AAXX 23214 87289 42460 81106 10159 20127 30097 40181 50003 885// 333 56299 88610="}, {"year": 2026, "month": 7, "day": 23, "hour": 20, "minute": 0, "report": "AAXX 23204 87289 42460 80906 10161 20131 30098 40183 55008 885// 333 56299 88610="}, {"year": 2026, "month": 7, "day": 23, "hour": 19, "minute": 0, "report": "AAXX 23194 87289 42460 80908 10164 20127 30096 40180 55024 885// 333 56299 88610="}, {"year": 2026, "month": 7, "day": 23, "hour": 18, "minute": 0, "report": "AAXX 23184 87289 12460 80912 10163 20129 30094 40179 58024 60001 885// 333 56299 88610="}, {"year": 2026, "month": 7, "day": 23, "hour": 17, "minute": 0, "report": "AAXX 23174 87289 42460 80707 10160 20126 30106 40191 57013 885// 333 56299 88610="}, {"year": 2026, "month": 7, "day": 23, "hour": 16, "minute": 0, "report": "AAXX 23164 87289 42460 80909 10154 20121 30120 40203 55003 885// 333 56299 88610="}, {"year": 2026, "month": 7, "day": 23, "hour": 15, "minute": 0, "report": "AAXX 23154 87289 42460 80712 10149 20120 30118 40202 58003 885// 333 56299 88610="}, {"year": 2026, "month": 7, "day": 23, "hour": 14, "minute": 0, "report": "AAXX 23144 87289 42460 80910 10143 20117 30120 40203 50001 885// 333 56299 88610="}, {"year": 2026, "month": 7, "day": 23, "hour": 13, "minute": 0, "report": "AAXX 23134 87289 42460 80910 10137 20117 30122 40206 52009 885// 333 56699 88610="}], "87643": [{"year": 2026, "month": 7, "day": 24, "hour": 13, "minute": 0, "report": "AAXX 24134 87643 41050 83606 10101 20097 39997 40199 53018 71062 886// 333 56099 88700="}, {"year": 2026, "month": 7, "day": 24, "hour": 12, "minute": 0, "report": "AAXX 24124 87643 01050 83609 10097 20097 39992 40195 52006 60024 72162 886// 333 10101 20086 56899 60022 88700="}, {"year": 2026, "month": 7, "day": 24, "hour": 0, "minute": 0, "report": "AAXX 24004 87643 12965 50906 10099 20085 30041 40245 52019 60001 85070 333 10111 20038 56060 85359="}, {"year": 2026, "month": 7, "day": 23, "hour": 18, "minute": 0, "report": "AAXX 23184 87643 11462 80506 10111 20093 30008 40212 57017 60001 71042 886// 333 56199 88710="}, {"year": 2026, "month": 7, "day": 23, "hour": 17, "minute": 0, "report": "AAXX 23174 87643 41462 80508 10101 20093 30009 40213 57017 71022 886// 333 56199 88710="}, {"year": 2026, "month": 7, "day": 23, "hour": 16, "minute": 0, "report": "AAXX 23164 87643 41362 80506 10088 20086 30018 40224 57013 71042 886// 333 56199 88707="}, {"year": 2026, "month": 7, "day": 23, "hour": 14, "minute": 0, "report": "AAXX 23144 87643 41/05 90506 10063 20063 30026 40232 50006 74344="}, {"year": 2026, "month": 7, "day": 23, "hour": 13, "minute": 0, "report": "AAXX 23134 87643 41/01 90506 10048 20048 30031 40237 50010 74744="}], "87880": [{"year": 2026, "month": 7, "day": 24, "hour": 12, "minute": 0, "report": "AAXX 24124 87880 31000 80000 11040 21067 39634 40066 57016 60024 745// 89/// 333 11040 21060="}, {"year": 2026, "month": 7, "day": 24, "hour": 0, "minute": 0, "report": "AAXX 24004 87880 11000 80910 11045 21067 39646 40095 57031 60001 60011 77577 89/// 333 11040 21065="}, {"year": 2026, "month": 7, "day": 23, "hour": 18, "minute": 0, "report": "AAXX 23184 87880 21410 80910 11055 21079 39667 4//// 57040 69951 7717/ 8472/ 333 56000 84720 84530="}], "87645": [{"year": 2026, "month": 7, "day": 24, "hour": 13, "minute": 0, "report": "AAXX 24134 87645 41/06 93509 10098 20094 39984 4//// 53005 74344="}, {"year": 2026, "month": 7, "day": 24, "hour": 12, "minute": 0, "report": "AAXX 24124 87645 31/01 90210 10090 20088 39978 40191 53004 74542 333 10090 20073 31007="}, {"year": 2026, "month": 7, "day": 24, "hour": 11, "minute": 0, "report": "AAXX 24114 87645 41/01 90307 10087 20085 39972 40185 58003 74742="}, {"year": 2026, "month": 7, "day": 24, "hour": 0, "minute": 0, "report": "AAXX 24004 87645 11360 80610 10088 20080 39985 40201 58004 60001 71022 8467/ 333 10101 20030 56269 84707 88358="}, {"year": 2026, "month": 7, "day": 23, "hour": 23, "minute": 0, "report": "AAXX 23234 87645 41360 80708 10091 20083 39988 40204 56007 71022 8567/ 333 56269 85707 88358="}, {"year": 2026, "month": 7, "day": 23, "hour": 22, "minute": 0, "report": "AAXX 23224 87645 41360 80505 10085 20079 39988 4//// 57009 71022 886// 333 56299 88707="}, {"year": 2026, "month": 7, "day": 23, "hour": 21, "minute": 0, "report": "AAXX 23214 87645 41356 80507 10085 20077 39989 4//// 57011 71022 886// 333 56299 88707="}, {"year": 2026, "month": 7, "day": 23, "hour": 20, "minute": 0, "report": "AAXX 23204 87645 41350 80410 10091 20081 39994 4//// 57008 71022 886// 333 56299 88707="}, {"year": 2026, "month": 7, "day": 23, "hour": 19, "minute": 0, "report": "AAXX 23194 87645 41460 80311 10097 20083 39997 4//// 57015 71022 886// 333 56299 88710="}, {"year": 2026, "month": 7, "day": 23, "hour": 18, "minute": 0, "report": "AAXX 23184 87645 11460 80311 10095 20081 30000 4//// 57023 60001 71042 886// 333 56299 88710="}, {"year": 2026, "month": 7, "day": 23, "hour": 17, "minute": 0, "report": "AAXX 23174 87645 41360 80411 10090 20075 30002 4//// 57025 71022 886// 333 56299 88709="}, {"year": 2026, "month": 7, "day": 23, "hour": 16, "minute": 0, "report": "AAXX 23164 87645 41345 80310 10081 20073 30012 4//// 57017 71042 886// 333 56299 88707="}, {"year": 2026, "month": 7, "day": 23, "hour": 15, "minute": 0, "report": "AAXX 23154 87645 41215 80407 10072 20065 30022 4//// 58005 72844 886// 333 56299 88704 90103 96010="}, {"year": 2026, "month": 7, "day": 23, "hour": 14, "minute": 0, "report": "AAXX 23144 87645 41106 80306 10058 20056 30028 4//// 50001 74444 886// 333 56299 88702="}, {"year": 2026, "month": 7, "day": 23, "hour": 13, "minute": 0, "report": "AAXX 23134 87645 41106 80405 10045 20043 30029 4//// 53008 74644 886// 333 56299 88702="}], "87649": [{"year": 2026, "month": 7, "day": 24, "hour": 12, "minute": 0, "report": "AAXX 24123 87649 31458 83402 10097 20093 39929 40180 5//// 71022 886// 333 10097 20080 31007 56799 88718="}, {"year": 2026, "month": 7, "day": 24, "hour": 0, "minute": 0, "report": "AAXX 24003 87649 12462 80208 10086 20082 39934 40189 57013 60001 886// 333 10094 20025 56799 88718="}, {"year": 2026, "month": 7, "day": 23, "hour": 18, "minute": 0, "report": "AAXX 23183 87649 11560 83608 10090 20069 39948 40203 57020 60001 71022 885// 333 56799 88620="}], "87222": [{"year": 2026, "month": 7, "day": 24, "hour": 13, "minute": 0, "report": "AAXX 24134 87222 42970 01802 10076 20040 39622 40173 52019="}, {"year": 2026, "month": 7, "day": 24, "hour": 12, "minute": 0, "report": "AAXX 24124 87222 31957 00503 10032 20007 39624 40179 52025 71000 333 10118 20019="}, {"year": 2026, "month": 7, "day": 24, "hour": 11, "minute": 0, "report": "AAXX 24114 87222 41950 00000 10032 20022 39618 40172 53016 71000="}, {"year": 2026, "month": 7, "day": 24, "hour": 10, "minute": 0, "report": "AAXX 24104 87222 42970 00204 10054 20036 39604 40154 52008="}, {"year": 2026, "month": 7, "day": 24, "hour": 9, "minute": 0, "report": "AAXX 24094 87222 42970 00206 10050 20016 39598 40146 54000="}, {"year": 2026, "month": 7, "day": 24, "hour": 8, "minute": 0, "report": "AAXX 24084 87222 41950 00204 10050 20031 39602 40151 52009 71000="}, {"year": 2026, "month": 7, "day": 24, "hour": 7, "minute": 0, "report": "AAXX 24074 87222 42970 00204 10050 20041 39596 40144 58003="}, {"year": 2026, "month": 7, "day": 24, "hour": 6, "minute": 0, "report": "AAXX 24064 87222 12970 00704 10082 20045 39598 40142 52008 60001="}, {"year": 2026, "month": 7, "day": 24, "hour": 5, "minute": 0, "report": "AAXX 24054 87222 42970 03503 10104 20038 39593 40136 50000="}, {"year": 2026, "month": 7, "day": 24, "hour": 4, "minute": 0, "report": "AAXX 24044 87222 42970 03203 10112 20043 39598 40140 52020="}, {"year": 2026, "month": 7, "day": 24, "hour": 3, "minute": 0, "report": "AAXX 24034 87222 42970 00107 10112 20053 39590 40133 50019="}, {"year": 2026, "month": 7, "day": 24, "hour": 2, "minute": 0, "report": "AAXX 24024 87222 42970 00409 10112 20058 39593 40138 53013="}, {"year": 2026, "month": 7, "day": 24, "hour": 1, "minute": 0, "report": "AAXX 24014 87222 42970 00412 10115 20059 39578 40122 55000="}, {"year": 2026, "month": 7, "day": 24, "hour": 0, "minute": 0, "report": "AAXX 24004 87222 12970 00515 10117 20062 39672 40117 58003 60001 333 10168 20108="}, {"year": 2026, "month": 7, "day": 23, "hour": 23, "minute": 0, "report": "AAXX 23234 87222 42970 00513 10124 20058 39580 40125 52009="}, {"year": 2026, "month": 7, "day": 23, "hour": 22, "minute": 0, "report": "AAXX 23224 87222 42670 10512 10132 20058 39578 40122 53004 81505 333 56404 81640="}, {"year": 2026, "month": 7, "day": 23, "hour": 21, "minute": 0, "report": "AAXX 23214 87222 42670 40213 10156 20065 39574 40115 56005 81509 333 56404 81640 83170="}, {"year": 2026, "month": 7, "day": 23, "hour": 20, "minute": 0, "report": "AAXX 23204 87222 42670 70515 10152 20049 39570 40114 56023 81506 333 56404 81635 87270="}, {"year": 2026, "month": 7, "day": 23, "hour": 19, "minute": 0, "report": "AAXX 23194 87222 42670 70516 10156 20060 39574 40121 56027 81506 333 56404 81635 87270="}, {"year": 2026, "month": 7, "day": 23, "hour": 18, "minute": 0, "report": "AAXX 23184 87222 12670 73613 10166 20058 39580 40126 56028 60001 81506 333 56404 81635 87270="}, {"year": 2026, "month": 7, "day": 23, "hour": 17, "minute": 0, "report": "AAXX 23174 87222 42670 70213 10160 20055 39593 40140 56021 81506 333 56404 81635 87270="}, {"year": 2026, "month": 7, "day": 23, "hour": 16, "minute": 0, "report": "AAXX 23164 87222 42670 70219 10150 20052 39601 40149 56015 81506 333 56404 81635 86270="}, {"year": 2026, "month": 7, "day": 23, "hour": 15, "minute": 0, "report": "AAXX 23154 87222 42570 70519 10136 20049 39608 40158 56005 81506 333 56404 81630 86270="}, {"year": 2026, "month": 7, "day": 23, "hour": 14, "minute": 0, "report": "AAXX 23144 87222 42570 70520 10126 20051 39614 40164 50000 81506 333 56404 81630 86270="}, {"year": 2026, "month": 7, "day": 23, "hour": 13, "minute": 0, "report": "AAXX 23134 87222 42570 60520 10116 20048 39616 40168 52008 82506 333 56404 82630 85270="}], "87736": [{"year": 2026, "month": 7, "day": 24, "hour": 12, "minute": 0, "report": "AAXX 24123 87736 02965 03202 10064 20060 30068 40164 5//// 69994 333 10106 20064 69992="}, {"year": 2026, "month": 7, "day": 24, "hour": 0, "minute": 0, "report": "AAXX 24003 87736 12465 83605 10106 20094 30054 40150 5//// 60001 8472/ 333 10106 20098 56879 84718 88560="}, {"year": 2026, "month": 7, "day": 23, "hour": 18, "minute": 0, "report": "AAXX 23183 87736 12465 83608 10106 20082 30038 40134 5//// 60001 8372/ 333 56879 83718 88560="}], "87692": [{"year": 2026, "month": 7, "day": 24, "hour": 13, "minute": 0, "report": "AAXX 24134 87692 42460 80209 10102 20090 30169 40195 58001 885// 333 56199 88615="}, {"year": 2026, "month": 7, "day": 24, "hour": 12, "minute": 0, "report": "AAXX 24124 87692 01460 80208 10100 20088 30173 40199 52004 69904 70252 885// 333 10100 20074 30006 56199 69901 88615="}, {"year": 2026, "month": 7, "day": 24, "hour": 11, "minute": 0, "report": "AAXX 24114 87692 41560 83607 10098 20086 30172 40197 55000 72055 885// 333 56899 88620="}, {"year": 2026, "month": 7, "day": 24, "hour": 10, "minute": 0, "report": "AAXX 24104 87692 41457 80208 10093 20083 30170 40196 55004 75055 886// 333 56199 83715 88620="}, {"year": 2026, "month": 7, "day": 24, "hour": 9, "minute": 0, "report": "AAXX 24094 87692 41556 80207 10094 20082 30169 40195 57008 75052 885// 333 56199 88620="}, {"year": 2026, "month": 7, "day": 24, "hour": 8, "minute": 0, "report": "AAXX 24084 87692 42560 80512 10096 20080 30172 40197 57011 83507 333 56106 83620 88270="}, {"year": 2026, "month": 7, "day": 24, "hour": 7, "minute": 0, "report": "AAXX 24074 87692 42560 80509 10095 20074 30174 40200 57011 82507 333 56106 82620 88270="}, {"year": 2026, "month": 7, "day": 24, "hour": 6, "minute": 0, "report": "AAXX 24064 87692 12960 80511 10092 20069 30177 40203 57015 60001 80007 333 56006 88270="}, {"year": 2026, "month": 7, "day": 24, "hour": 5, "minute": 0, "report": "AAXX 24054 87692 42960 80512 10093 20068 30182 40208 57012 80007 333 56006 88270="}, {"year": 2026, "month": 7, "day": 24, "hour": 4, "minute": 0, "report": "AAXX 24044 87692 42960 80510 10088 20069 30185 40211 58007 80007 333 56006 88270="}, {"year": 2026, "month": 7, "day": 24, "hour": 3, "minute": 0, "report": "AAXX 24034 87692 42960 50505 10078 20063 30192 40218 54000 80008 333 56006 85270="}, {"year": 2026, "month": 7, "day": 24, "hour": 2, "minute": 0, "report": "AAXX 24024 87692 42960 60206 10084 20067 30194 40220 53007 80008 333 56006 86270="}, {"year": 2026, "month": 7, "day": 24, "hour": 1, "minute": 0, "report": "AAXX 24014 87692 42960 60207 10090 20069 30192 40218 51004 80008 333 56006 86270="}, {"year": 2026, "month": 7, "day": 24, "hour": 0, "minute": 0, "report": "AAXX 24004 87692 12960 60207 10093 20068 30192 40217 53003 60001 80008 333 10114 20000 56006 86270="}, {"year": 2026, "month": 7, "day": 23, "hour": 23, "minute": 0, "report": "AAXX 23234 87692 42560 60509 10099 20072 30188 40213 57007 83508 333 56805 83620 86270="}, {"year": 2026, "month": 7, "day": 23, "hour": 22, "minute": 0, "report": "AAXX 23224 87692 42460 80508 10099 20081 30188 40214 58007 885// 333 56800 88616="}, {"year": 2026, "month": 7, "day": 23, "hour": 21, "minute": 0, "report": "AAXX 23214 87692 42460 80508 10100 20082 30189 40215 57008 885// 333 56899 88616="}, {"year": 2026, "month": 7, "day": 23, "hour": 20, "minute": 0, "report": "AAXX 23204 87692 42460 80509 10102 20079 30194 40220 56005 885// 333 56899 88616="}, {"year": 2026, "month": 7, "day": 23, "hour": 19, "minute": 0, "report": "AAXX 23194 87692 42460 80709 10103 20081 30194 40220 57017 885// 333 56799 88616="}, {"year": 2026, "month": 7, "day": 23, "hour": 18, "minute": 0, "report": "AAXX 23184 87692 12560 80510 10106 20079 30197 40223 57025 60001 885// 333 56799 88620="}, {"year": 2026, "month": 7, "day": 23, "hour": 17, "minute": 0, "report": "AAXX 23174 87692 42560 80707 10109 20072 30200 40226 57025 885// 333 56799 88620="}, {"year": 2026, "month": 7, "day": 23, "hour": 16, "minute": 0, "report": "AAXX 23164 87692 42560 83606 10106 20066 30212 40238 58012 885// 333 56799 88620="}, {"year": 2026, "month": 7, "day": 23, "hour": 15, "minute": 0, "report": "AAXX 23154 87692 42560 63607 10100 20057 30222 40248 58001 84508 333 56707 84620 86270="}, {"year": 2026, "month": 7, "day": 23, "hour": 14, "minute": 0, "report": "AAXX 23144 87692 42560 63203 10081 20057 30225 40251 52007 82508 333 56707 82625 86270="}, {"year": 2026, "month": 7, "day": 23, "hour": 13, "minute": 0, "report": "AAXX 23134 87692 41558 63203 10050 20048 30224 40249 51007 71011 84508 333 56707 84620 86270="}], "87320": [{"year": 2026, "month": 7, "day": 24, "hour": 13, "minute": 0, "report": "AAXX 24134 87320 42570 21405 10118 20074 39638 4//// 5//// 81505 333 56306 81360="}, {"year": 2026, "month": 7, "day": 24, "hour": 12, "minute": 0, "report": "AAXX 24123 87320 32670 31405 10093 20070 39618 40165 5//// 83500 333 10103 20066 56300 83640="}, {"year": 2026, "month": 7, "day": 24, "hour": 0, "minute": 0, "report": "AAXX 24003 87320 12970 70000 10095 20064 39612 40161 52027 60001 87070 333 10130 20061 56010 87360="}, {"year": 2026, "month": 7, "day": 23, "hour": 23, "minute": 0, "report": "AAXX 23234 87320 42970 70000 10098 20060 39600 4//// 52001 87070 333 56010 87360="}, {"year": 2026, "month": 7, "day": 23, "hour": 22, "minute": 0, "report": "AAXX 23224 87320 42970 70000 10100 20063 39598 4//// 54000 87070 333 56010 87360="}, {"year": 2026, "month": 7, "day": 23, "hour": 21, "minute": 0, "report": "AAXX 23213 87320 42970 70000 10122 20063 39585 4//// 56024 87070 333 56010 87360="}, {"year": 2026, "month": 7, "day": 23, "hour": 20, "minute": 0, "report": "AAXX 23204 87320 42970 70000 10122 20063 39598 4//// 56013 87070 333 56010 87360="}, {"year": 2026, "month": 7, "day": 23, "hour": 19, "minute": 0, "report": "AAXX 23194 87320 42570 70000 10120 20063 39598 4//// 57027 87500 333 56100 87630="}, {"year": 2026, "month": 7, "day": 23, "hour": 18, "minute": 0, "report": "AAXX 23183 87320 12570 70000 10115 20064 39609 4//// 57029 60001 87500 333 56100 87630="}, {"year": 2026, "month": 7, "day": 23, "hour": 17, "minute": 0, "report": "AAXX 23174 87320 42570 70000 10112 20067 39612 4//// 57040 87500 333 56100 87630="}, {"year": 2026, "month": 7, "day": 23, "hour": 16, "minute": 0, "report": "AAXX 23164 87320 42570 70000 10098 20060 39625 4//// 57027 87500 333 56100 87630="}, {"year": 2026, "month": 7, "day": 23, "hour": 15, "minute": 0, "report": "AAXX 23153 87320 42570 70000 10095 20064 39638 4//// 54000 87500 333 56100 87630="}, {"year": 2026, "month": 7, "day": 23, "hour": 14, "minute": 0, "report": "AAXX 23144 87320 42570 70000 10083 20055 39652 4//// 5//// 87500 333 56100 87630="}, {"year": 2026, "month": 7, "day": 23, "hour": 13, "minute": 0, "report": "AAXX 23134 87320 42570 70000 10079 20060 39652 4//// 5//// 87500 333 56100 87630="}], "87436": [{"year": 2026, "month": 7, "day": 24, "hour": 13, "minute": 0, "report": "AAXX 24134 87436 42970 70202 10093 20075 39358 40196 52023 80006 333 56006 87270="}, {"year": 2026, "month": 7, "day": 24, "hour": 12, "minute": 0, "report": "AAXX 24124 87436 32670 70205 10067 20052 39350 40191 52016 81506 333 10075 20050 30001 56706 81635 87270="}, {"year": 2026, "month": 7, "day": 24, "hour": 11, "minute": 0, "report": "AAXX 24114 87436 42670 63604 10059 20048 39346 40187 52019 81506 333 56806 81635 85270="}, {"year": 2026, "month": 7, "day": 24, "hour": 10, "minute": 0, "report": "AAXX 24104 87436 42970 60207 10053 20039 39336 40174 53004 81076 333 56066 81360 85270="}, {"year": 2026, "month": 7, "day": 24, "hour": 9, "minute": 0, "report": "AAXX 24094 87436 42970 40205 10057 20050 39334 40169 53004 81076 333 56066 81360 84270="}, {"year": 2026, "month": 7, "day": 24, "hour": 8, "minute": 0, "report": "AAXX 24084 87436 42970 50105 10062 20053 39328 40160 50000 82076 333 56066 82660 84270="}, {"year": 2026, "month": 7, "day": 24, "hour": 7, "minute": 0, "report": "AAXX 24074 87436 42970 50206 10064 20049 39332 40162 53003 82076 333 56066 82360 84270="}, {"year": 2026, "month": 7, "day": 24, "hour": 6, "minute": 0, "report": "AAXX 24064 87436 12970 60304 10057 20041 39330 40162 52016 60001 80006 333 56006 86270="}, {"year": 2026, "month": 7, "day": 24, "hour": 5, "minute": 0, "report": "AAXX 24054 87436 42970 60205 10058 20042 39328 40159 53004 80006 333 56006 86270="}, {"year": 2026, "month": 7, "day": 24, "hour": 4, "minute": 0, "report": "AAXX 24044 87436 42970 62702 10051 20040 39329 40160 53016 80006 333 56007 86270="}, {"year": 2026, "month": 7, "day": 24, "hour": 3, "minute": 0, "report": "AAXX 24034 87436 42970 60305 10055 20037 39314 40144 50008 80006 333 56007 86270="}, {"year": 2026, "month": 7, "day": 24, "hour": 2, "minute": 0, "report": "AAXX 24024 87436 42970 60502 10063 20045 39324 40158 52017 80006 333 56007 86270="}, {"year": 2026, "month": 7, "day": 24, "hour": 1, "minute": 0, "report": "AAXX 24014 87436 42970 40503 10071 20044 39313 40149 53015 80005 333 56007 84270="}, {"year": 2026, "month": 7, "day": 24, "hour": 0, "minute": 0, "report": "AAXX 24004 87436 12970 20303 10071 20044 39307 40146 51012 60001 80005 333 10143 20049 56007 82270="}, {"year": 2026, "month": 7, "day": 23, "hour": 23, "minute": 0, "report": "AAXX 23234 87436 42670 33303 10073 20044 39306 40146 53008 81605 333 56507 81735 83270="}, {"year": 2026, "month": 7, "day": 23, "hour": 22, "minute": 0, "report": "AAXX 23224 87436 42670 53306 10097 20047 39298 40135 53004 81605 333 56507 81735 85270="}, {"year": 2026, "month": 7, "day": 23, "hour": 21, "minute": 0, "report": "AAXX 23214 87436 42670 63308 10114 20048 39294 40127 55003 81606 333 56507 81735 86270="}, {"year": 2026, "month": 7, "day": 23, "hour": 20, "minute": 0, "report": "AAXX 23204 87436 42670 73213 10121 20045 39299 40132 55011 82606 333 56507 82735 87270="}, {"year": 2026, "month": 7, "day": 23, "hour": 19, "minute": 0, "report": "AAXX 23194 87436 42670 73214 10134 20043 39295 40124 56020 82606 333 56507 82735 87270="}, {"year": 2026, "month": 7, "day": 23, "hour": 18, "minute": 0, "report": "AAXX 23184 87436 12670 73318 10133 20045 39297 40128 58017 60001 82605 333 56507 82735 87270="}, {"year": 2026, "month": 7, "day": 23, "hour": 17, "minute": 0, "report": "AAXX 23174 87436 42670 73317 10130 20043 39309 40141 56013 82605 333 56507 82735 87270="}, {"year": 2026, "month": 7, "day": 23, "hour": 16, "minute": 0, "report": "AAXX 23164 87436 42670 73414 10141 20077 39314 40146 58004 83506 333 56707 83635 87270="}, {"year": 2026, "month": 7, "day": 23, "hour": 15, "minute": 0, "report": "AAXX 23154 87436 42670 73412 10131 20060 39314 40145 58003 82506 333 56707 82635 87270="}, {"year": 2026, "month": 7, "day": 23, "hour": 14, "minute": 0, "report": "AAXX 23144 87436 42670 73611 10107 20050 39322 40156 53004 82576 333 56777 82635 87270="}, {"year": 2026, "month": 7, "day": 23, "hour": 13, "minute": 0, "report": "AAXX 23134 87436 42970 73608 10079 20051 39318 40154 53005 84076 333 56077 84360 87270="}], "87553": [{"year": 2026, "month": 7, "day": 24, "hour": 13, "minute": 0, "report": "AAXX 24134 87553 42960 80506 10133 20109 30194 40204 53015 8807/ 333 56069 88360="}, {"year": 2026, "month": 7, "day": 24, "hour": 12, "minute": 0, "report": "AAXX 24124 87553 01960 80505 10124 20107 30188 40198 53009 69904 70262 8807/ 333 10133 20117 56069 69901 88360="}, {"year": 2026, "month": 7, "day": 24, "hour": 11, "minute": 0, "report": "AAXX 24114 87553 42760 80707 10120 20107 30182 40192 53003 85506 333 56707 85650 83270="}, {"year": 2026, "month": 7, "day": 24, "hour": 10, "minute": 0, "report": "AAXX 24104 87553 42660 60706 10118 20107 30180 40190 55004 81570 333 56770 81639 85360="}, {"year": 2026, "month": 7, "day": 24, "hour": 9, "minute": 0, "report": "AAXX 24094 87553 41560 80303 10121 20106 30178 40188 57007 70362 885// 333 56799 82626 88634="}, {"year": 2026, "month": 7, "day": 24, "hour": 8, "minute": 0, "report": "AAXX 24084 87553 41560 70607 10121 20108 30180 40189 58005 72162 85520 333 56860 85625="}, {"year": 2026, "month": 7, "day": 24, "hour": 7, "minute": 0, "report": "AAXX 24074 87553 42560 80605 10126 20109 30184 40194 58003 8552/ 333 56869 85630 88556="}, {"year": 2026, "month": 7, "day": 24, "hour": 6, "minute": 0, "report": "AAXX 24064 87553 12660 80706 10128 20107 30185 40195 56003 60001 885// 333 56899 88638="}, {"year": 2026, "month": 7, "day": 24, "hour": 5, "minute": 0, "report": "AAXX 24054 87553 42660 80708 10132 20105 30185 40195 58001 885// 333 56899 88642="}, {"year": 2026, "month": 7, "day": 24, "hour": 4, "minute": 0, "report": "AAXX 24044 87553 42660 80705 10128 20103 30186 40196 50001 885// 333 56899 88645="}, {"year": 2026, "month": 7, "day": 24, "hour": 3, "minute": 0, "report": "AAXX 24034 87553 42660 80504 10126 20101 30188 40197 53001 885// 333 56899 88644="}, {"year": 2026, "month": 7, "day": 24, "hour": 2, "minute": 0, "report": "AAXX 24024 87553 42660 80504 10126 20099 30186 40196 55001 885// 333 56899 88640="}, {"year": 2026, "month": 7, "day": 24, "hour": 1, "minute": 0, "report": "AAXX 24014 87553 42660 80404 10125 20096 30185 40195 57004 885// 333 56199 88640="}, {"year": 2026, "month": 7, "day": 24, "hour": 0, "minute": 0, "report": "AAXX 24004 87553 12660 80405 10128 20095 30186 40196 58003 60001 885// 333 10145 20107 56199 82634 88639="}, {"year": 2026, "month": 7, "day": 23, "hour": 23, "minute": 0, "report": "AAXX 23234 87553 42660 50409 10130 20095 30188 40198 54000 85500 333 56300 85637="}, {"year": 2026, "month": 7, "day": 23, "hour": 22, "minute": 0, "report": "AAXX 23224 87553 42660 40309 10126 20095 30189 40199 54000 84500 333 56300 84640="}, {"year": 2026, "month": 7, "day": 23, "hour": 21, "minute": 0, "report": "AAXX 23214 87553 42460 60808 10136 20106 30189 40199 54000 86505 333 56306 82718 85626 86632="}, {"year": 2026, "month": 7, "day": 23, "hour": 20, "minute": 0, "report": "AAXX 23204 87553 42560 71209 10135 20107 30188 40197 58007 87500 333 56300 85630 86642="}, {"year": 2026, "month": 7, "day": 23, "hour": 19, "minute": 0, "report": "AAXX 23194 87553 42660 81008 10140 20108 30189 40199 56012 885// 33 56299 88637="}, {"year": 2026, "month": 7, "day": 23, "hour": 18, "minute": 0, "report": "AAXX 23184 87553 12560 81008 10138 20096 30189 40199 57028 60001 885// 333 56299 88630="}, {"year": 2026, "month": 7, "day": 23, "hour": 17, "minute": 0, "report": "AAXX 23174 87553 42560 61010 10136 20095 30194 40204 57025 86500 333 56200 86623="}, {"year": 2026, "month": 7, "day": 23, "hour": 16, "minute": 0, "report": "AAXX 23164 87553 42460 51011 10133 20092 30201 40211 58019 85100 333 56200 85819="}, {"year": 2026, "month": 7, "day": 23, "hour": 15, "minute": 0, "report": "AAXX 23154 87553 42560 30811 10139 20088 30217 40227 58003 82105 333 56206 82821="}, {"year": 2026, "month": 7, "day": 23, "hour": 14, "minute": 0, "report": "AAXX 23144 87553 42460 30812 10131 20085 30220 40229 54000 82105 333 56206 82812 83270="}, {"year": 2026, "month": 7, "day": 23, "hour": 13, "minute": 0, "report": "AAXX 23134 87553 42460 30908 10118 20094 30220 40230 51003 82605 333 56206 82710 83270="}], "87532": [{"year": 2026, "month": 7, "day": 24, "hour": 13, "minute": 0, "report": "AAXX 24134 87532 41/00 92708 10072 20072 30018 40197 52025 74744 333 89/00="}, {"year": 2026, "month": 7, "day": 24, "hour": 12, "minute": 0, "report": "AAXX 24124 87532 31/01 92705 10069 20069 30010 40187 52024 74741 333 10099 20067 89/00="}, {"year": 2026, "month": 7, "day": 24, "hour": 11, "minute": 0, "report": "AAXX 24114 87532 41310 83203 10069 20069 30001 40178 53015 71022 886// 333 56799 88707="}, {"year": 2026, "month": 7, "day": 24, "hour": 10, "minute": 0, "report": "AAXX 24104 87532 41940 23604 10071 20071 39993 40170 53005 71000 80005 333 56005 82270="}, {"year": 2026, "month": 7, "day": 24, "hour": 9, "minute": 0, "report": "AAXX 24094 87532 41958 00208 10075 20073 39986 40163 58003 71000="}, {"year": 2026, "month": 7, "day": 24, "hour": 0, "minute": 0, "report": "AAXX 24004 87532 12470 70506 10099 20089 39982 40160 53011 60001 83676 333 10117 20063 56166 83715 86360 85270="}, {"year": 2026, "month": 7, "day": 23, "hour": 23, "minute": 0, "report": "AAXX 23234 87532 42470 70507 10105 20087 39978 40156 57001 84676 333 56166 84715 85360 85270="}, {"year": 2026, "month": 7, "day": 23, "hour": 22, "minute": 0, "report": "AAXX 23224 87532 42570 80509 10107 20085 39972 40148 57011 8457/ 333 56169 84625 88360="}, {"year": 2026, "month": 7, "day": 23, "hour": 21, "minute": 0, "report": "AAXX 23214 87532 42570 80511 10109 20087 39972 40148 57016 8557/ 333 56169 85620 88360="}, {"year": 2026, "month": 7, "day": 23, "hour": 20, "minute": 0, "report": "AAXX 23204 87532 42570 80511 10115 20081 39980 40156 57019 885// 333 56199 88620="}, {"year": 2026, "month": 7, "day": 23, "hour": 19, "minute": 0, "report": "AAXX 23194 87532 42570 80510 10116 20077 39982 40159 57023 885// 333 56199 88620="}, {"year": 2026, "month": 7, "day": 23, "hour": 18, "minute": 0, "report": "AAXX 23184 87532 12470 80211 10117 20074 39988 40164 57027 60001 885// 333 56199 88618="}, {"year": 2026, "month": 7, "day": 23, "hour": 17, "minute": 0, "report": "AAXX 23174 87532 42470 80214 10115 20069 39998 40174 57016 885// 333 56199 88618="}, {"year": 2026, "month": 7, "day": 23, "hour": 16, "minute": 0, "report": "AAXX 23164 87532 42470 80212 10108 20084 30005 40181 58013 8457/ 333 56159 84618 88360="}, {"year": 2026, "month": 7, "day": 23, "hour": 15, "minute": 0, "report": "AAXX 23154 87532 42470 80216 10103 20076 30014 40190 50003 82577 333 56155 82615 84360 88270="}, {"year": 2026, "month": 7, "day": 23, "hour": 14, "minute": 0, "report": "AAXX 23144 87532 42470 80214 10094 20073 30014 40190 50003 82677 333 56155 82710 83360 88270="}, {"year": 2026, "month": 7, "day": 23, "hour": 13, "minute": 0, "report": "AAXX 23134 87532 42470 60211 10082 20065 30018 40196 53008 81676 333 56155 81710 84360="}], "87007": [{"year": 2026, "month": 7, "day": 24, "hour": 13, "minute": 0, "report": "AAXX 24134 87007 41958 02302 10056 20001 36770 4//// 52019 70400="}, {"year": 2026, "month": 7, "day": 24, "hour": 12, "minute": 0, "report": "AAXX 24123 87007 31950 00000 10002 21042 36765 47179 52016 704// 333 1//// 21041="}, {"year": 2026, "month": 7, "day": 24, "hour": 0, "minute": 0, "report": "AAXX 24003 87007 32980 02705 10124 20014 36730 47137 52016 333 1//// 20002="}, {"year": 2026, "month": 7, "day": 23, "hour": 23, "minute": 0, "report": "AAXX 23234 87007 42980 03205 10134 20013 36726 4//// 53008="}, {"year": 2026, "month": 7, "day": 23, "hour": 22, "minute": 0, "report": "AAXX 23224 87007 42980 03208 10158 20033 36720 4//// 53003="}, {"year": 2026, "month": 7, "day": 23, "hour": 21, "minute": 0, "report": "AAXX 23213 87007 42580 12713 10184 20055 36714 4//// 56003 81500 333 56000 81630="}, {"year": 2026, "month": 7, "day": 23, "hour": 20, "minute": 0, "report": "AAXX 23204 87007 42580 12708 10188 20069 36711 4//// 56013 81500 333 56000 81630="}, {"year": 2026, "month": 7, "day": 23, "hour": 19, "minute": 0, "report": "AAXX 23194 87007 42580 12708 10192 20075 36712 4//// 57021 81500 333 56000 81630="}, {"year": 2026, "month": 7, "day": 23, "hour": 18, "minute": 0, "report": "AAXX 23183 87007 32980 00505 10182 20078 36716 4//// 57027="}, {"year": 2026, "month": 7, "day": 23, "hour": 17, "minute": 0, "report": "AAXX 23174 87007 42980 03602 10156 20066 36729 4//// 57025="}, {"year": 2026, "month": 7, "day": 23, "hour": 16, "minute": 0, "report": "AAXX 23164 87007 42980 00502 10134 20059 36740 4//// 58016="}, {"year": 2026, "month": 7, "day": 23, "hour": 15, "minute": 0, "report": "AAXX 23153 87007 42980 03602 10118 20053 36746 4//// 50013="}, {"year": 2026, "month": 7, "day": 23, "hour": 14, "minute": 0, "report": "AAXX 23144 87007 42980 00502 10090 20036 36752 4//// 52025="}, {"year": 2026, "month": 7, "day": 23, "hour": 13, "minute": 0, "report": "AAXX 23134 87007 41958 01802 10054 20013 36751 4//// 52027 70400="}], "87548": [{"year": 2026, "month": 7, "day": 24, "hour": 13, "minute": 0, "report": "AAXX 24134 87548 42762 83403 10114 20110 30102 40202 52019 8807/ 333 56079 88550="}, {"year": 2026, "month": 7, "day": 24, "hour": 12, "minute": 0, "report": "AAXX 24124 87548 11450 80202 10104 20100 30097 40196 52015 69914 71022 8257/ 333 10111 20095 31010 56379 82618 88557="}, {"year": 2026, "month": 7, "day": 24, "hour": 11, "minute": 0, "report": "AAXX 24114 87548 41450 80203 10104 20100 30088 40187 53005 71022 885// 333 56199 88618="}, {"year": 2026, "month": 7, "day": 24, "hour": 10, "minute": 0, "report": "AAXX 24104 87548 42360 80504 10102 20096 30084 40183 51008 886// 333 56199 88709="}, {"year": 2026, "month": 7, "day": 24, "hour": 9, "minute": 0, "report": "AAXX 24094 87548 42360 80502 10104 20100 30082 40181 54000 886// 333 56199 84709 88618="}, {"year": 2026, "month": 7, "day": 24, "hour": 8, "minute": 0, "report": "AAXX 24084 87548 42460 83601 10106 20102 30082 40181 55003 8757/ 333 56169 87618 88360="}, {"year": 2026, "month": 7, "day": 24, "hour": 7, "minute": 0, "report": "AAXX 24074 87548 42460 80507 10105 20099 30076 40174 58011 8657/ 333 56169 86615 88360="}, {"year": 2026, "month": 7, "day": 24, "hour": 6, "minute": 0, "report": "AAXX 24064 87548 11360 80705 10106 20100 30082 40181 58001 69901 70252 8467/ 333 56169 84709 88360="}, {"year": 2026, "month": 7, "day": 24, "hour": 5, "minute": 0, "report": "AAXX 24054 87548 41360 80207 10109 20103 30085 40183 54000 70252 8667/ 333 56169 86709 88360="}, {"year": 2026, "month": 7, "day": 24, "hour": 4, "minute": 0, "report": "AAXX 24044 87548 41360 80507 10109 20105 30086 40185 52004 72055 8767/ 333 56169 87709 88360="}, {"year": 2026, "month": 7, "day": 24, "hour": 3, "minute": 0, "report": "AAXX 24034 87548 41157 80509 10109 20105 30084 40182 50001 75055 886// 333 56199 88703="}, {"year": 2026, "month": 7, "day": 24, "hour": 2, "minute": 0, "report": "AAXX 24024 87548 41150 80507 10109 20105 30085 40184 53001 75055 886// 333 56199 88703="}, {"year": 2026, "month": 7, "day": 24, "hour": 1, "minute": 0, "report": "AAXX 24014 87548 41140 80510 10110 20106 30082 40181 56004 75055 886// 333 56199 88703="}, {"year": 2026, "month": 7, "day": 24, "hour": 0, "minute": 0, "report": "AAXX 24004 87548 11120 80510 10108 20104 30082 40182 58004 69911 75052 886// 333 10131 20086 56199 88703="}, {"year": 2026, "month": 7, "day": 23, "hour": 23, "minute": 0, "report": "AAXX 23234 87548 41225 80710 10106 20102 30084 40183 57001 75055 886// 333 56199 88706="}, {"year": 2026, "month": 7, "day": 23, "hour": 22, "minute": 0, "report": "AAXX 23224 87548 41120 80510 10107 20101 30086 40185 57005 75052 886// 333 56199 88703="}, {"year": 2026, "month": 7, "day": 23, "hour": 21, "minute": 0, "report": "AAXX 23214 87548 41220 80509 10110 20102 30086 40185 57005 75052 886// 333 56199 88705="}, {"year": 2026, "month": 7, "day": 23, "hour": 20, "minute": 0, "report": "AAXX 23204 87548 42460 80512 10113 20101 30085 40184 57009 885// 333 56199 88618="}, {"year": 2026, "month": 7, "day": 23, "hour": 19, "minute": 0, "report": "AAXX 23194 87548 42460 80512 10124 20093 30092 40191 57015 885// 333 56199 88618="}, {"year": 2026, "month": 7, "day": 23, "hour": 18, "minute": 0, "report": "AAXX 23184 87548 12460 80515 10125 20092 30092 40191 57023 60001 885// 333 56199 88618="}, {"year": 2026, "month": 7, "day": 23, "hour": 17, "minute": 0, "report": "AAXX 23174 87548 42460 83616 10127 20092 30094 40194 57025 885// 333 56199 88618="}, {"year": 2026, "month": 7, "day": 23, "hour": 16, "minute": 0, "report": "AAXX 23164 87548 42460 80516 10118 20090 30106 40206 57016 886// 333 56199 88712="}, {"year": 2026, "month": 7, "day": 23, "hour": 15, "minute": 0, "report": "AAXX 23154 87548 42360 80515 10112 20092 30114 40215 57007 886// 333 56199 88707="}, {"year": 2026, "month": 7, "day": 23, "hour": 14, "minute": 0, "report": "AAXX 23144 87548 41358 80511 10104 20090 30120 40219 52003 71022 886// 333 56199 88707="}, {"year": 2026, "month": 7, "day": 23, "hour": 13, "minute": 0, "report": "AAXX 23134 87548 41358 80508 10096 20088 30122 40222 52001 71022 886// 333 56199 88707="}], "87765": [{"year": 2026, "month": 7, "day": 24, "hour": 13, "minute": 0, "report": "AAXX 24134 87765 41456 80000 10018 20003 39165 48439 53005 75152 886// 333 56799 85714 88623="}, {"year": 2026, "month": 7, "day": 24, "hour": 12, "minute": 0, "report": "AAXX 24124 87765 01559 82704 10018 20003 39162 48436 52009 60014 75052 888// 333 10035 20013 56799 69901 82827 88640="}, {"year": 2026, "month": 7, "day": 24, "hour": 11, "minute": 0, "report": "AAXX 24114 87765 41460 72708 10019 20001 39158 48434 50008 72052 86570 333 56770 82718 86645="}, {"year": 2026, "month": 7, "day": 24, "hour": 10, "minute": 0, "report": "AAXX 24104 87765 42460 72711 10028 20006 39160 48437 52011 86570 333 56660 84718 86645="}, {"year": 2026, "month": 7, "day": 24, "hour": 9, "minute": 0, "report": "AAXX 24094 87765 42460 52712 10023 20000 39153 48431 53004 84570 333 56660 82717 83650="}, {"year": 2026, "month": 7, "day": 24, "hour": 8, "minute": 0, "report": "AAXX 24084 87765 42460 42712 10024 21001 39150 48429 52004 84600 333 56600 83713 83723="}, {"year": 2026, "month": 7, "day": 24, "hour": 7, "minute": 0, "report": "AAXX 24074 87765 42460 62714 10027 20007 39149 48429 51005 86500 333 56600 83713 83719 85623="}, {"year": 2026, "month": 7, "day": 24, "hour": 6, "minute": 0, "report": "AAXX 24064 87765 12560 52715 10028 21002 39149 48428 52008 60001 85500 333 56600 83722 85636="}, {"year": 2026, "month": 7, "day": 24, "hour": 5, "minute": 0, "report": "AAXX 24054 87765 42560 42912 10030 21008 39146 48425 52008 84500 333 56600 82720 83639="}, {"year": 2026, "month": 7, "day": 24, "hour": 4, "minute": 0, "report": "AAXX 24044 87765 42460 52816 10028 21002 39144 48424 52009 85500 333 56600 83716 83635="}, {"year": 2026, "month": 7, "day": 24, "hour": 3, "minute": 0, "report": "AAXX 24034 87765 42460 52815 10028 21002 39141 48420 52012 85500 333 56600 83718 84627="}, {"year": 2026, "month": 7, "day": 24, "hour": 2, "minute": 0, "report": "AAXX 24024 87765 42460 52817 10033 20001 39138 48419 52012 84570 333 56660 83718 84656="}, {"year": 2026, "month": 7, "day": 24, "hour": 1, "minute": 0, "report": "AAXX 24014 87765 42660 52814 10031 20001 39134 48414 52019 82570 333 56660 82635 84360="}, {"year": 2026, "month": 7, "day": 24, "hour": 0, "minute": 0, "report": "AAXX 24004 87765 11460 62716 10032 20007 39129 48409 52023 69901 70262 84570 333 10066 20030 56660 82717 83623="}, {"year": 2026, "month": 7, "day": 23, "hour": 23, "minute": 0, "report": "AAXX 23234 87765 42460 62714 10034 20004 39126 48406 52024 85570 333 56660 82717 85635="}, {"year": 2026, "month": 7, "day": 23, "hour": 22, "minute": 0, "report": "AAXX 23224 87765 42560 53115 10046 20010 39116 48398 52020 85704 333 56606 83720 85830="}, {"year": 2026, "month": 7, "day": 23, "hour": 21, "minute": 0, "report": "AAXX 23214 87765 41460 43118 10048 20022 39106 48391 52012 70162 84704 333 56606 82717 83827="}, {"year": 2026, "month": 7, "day": 23, "hour": 20, "minute": 0, "report": "AAXX 23204 87765 41460 53118 10058 20029 39102 48387 53008 70162 85726 333 56666 82711 83825 85650="}, {"year": 2026, "month": 7, "day": 23, "hour": 19, "minute": 0, "report": "AAXX 23194 87765 41359 73605 10058 20033 39096 48381 55003 72162 86726 333 56666 82709 83716 85822="}, {"year": 2026, "month": 7, "day": 23, "hour": 18, "minute": 0, "report": "AAXX 23184 87765 11359 83405 10054 20029 39094 48379 50001 60011 76162 887// 333 56699 83709 85724 88832="}, {"year": 2026, "month": 7, "day": 23, "hour": 17, "minute": 0, "report": "AAXX 23174 87765 41458 82907 10050 20032 39094 48379 50008 76162 8672/ 333 56669 82714 83721 85826="}, {"year": 2026, "month": 7, "day": 23, "hour": 16, "minute": 0, "report": "AAXX 23164 87765 41458 72804 10051 20028 39098 48382 52015 72162 86726 333 56666 84715 85823="}, {"year": 2026, "month": 7, "day": 23, "hour": 15, "minute": 0, "report": "AAXX 23154 87765 41358 73208 10040 20019 39093 48376 53004 76162 86726 333 56666 82709 83721 85827="}, {"year": 2026, "month": 7, "day": 23, "hour": 14, "minute": 0, "report": "AAXX 23144 87765 41558 70312 10052 20019 39086 48372 55005 72162 86726 333 56666 82722 84830 92801="}, {"year": 2026, "month": 7, "day": 23, "hour": 13, "minute": 0, "report": "AAXX 23134 87765 42560 60312 10038 20009 39084 48368 57012 86726 333 56666 82722 84830 85648 92801="}], "87328": [{"year": 2026, "month": 7, "day": 24, "hour": 13, "minute": 0, "report": "AAXX 24134 87328 42780 61402 10090 20051 39518 40191 53010 83506 333 56607 83650 85270 95000="}, {"year": 2026, "month": 7, "day": 24, "hour": 12, "minute": 0, "report": "AAXX 24124 87328 31980 51406 10054 20043 39514 40191 51012 703// 80006 333 10104 20033 30002 56006 85270 95000="}, {"year": 2026, "month": 7, "day": 24, "hour": 0, "minute": 0, "report": "AAXX 24004 87328 12980 63206 10104 20053 39477 40152 50009 60001 82076 333 10170 20035 56076 82360 84270 95090="}, {"year": 2026, "month": 7, "day": 23, "hour": 23, "minute": 0, "report": "AAXX 23234 87328 42980 63203 10098 20053 39478 40157 52012 82076 333 56076 82360 84270 95090="}, {"year": 2026, "month": 7, "day": 23, "hour": 22, "minute": 0, "report": "AAXX 23224 87328 42980 63205 10118 20056 39473 40147 53005 81076 333 56076 81360 85270 95000="}, {"year": 2026, "month": 7, "day": 23, "hour": 21, "minute": 0, "report": "AAXX 23214 87328 42980 63608 10148 20047 39468 40137 55008 80006 333 56006 86270 95000="}, {"year": 2026, "month": 7, "day": 23, "hour": 20, "minute": 0, "report": "AAXX 23204 87328 42980 53415 10150 20041 39466 40134 57019 80006 333 56006 85270 95000="}, {"year": 2026, "month": 7, "day": 23, "hour": 19, "minute": 0, "report": "AAXX 23194 87328 42980 53212 10160 20045 39468 40134 57028 80006 333 56006 85270 95000="}, {"year": 2026, "month": 7, "day": 23, "hour": 18, "minute": 0, "report": "AAXX 23184 87328 12680 33612 10162 20042 39476 40142 57027 60001 81505 333 56006 81640 95000="}, {"year": 2026, "month": 7, "day": 23, "hour": 17, "minute": 0, "report": "AAXX 23174 87328 42680 53208 10154 20047 39485 40153 57023 81576 333 46006 81640 83270 95000="}, {"year": 2026, "month": 7, "day": 23, "hour": 16, "minute": 0, "report": "AAXX 23164 87328 42680 63205 10130 20046 39496 40166 57015 81506 333 56506 81640 85270 95000="}, {"year": 2026, "month": 7, "day": 23, "hour": 15, "minute": 0, "report": "AAXX 23154 87328 42680 73208 10130 20046 39502 40171 58004 81506 333 56506 81640 86270 95000="}, {"year": 2026, "month": 7, "day": 23, "hour": 14, "minute": 0, "report": "AAXX 23144 87328 42680 73206 10112 20048 39508 40179 58008 81576 333 56076 81640 85270 95000="}, {"year": 2026, "month": 7, "day": 23, "hour": 13, "minute": 0, "report": "AAXX 23134 87328 42680 71405 10074 20043 39510 40184 53004 81576 333 56076 81640 83360 95000="}], "87540": [{"year": 2026, "month": 7, "day": 24, "hour": 12, "minute": 0, "report": "AAXX 24124 87540 11/00 90000 10090 20088 30072 40188 52018 69934 74542 333 10108 20085="}, {"year": 2026, "month": 7, "day": 24, "hour": 0, "minute": 0, "report": "AAXX 24004 87540 11256 80506 10108 20100 30058 40175 53003 69931 75052 88700 333 10116 20058 56100 88705 96010="}, {"year": 2026, "month": 7, "day": 23, "hour": 21, "minute": 0, "report": "AAXX 23214 87540 41358 80508 10108 20100 30056 40172 57009 75152 88500 333 56100 88607="}, {"year": 2026, "month": 7, "day": 23, "hour": 18, "minute": 0, "report": "AAXX 23184 87540 12465 80514 10116 20080 30065 40181 57019 60001 88500 333 56100 88615="}, {"year": 2026, "month": 7, "day": 23, "hour": 15, "minute": 0, "report": "AAXX 23154 87540 42465 80509 10098 20073 30084 40200 57003 885// 333 56899 88615="}], "87393": [{"year": 2026, "month": 7, "day": 24, "hour": 13, "minute": 0, "report": "AAXX 24134 87393 42470 60904 10134 20119 30125 40190 52016 84535 333 56276 84610="}, {"year": 2026, "month": 7, "day": 24, "hour": 12, "minute": 0, "report": "AAXX 24124 87393 32470 70905 10134 20119 30122 40188 52016 87505 333 10156 20124 56206 87610="}, {"year": 2026, "month": 7, "day": 24, "hour": 11, "minute": 0, "report": "AAXX 24114 87393 42470 50903 10124 20113 30117 40182 52015 84505 333 56206 84610="}, {"year": 2026, "month": 7, "day": 24, "hour": 10, "minute": 0, "report": "AAXX 24104 87393 42470 50905 10132 20117 30109 40174 53001 85500 333 56200 85610="}, {"year": 2026, "month": 7, "day": 24, "hour": 9, "minute": 0, "report": "AAXX 24094 87393 42470 70904 10132 20117 30106 40171 55003 87500 333 56100 87610="}, {"year": 2026, "month": 7, "day": 24, "hour": 8, "minute": 0, "report": "AAXX 24084 87393 42470 70904 10136 20121 30102 40167 57009 87500 333 56100 87610="}, {"year": 2026, "month": 7, "day": 24, "hour": 7, "minute": 0, "report": "AAXX 24074 87393 42470 80503 10144 20118 30108 40173 55001 885// 333 56199 88610="}, {"year": 2026, "month": 7, "day": 24, "hour": 6, "minute": 0, "report": "AAXX 24064 87393 12470 80507 10146 20120 30109 40174 58003 60001 885// 333 56199 88610="}, {"year": 2026, "month": 7, "day": 24, "hour": 5, "minute": 0, "report": "AAXX 24054 87393 42470 80908 10150 20121 30112 40177 55004 885// 333 56199 88610="}, {"year": 2026, "month": 7, "day": 24, "hour": 4, "minute": 0, "report": "AAXX 24044 87393 42470 80909 10146 20124 30109 40174 57011 885// 333 56199 88610="}, {"year": 2026, "month": 7, "day": 24, "hour": 3, "minute": 0, "report": "AAXX 24034 87393 42470 80907 10148 20123 30112 40177 58008 885// 333 56199 88610="}, {"year": 2026, "month": 7, "day": 24, "hour": 2, "minute": 0, "report": "AAXX 24024 87393 42470 80908 10150 20125 30116 40181 54000 885// 333 56199 88610="}, {"year": 2026, "month": 7, "day": 24, "hour": 1, "minute": 0, "report": "AAXX 24014 87393 42470 80907 10154 20125 30120 40185 53001 885// 333 56299 88616="}, {"year": 2026, "month": 7, "day": 24, "hour": 0, "minute": 0, "report": "AAXX 24004 87393 12470 80906 10156 20124 30120 40184 53003 60001 885// 333 10165 20120 56299 88616="}, {"year": 2026, "month": 7, "day": 23, "hour": 23, "minute": 0, "report": "AAXX 23234 87393 42470 80908 10158 20122 30116 40181 50001 885// 333 56299 88616="}, {"year": 2026, "month": 7, "day": 23, "hour": 22, "minute": 0, "report": "AAXX 23224 87393 42470 80906 10160 20124 30118 40183 53004 885// 333 56299 88616="}, {"year": 2026, "month": 7, "day": 23, "hour": 21, "minute": 0, "report": "AAXX 23214 87393 42470 80908 10162 20122 30117 40182 54000 885// 333 56299 88618="}, {"year": 2026, "month": 7, "day": 23, "hour": 20, "minute": 0, "report": "AAXX 23204 87393 42470 80908 10164 20117 30114 40180 56013 885// 333 56299 88618="}, {"year": 2026, "month": 7, "day": 23, "hour": 19, "minute": 0, "report": "AAXX 23194 87393 42470 80906 10164 20113 30114 40180 57025 885// 333 56299 88618="}, {"year": 2026, "month": 7, "day": 23, "hour": 18, "minute": 0, "report": "AAXX 23184 87393 12470 80710 10160 20112 30117 40182 57025 60001 885// 333 56299 88618="}, {"year": 2026, "month": 7, "day": 23, "hour": 17, "minute": 0, "report": "AAXX 23174 87393 42470 80708 10156 20112 30128 40193 57016 885// 333 56299 88618="}, {"year": 2026, "month": 7, "day": 23, "hour": 16, "minute": 0, "report": "AAXX 23164 87393 42470 80711 10154 20109 30140 40205 58004 885// 333 56299 88618="}, {"year": 2026, "month": 7, "day": 23, "hour": 15, "minute": 0, "report": "AAXX 23154 87393 42470 80910 10150 20109 30142 40207 54000 885// 333 56299 88616="}, {"year": 2026, "month": 7, "day": 23, "hour": 14, "minute": 0, "report": "AAXX 23144 87393 42470 70911 10142 20108 30144 40208 51004 87500 333 56200 87613="}, {"year": 2026, "month": 7, "day": 23, "hour": 13, "minute": 0, "report": "AAXX 23134 87393 42370 71406 10128 20105 30144 40208 51007 87600 333 56300 87708="}], "87163": [{"year": 2026, "month": 7, "day": 24, "hour": 12, "minute": 0, "report": "AAXX 24123 87163 31260 70902 10149 20146 39244 48516 5//// 7102/ 83670 333 10149 20111 31011 56180 81705 83630 86360="}, {"year": 2026, "month": 7, "day": 24, "hour": 0, "minute": 0, "report": "AAXX 24003 87163 12470 30702 10136 20133 39233 48503 52001 60001 82504 333 10185 20127 56207 82615 83070="}, {"year": 2026, "month": 7, "day": 23, "hour": 21, "minute": 0, "report": "AAXX 23213 87163 42470 50502 10164 20148 39232 48504 53001 84506 333 56106 84615 83270="}, {"year": 2026, "month": 7, "day": 23, "hour": 18, "minute": 0, "report": "AAXX 23183 87163 11470 70505 10175 20154 39230 48505 58020 60001 70142 86504 333 56807 86615 86070="}, {"year": 2026, "month": 7, "day": 23, "hour": 15, "minute": 0, "report": "AAXX 23153 87163 41370 80705 10153 20143 39250 48521 52004 70242 885// 333 56299 83708 88612="}], "87016": [{"year": 2026, "month": 7, "day": 24, "hour": 13, "minute": 0, "report": "AAXX 24133 87016 41530 80000 10148 20128 39749 4//// 52032 70422 885// 333 56899 88620="}, {"year": 2026, "month": 7, "day": 24, "hour": 12, "minute": 0, "report": "AAXX 24123 87016 31540 80000 10143 20127 39740 40159 52028 70422 885// 333 10154 20136 56899 88620="}, {"year": 2026, "month": 7, "day": 24, "hour": 11, "minute": 0, "report": "AAXX 24113 87016 42460 80000 10141 20123 39726 40145 5//// 885// 333 56899 88617="}, {"year": 2026, "month": 7, "day": 24, "hour": 10, "minute": 0, "report": "AAXX 24103 87016 42260 83205 10143 20129 39717 40134 5//// 886// 333 56899 83704 88617="}, {"year": 2026, "month": 7, "day": 24, "hour": 9, "minute": 0, "report": "AAXX 24093 87016 42260 80000 10144 20126 39712 40128 5//// 886// 333 56899 82704 88617="}, {"year": 2026, "month": 7, "day": 24, "hour": 0, "minute": 0, "report": "AAXX 24003 87016 11540 82705 10154 20117 39721 40139 51004 60001 70422 885// 333 10180 20133 56799 88620="}, {"year": 2026, "month": 7, "day": 23, "hour": 23, "minute": 0, "report": "AAXX 23233 87016 41540 82705 10157 20111 39721 40139 52006 70422 885// 333 56799 88620="}, {"year": 2026, "month": 7, "day": 23, "hour": 22, "minute": 0, "report": "AAXX 23223 87016 42560 82305 10162 20106 39721 40139 53006 885// 333 56799 88620="}, {"year": 2026, "month": 7, "day": 23, "hour": 21, "minute": 0, "report": "AAXX 23213 87016 42560 82305 10166 20102 39717 40134 55003 885// 333 56799 88620="}, {"year": 2026, "month": 7, "day": 23, "hour": 20, "minute": 0, "report": "AAXX 23203 87016 42560 83605 10173 20109 39715 4//// 56021 885// 333 56799 88620="}, {"year": 2026, "month": 7, "day": 23, "hour": 19, "minute": 0, "report": "AAXX 23193 87016 42560 83605 10176 20102 39715 4//// 57034 885// 333 56799 88620="}, {"year": 2026, "month": 7, "day": 23, "hour": 18, "minute": 0, "report": "AAXX 23183 87016 12560 83602 10176 20102 39720 4//// 57044 60001 885// 333 56799 88620="}, {"year": 2026, "month": 7, "day": 23, "hour": 17, "minute": 0, "report": "AAXX 23173 87016 42560 80000 10176 20088 39736 4//// 58037 885// 333 56799 88620="}, {"year": 2026, "month": 7, "day": 23, "hour": 16, "minute": 0, "report": "AAXX 23163 87016 41540 80000 10160 20091 39749 4//// 58026 70422 885// 333 56799 88620="}, {"year": 2026, "month": 7, "day": 23, "hour": 15, "minute": 0, "report": "AAXX 23153 87016 41540 81405 10150 20097 39764 4//// 58008 70422 885// 333 56699 88620="}, {"year": 2026, "month": 7, "day": 23, "hour": 14, "minute": 0, "report": "AAXX 23143 87016 41540 81402 10142 20102 39773 4//// 50004 70422 885// 333 56599 88620="}, {"year": 2026, "month": 7, "day": 23, "hour": 13, "minute": 0, "report": "AAXX 23133 87016 41540 81405 10139 20109 39775 4//// 51009 70422 885// 333 56599 88620="}], "87371": [{"year": 2026, "month": 7, "day": 24, "hour": 13, "minute": 0, "report": "AAXX 24134 87371 42662 61703 10135 20122 30177 40199 53025 85506 333 56807 85640 83270="}, {"year": 2026, "month": 7, "day": 24, "hour": 12, "minute": 0, "report": "AAXX 24124 87371 32662 60803 10123 20116 30162 40184 50015 82506 333 10139 20102 56607 82640 85270="}, {"year": 2026, "month": 7, "day": 24, "hour": 11, "minute": 0, "report": "AAXX 24114 87371 42662 61203 10114 20108 30164 40185 53015 84506 333 56607 84640 85270="}, {"year": 2026, "month": 7, "day": 24, "hour": 10, "minute": 0, "report": "AAXX 24104 87371 42662 42804 10105 20097 30152 40174 58003 84500 333 56600 84640="}, {"year": 2026, "month": 7, "day": 24, "hour": 9, "minute": 0, "report": "AAXX 24094 87371 42662 60703 10118 20108 30148 40170 58003 86500 333 56600 86640="}, {"year": 2026, "month": 7, "day": 24, "hour": 8, "minute": 0, "report": "AAXX 24084 87371 42462 70902 10121 20110 30149 40171 58009 87700 333 56600 82712 86640="}, {"year": 2026, "month": 7, "day": 24, "hour": 7, "minute": 0, "report": "AAXX 24074 87371 42662 70504 10121 20110 30154 40176 55005 87500 333 56600 87640="}, {"year": 2026, "month": 7, "day": 24, "hour": 6, "minute": 0, "report": "AAXX 24064 87371 12562 70504 10121 20110 30150 40172 58005 60001 87500 333 56600 83631 86640="}, {"year": 2026, "month": 7, "day": 24, "hour": 5, "minute": 0, "report": "AAXX 24054 87371 42562 70603 10119 20108 30158 40180 50007 87800 333 56600 82622 87841="}, {"year": 2026, "month": 7, "day": 24, "hour": 4, "minute": 0, "report": "AAXX 24044 87371 42562 60303 10117 20106 30160 40182 53007 86800 333 56600 83621 86828="}, {"year": 2026, "month": 7, "day": 24, "hour": 3, "minute": 0, "report": "AAXX 24034 87371 42662 60303 10121 20110 30156 40177 53004 85570 333 56660 85637 85360="}, {"year": 2026, "month": 7, "day": 24, "hour": 2, "minute": 0, "report": "AAXX 24024 87371 42662 70704 10125 20114 30152 40173 57004 84570 333 56660 84637 87360="}, {"year": 2026, "month": 7, "day": 24, "hour": 1, "minute": 0, "report": "AAXX 24014 87371 42662 70504 10137 20107 30153 40175 58001 87500 333 56600 87637="}, {"year": 2026, "month": 7, "day": 24, "hour": 0, "minute": 0, "report": "AAXX 24004 87371 12662 70207 10139 20109 30152 40173 58001 60001 87500 333 10155 20110 56600 87636="}, {"year": 2026, "month": 7, "day": 23, "hour": 23, "minute": 0, "report": "AAXX 23234 87371 42662 80404 10143 20113 30156 40177 53003 888// 333 56299 85634 87838="}, {"year": 2026, "month": 7, "day": 23, "hour": 22, "minute": 0, "report": "AAXX 23224 87371 42562 80504 10144 20116 30154 40176 53003 888// 333 56699 85633 87838="}, {"year": 2026, "month": 7, "day": 23, "hour": 21, "minute": 0, "report": "AAXX 23214 87371 42562 80905 10148 20115 30153 40175 56007 886// 333 56599 85824 88625="}, {"year": 2026, "month": 7, "day": 23, "hour": 20, "minute": 0, "report": "AAXX 23204 87371 42562 80506 10155 20111 30153 40175 55015 888// 333 56299 85824 88634="}, {"year": 2026, "month": 7, "day": 23, "hour": 19, "minute": 0, "report": "AAXX 23194 87371 42562 70307 10151 20106 30152 50174 57027 87800 333 56500 82723 84823 86629="}, {"year": 2026, "month": 7, "day": 23, "hour": 18, "minute": 0, "report": "AAXX 23184 87371 12562 80711 10146 20115 30160 40181 57017 60001 886// 333 56599 88720="}, {"year": 2026, "month": 7, "day": 23, "hour": 17, "minute": 0, "report": "AAXX 23174 87371 42562 80507 10144 20112 30168 50189 57019 886// 333 56599 88720="}, {"year": 2026, "month": 7, "day": 23, "hour": 16, "minute": 0, "report": "AAXX 23164 87371 42462 80512 10143 20105 30178 50200 55005 886// 333 56599 85715="}, {"year": 2026, "month": 7, "day": 23, "hour": 15, "minute": 0, "report": "AAXX 23154 87371 42462 80910 10139 20109 30177 40199 57004 886// 333 56599 88716 88725="}, {"year": 2026, "month": 7, "day": 23, "hour": 14, "minute": 0, "report": "AAXX 23144 87371 42462 80912 10124 20117 30186 50208 52005 886// 333 56599 85712 88728="}, {"year": 2026, "month": 7, "day": 23, "hour": 13, "minute": 0, "report": "AAXX 23134 87371 42362 80906 10121 20115 30184 40206 53003 886// 333 56599 88708 88715="}], "87563": [{"year": 2026, "month": 7, "day": 24, "hour": 12, "minute": 0, "report": "AAXX 24124 87563 01558 83604 10106 20106 30140 40184 51001 69914 71052 82776 333 10107 20102 56876 69912 82725 86360 87270="}, {"year": 2026, "month": 7, "day": 24, "hour": 9, "minute": 0, "report": "AAXX 24094 87563 41558 80000 10102 20102 30138 40183 56002 75152 887// 333 56600 88725="}, {"year": 2026, "month": 7, "day": 24, "hour": 0, "minute": 0, "report": "AAXX 24004 87563 12565 80506 10107 20087 30152 40196 56003 60001 887// 333 10122 20058 56299 88725="}, {"year": 2026, "month": 7, "day": 23, "hour": 21, "minute": 0, "report": "AAXX 23214 87563 42565 80504 10120 20101 30154 40199 56007 885// 333 56299 88625="}, {"year": 2026, "month": 7, "day": 23, "hour": 18, "minute": 0, "report": "AAXX 23184 87563 32460 80506 10119 20093 30161 40206 57029 60001 885// 333 56199 88615="}, {"year": 2026, "month": 7, "day": 23, "hour": 15, "minute": 0, "report": "AAXX 23154 87563 41456 80502 10095 20091 30190 40234 51009 71022 886// 333 56899 88715="}], "87444": [{"year": 2026, "month": 7, "day": 24, "hour": 13, "minute": 0, "report": "AAXX 24134 87444 42670 70000 10067 20051 39458 40187 52022 87500 333 56000 87640 95000="}, {"year": 2026, "month": 7, "day": 24, "hour": 12, "minute": 0, "report": "AAXX 24124 87444 32970 70000 10039 20015 39456 40190 52015 87500 333 10053 20007 56000 87640 95000="}, {"year": 2026, "month": 7, "day": 24, "hour": 11, "minute": 0, "report": "AAXX 24114 87444 42670 60000 10018 21004 39453 40176 52012 86500 333 56000 86640 95000="}, {"year": 2026, "month": 7, "day": 24, "hour": 1, "minute": 0, "report": "AAXX 24014 87444 42970 00000 10053 20021 39423 40158 52014 333 95000="}, {"year": 2026, "month": 7, "day": 24, "hour": 0, "minute": 0, "report": "AAXX 24004 87444 12970 20000 10047 20017 39418 40158 51011 60001 82070 333 10157 20008 56070 82360 95000="}, {"year": 2026, "month": 7, "day": 23, "hour": 23, "minute": 0, "report": "AAXX 23234 87444 42970 20000 10081 20041 39415 40155 53009 82070 333 56070 82360 95000="}, {"year": 2026, "month": 7, "day": 23, "hour": 22, "minute": 0, "report": "AAXX 23224 87444 42970 23205 10111 20053 39409 4//// 52005 82070 333 56070 82360 95000="}, {"year": 2026, "month": 7, "day": 23, "hour": 21, "minute": 0, "report": "AAXX 23214 87444 42970 43208 10138 20060 39407 4//// 55007 84075 333 56077 84360 82270 95000="}, {"year": 2026, "month": 7, "day": 23, "hour": 20, "minute": 0, "report": "AAXX 23204 87444 42970 43208 10144 20060 39406 4//// 55014 80006 333 56007 84270 95000="}, {"year": 2026, "month": 7, "day": 23, "hour": 19, "minute": 0, "report": "AAXX 23194 87444 42670 43210 10152 20061 39404 4//// 56031 82506 333 56407 82640 83270 95000="}, {"year": 2026, "month": 7, "day": 23, "hour": 18, "minute": 0, "report": "AAXX 23184 87444 12670 23215 10156 20064 39414 4//// 58030 60001 82570 333 56470 82640 82360 95000="}, {"year": 2026, "month": 7, "day": 23, "hour": 17, "minute": 0, "report": "AAXX 23174 87444 42670 33212 10147 20060 39420 4//// 58027 82570 333 56470 82640 83360 95000="}, {"year": 2026, "month": 7, "day": 23, "hour": 16, "minute": 0, "report": "AAXX 23164 87444 42670 53206 10134 20058 39435 4//// 58012 82570 333 56470 82640 84360 95000="}, {"year": 2026, "month": 7, "day": 23, "hour": 15, "minute": 0, "report": "AAXX 23154 87444 42670 63606 10109 20053 39444 4//// 58004 82570 333 56670 82640 85360 95000="}, {"year": 2026, "month": 7, "day": 23, "hour": 14, "minute": 0, "report": "AAXX 23144 87444 42670 73604 10086 20058 39447 4//// 50002 82570 333 56670 82640 86360 95000="}, {"year": 2026, "month": 7, "day": 23, "hour": 13, "minute": 0, "report": "AAXX 23134 87444 42670 70000 10057 20047 39447 4//// 50002 82570 333 56670 82640 86360 95000="}], "87896": [{"year": 2026, "month": 7, "day": 24, "hour": 12, "minute": 0, "report": "AAXX 24123 87896 01101 82708 10003 20000 39940 40039 5//// 60084 74642 8661/ 333 10062 20001 56699 60052 86702 88440="}, {"year": 2026, "month": 7, "day": 24, "hour": 0, "minute": 0, "report": "AAXX 24003 87896 11306 80908 10062 20034 39972 40071 5//// 60031 75865 8662/ 333 10062 20010 56299 86708 88540 96046="}, {"year": 2026, "month": 7, "day": 23, "hour": 18, "minute": 0, "report": "AAXX 23183 87896 11370 80913 10040 20030 30018 4//// 5//// 69901 75052 8567/ 333 56259 85708 88360="}], "87648": [{"year": 2026, "month": 7, "day": 24, "hour": 13, "minute": 0, "report": "AAXX 24134 87648 41558 70208 10111 20097 30194 40205 52007 71522 82870 333 56170 82620 87360="}, {"year": 2026, "month": 7, "day": 24, "hour": 12, "minute": 0, "report": "AAXX 24124 87648 01960 80508 10103 20097 30192 40202 53003 69964 702// 8807/ 333 10108 20093 31008 56079 69962 88360="}, {"year": 2026, "month": 7, "day": 24, "hour": 0, "minute": 0, "report": "AAXX 24004 87648 12960 80704 10096 20077 30194 40205 57008 60001 80006 333 10138 20065 56007 88280="}, {"year": 2026, "month": 7, "day": 23, "hour": 23, "minute": 0, "report": "AAXX 23234 87648 42960 80905 10096 20077 30197 40208 57009 83076 333 56067 83360 88280="}, {"year": 2026, "month": 7, "day": 23, "hour": 22, "minute": 0, "report": "AAXX 23224 87648 42960 80907 10098 20080 30200 40211 58005 83077 333 56067 83360 88280="}, {"year": 2026, "month": 7, "day": 23, "hour": 21, "minute": 0, "report": "AAXX 23214 87648 42960 80707 10106 20084 30202 40213 55003 84076 333 56067 84360 88280="}, {"year": 2026, "month": 7, "day": 23, "hour": 20, "minute": 0, "report": "AAXX 23204 87648 42560 70707 10122 20080 30206 40217 55019 82576 333 56267 82630 83360 86280="}, {"year": 2026, "month": 7, "day": 23, "hour": 19, "minute": 0, "report": "AAXX 23194 87648 42560 70904 10132 20087 30205 40216 56019 83576 333 56267 83630 86280="}, {"year": 2026, "month": 7, "day": 23, "hour": 18, "minute": 0, "report": "AAXX 23184 87648 12560 80904 10136 20087 30205 40216 56027 60001 885// 333 56299 88630="}, {"year": 2026, "month": 7, "day": 23, "hour": 17, "minute": 0, "report": "AAXX 23174 87648 42560 80509 10132 20082 30225 40236 58007 885// 333 56199 88630="}, {"year": 2026, "month": 7, "day": 23, "hour": 16, "minute": 0, "report": "AAXX 23164 87648 42560 80904 10124 20091 30224 40235 58007 885// 333 56299 88630="}, {"year": 2026, "month": 7, "day": 23, "hour": 15, "minute": 0, "report": "AAXX 23154 87648 42560 80904 10112 20090 30232 40243 50004 885// 333 56299 88630="}, {"year": 2026, "month": 7, "day": 23, "hour": 14, "minute": 0, "report": "AAXX 23144 87648 42360 70902 10102 20088 30232 40243 52005 83776 333 56267 83707 86280="}, {"year": 2026, "month": 7, "day": 23, "hour": 13, "minute": 0, "report": "AAXX 23134 87648 42360 71602 10084 20073 30230 40241 53002 81776 333 56467 81707 84280="}], "87416": [{"year": 2026, "month": 7, "day": 24, "hour": 13, "minute": 0, "report": "AAXX 24134 87416 42565 22407 10062 20027 39414 40189 52014 81504 333 56606 81620="}, {"year": 2026, "month": 7, "day": 24, "hour": 12, "minute": 0, "report": "AAXX 24124 87416 32465 22505 10042 20020 39409 40183 51012 81504 333 10087 20032 30004 56606 81615="}, {"year": 2026, "month": 7, "day": 24, "hour": 0, "minute": 0, "report": "AAXX 24004 87416 12965 00000 10087 20055 39366 40137 53020 60001 333 10138 20042="}, {"year": 2026, "month": 7, "day": 23, "hour": 23, "minute": 0, "report": "AAXX 23234 87416 42965 22203 10101 20057 39360 40126 53015 81074 333 56066 81360="}, {"year": 2026, "month": 7, "day": 23, "hour": 22, "minute": 0, "report": "AAXX 23224 87416 42665 21803 10113 20059 39350 40116 53003 81574 333 56666 81635="}, {"year": 2026, "month": 7, "day": 23, "hour": 21, "minute": 0, "report": "AAXX 23214 87416 42665 31304 10132 20056 39346 40109 55011 81574 333 56666 81635="}, {"year": 2026, "month": 7, "day": 23, "hour": 20, "minute": 0, "report": "AAXX 23204 87416 42665 43404 10133 20052 39345 40105 56016 81574 333 56666 81635="}, {"year": 2026, "month": 7, "day": 23, "hour": 19, "minute": 0, "report": "AAXX 23194 87416 42665 41303 10124 20053 39348 40108 57020 81574 333 56666 81635="}, {"year": 2026, "month": 7, "day": 23, "hour": 18, "minute": 0, "report": "AAXX 23184 87416 12665 82802 10112 20051 39357 40120 57015 60001 885// 333 56599 88635="}, {"year": 2026, "month": 7, "day": 23, "hour": 17, "minute": 0, "report": "AAXX 23174 87416 42565 80706 10108 20048 39361 40124 58016 885// 333 56699 88630="}, {"year": 2026, "month": 7, "day": 23, "hour": 16, "minute": 0, "report": "AAXX 23164 87416 42565 71104 10105 20045 39368 40132 58011 87500 333 56500 87630="}, {"year": 2026, "month": 7, "day": 23, "hour": 15, "minute": 0, "report": "AAXX 23154 87416 42565 71802 10092 20044 39372 40138 58003 86570 333 56660 86625 85360="}, {"year": 2026, "month": 7, "day": 23, "hour": 14, "minute": 0, "report": "AAXX 23144 87416 42565 71402 10070 20038 39377 40146 58001 86570 333 56560 86625="}, {"year": 2026, "month": 7, "day": 23, "hour": 13, "minute": 0, "report": "AAXX 23134 87416 42565 80601 10052 20033 39378 40151 53004 886// 333 56599 88720="}], "87468": [{"year": 2026, "month": 7, "day": 24, "hour": 13, "minute": 0, "report": "AAXX 24134 87468 41658 80000 10105 20103 30058 40194 53024 71022 8177/ 333 56169 81740 88360="}, {"year": 2026, "month": 7, "day": 24, "hour": 12, "minute": 0, "report": "AAXX 24124 87468 11557 80000 10098 20096 30054 40189 53017 69934 71022 8177/ 333 10115 20085 30007 56169 81730 88358="}, {"year": 2026, "month": 7, "day": 24, "hour": 11, "minute": 0, "report": "AAXX 24114 87468 41557 70503 10092 20090 30040 40175 53003 71022 83770 333 56160 83725 87358="}, {"year": 2026, "month": 7, "day": 24, "hour": 10, "minute": 0, "report": "AAXX 24104 87468 41458 80303 10094 20092 30034 40170 50002 71022 8567/ 333 56069 85715 88358="}, {"year": 2026, "month": 7, "day": 24, "hour": 9, "minute": 0, "report": "AAXX 24094 87468 41458 80702 10093 20091 30037 40172 53003 71022 886// 333 56099 88715="}, {"year": 2026, "month": 7, "day": 24, "hour": 0, "minute": 0, "report": "AAXX 24004 87468 11260 80507 10115 20103 30026 40162 57001 69931 70252 886// 333 10125 20081 56199 88706="}, {"year": 2026, "month": 7, "day": 23, "hour": 23, "minute": 0, "report": "AAXX 23234 87468 42260 80508 10115 20103 30028 40164 57003 886// 333 56199 88706="}, {"year": 2026, "month": 7, "day": 23, "hour": 22, "minute": 0, "report": "AAXX 23224 87468 41260 80504 10112 20102 30029 40165 57005 70252 886// 333 56199 88706="}, {"year": 2026, "month": 7, "day": 23, "hour": 21, "minute": 0, "report": "AAXX 23214 87468 41260 83605 10116 20106 30028 40164 56011 72052 886// 333 56199 88706="}, {"year": 2026, "month": 7, "day": 23, "hour": 20, "minute": 0, "report": "AAXX 23204 87468 41258 80208 10118 20108 30030 40166 57015 75055 886// 333 56199 88706="}, {"year": 2026, "month": 7, "day": 23, "hour": 19, "minute": 0, "report": "AAXX 23194 87468 41240 83607 10115 20107 30034 40170 56020 75155 886// 333 56199 88706="}, {"year": 2026, "month": 7, "day": 23, "hour": 18, "minute": 0, "report": "AAXX 23184 87468 11240 83609 10123 20100 30038 40175 56023 69901 75252 886// 333 56199 88706="}, {"year": 2026, "month": 7, "day": 23, "hour": 17, "minute": 0, "report": "AAXX 23174 87468 41358 80211 10124 20099 30045 40180 58013 75052 886// 333 56199 88708="}, {"year": 2026, "month": 7, "day": 23, "hour": 16, "minute": 0, "report": "AAXX 23164 87468 42360 80210 10124 20093 30054 40190 58007 886// 333 56199 88708="}, {"year": 2026, "month": 7, "day": 23, "hour": 15, "minute": 0, "report": "AAXX 23154 87468 42360 80513 10120 20092 30061 40197 55005 886// 333 56199 88708="}, {"year": 2026, "month": 7, "day": 23, "hour": 14, "minute": 0, "report": "AAXX 23144 87468 41358 60512 10113 20099 30058 40195 58008 71022 86700 333 56100 86708="}, {"year": 2026, "month": 7, "day": 23, "hour": 13, "minute": 0, "report": "AAXX 23134 87468 41356 60512 10095 20091 30061 40197 55001 71022 86700 333 56100 86708="}], "87022": [{"year": 2026, "month": 7, "day": 24, "hour": 12, "minute": 0, "report": "AAXX 24123 87022 31458 82702 10138 20120 39635 40154 5//// 71522 8577/ 333 10152 20132 56009 83710 85635="}, {"year": 2026, "month": 7, "day": 24, "hour": 0, "minute": 0, "report": "AAXX 24003 87022 11558 82705 10152 20107 39622 40143 52008 60001 70422 8457/ 333 10185 20122 56000 84630 88360="}, {"year": 2026, "month": 7, "day": 23, "hour": 21, "minute": 0, "report": "AAXX 23213 87022 41558 83602 10172 20092 39614 4//// 56007 70422 8457/ 333 56190 84630 88360="}, {"year": 2026, "month": 7, "day": 23, "hour": 18, "minute": 0, "report": "AAXX 23183 87022 11558 80505 10177 20075 39620 4//// 57044 60001 70422 8457/ 333 56190 84630 88360="}, {"year": 2026, "month": 7, "day": 23, "hour": 15, "minute": 0, "report": "AAXX 23153 87022 41558 80505 10154 20079 39664 4//// 57007 70422 8257/ 333 56990 82630 88360="}], "87571": [{"year": 2026, "month": 7, "day": 24, "hour": 13, "minute": 0, "report": "AAXX 24134 87571 42460 70305 10136 20110 30186 40201 52011 82676 333 56166 82715 85360 86270="}, {"year": 2026, "month": 7, "day": 24, "hour": 12, "minute": 0, "report": "AAXX 24124 87571 01960 70403 10129 20108 30182 40197 53008 69904 70152 85076 333 10141 20120 56066 69901 85360 86270="}, {"year": 2026, "month": 7, "day": 24, "hour": 11, "minute": 0, "report": "AAXX 24114 87571 42960 80603 10125 20108 30176 40191 51004 85077 333 56066 85360 88270="}, {"year": 2026, "month": 7, "day": 24, "hour": 10, "minute": 0, "report": "AAXX 24104 87571 42560 60505 10127 20108 30176 40191 55003 81570 333 56160 81620 86360="}, {"year": 2026, "month": 7, "day": 24, "hour": 9, "minute": 0, "report": "AAXX 24094 87571 41460 70204 10126 20111 30174 40189 55007 70252 87600 333 56100 87718="}, {"year": 2026, "month": 7, "day": 24, "hour": 8, "minute": 0, "report": "AAXX 24084 87571 41460 70306 10128 20109 30172 40187 58008 72052 87600 333 56100 84718 87630="}, {"year": 2026, "month": 7, "day": 24, "hour": 7, "minute": 0, "report": "AAXX 24074 87571 41459 83603 10131 20116 30178 40193 58003 75052 887// 333 56199 85718 88730="}, {"year": 2026, "month": 7, "day": 24, "hour": 6, "minute": 0, "report": "AAXX 24064 87571 12560 80305 10136 20104 30181 40196 53001 60001 885// 333 56199 88630="}, {"year": 2026, "month": 7, "day": 24, "hour": 5, "minute": 0, "report": "AAXX 24054 87571 42560 80505 10137 20103 30180 40194 50001 885// 333 56199 88630="}, {"year": 2026, "month": 7, "day": 24, "hour": 4, "minute": 0, "report": "AAXX 24044 87571 42560 70404 10136 20106 30181 40196 53003 87500 333 56100 87630="}, {"year": 2026, "month": 7, "day": 24, "hour": 3, "minute": 0, "report": "AAXX 24034 87571 42560 80304 10136 20102 30180 40195 54000 885// 333 56199 88630="}, {"year": 2026, "month": 7, "day": 24, "hour": 2, "minute": 0, "report": "AAXX 24024 87571 42560 70304 10134 20102 30178 40193 56001 87500 333 56100 87630="}, {"year": 2026, "month": 7, "day": 24, "hour": 1, "minute": 0, "report": "AAXX 24014 87571 42560 70204 10133 20098 30178 40193 58005 87500 333 56100 87630="}, {"year": 2026, "month": 7, "day": 24, "hour": 0, "minute": 0, "report": "AAXX 24004 87571 12560 70206 10133 20094 30180 40195 56004 60001 87500 333 10156 20108 56100 87630="}, {"year": 2026, "month": 7, "day": 23, "hour": 23, "minute": 0, "report": "AAXX 23234 87571 42560 60306 10129 20098 30180 40195 58004 86505 333 56106 81625 85630="}, {"year": 2026, "month": 7, "day": 23, "hour": 22, "minute": 0, "report": "AAXX 23224 87571 42560 60404 10136 20106 30184 40198 56001 85505 333 56107 85630 85270="}, {"year": 2026, "month": 7, "day": 23, "hour": 21, "minute": 0, "report": "AAXX 23214 87571 42560 60806 10133 20100 30184 40199 56001 85505 333 56206 85625 85270="}, {"year": 2026, "month": 7, "day": 23, "hour": 20, "minute": 0, "report": "AAXX 23204 87571 42560 50706 10144 20098 30184 40198 58007 84505 333 56106 84625 85270="}, {"year": 2026, "month": 7, "day": 23, "hour": 19, "minute": 0, "report": "AAXX 23194 87571 42560 70506 10147 20095 30185 40200 56013 87505 333 56107 81625 86630="}, {"year": 2026, "month": 7, "day": 23, "hour": 18, "minute": 0, "report": "AAXX 23184 87571 12560 60507 10149 20093 30185 40200 57028 60001 84105 333 56106 84822 83270="}, {"year": 2026, "month": 7, "day": 23, "hour": 17, "minute": 0, "report": "AAXX 23174 87571 42560 50207 10143 20086 30190 40205 57025 83105 333 56106 83820 83270="}, {"year": 2026, "month": 7, "day": 23, "hour": 16, "minute": 0, "report": "AAXX 23164 87571 42460 30509 10139 20084 30198 40213 57016 81505 333 56106 81615 83270="}, {"year": 2026, "month": 7, "day": 23, "hour": 15, "minute": 0, "report": "AAXX 23154 87571 42460 40608 10140 20083 30213 40228 58003 81505 333 56106 81615 84270="}, {"year": 2026, "month": 7, "day": 23, "hour": 14, "minute": 0, "report": "AAXX 23144 87571 42460 40608 10129 20083 30216 40230 54000 81505 333 56207 81615 84270="}, {"year": 2026, "month": 7, "day": 23, "hour": 13, "minute": 0, "report": "AAXX 23134 87571 42460 40608 10115 20089 30214 40229 58001 81505 333 56601 81612 84270="}], "87162": [{"year": 2026, "month": 7, "day": 24, "hour": 13, "minute": 0, "report": "AAXX 24134 87162 41370 81604 10162 20154 30100 40172 51025 72052 887// 333 56499 88708="}, {"year": 2026, "month": 7, "day": 24, "hour": 12, "minute": 0, "report": "AAXX 24124 87162 01315 82003 10156 20149 30098 40171 53024 69904 75285 887// 333 10163 20144 31014 56499 69901 88708 96010="}, {"year": 2026, "month": 7, "day": 24, "hour": 11, "minute": 0, "report": "AAXX 24114 87162 42570 81802 10154 20147 30086 40159 53009 8357/ 333 56469 83630 88360="}, {"year": 2026, "month": 7, "day": 24, "hour": 10, "minute": 0, "report": "AAXX 24104 87162 41970 81602 10151 20146 30074 40146 56004 70282 8807/ 333 56059 88360="}, {"year": 2026, "month": 7, "day": 24, "hour": 9, "minute": 0, "report": "AAXX 24094 87162 41370 81403 10151 20148 30074 40145 57006 72582 8177/ 333 56359 81708 88360="}, {"year": 2026, "month": 7, "day": 24, "hour": 8, "minute": 0, "report": "AAXX 24084 87162 42970 80000 10149 20138 30077 40148 57004 8807/ 333 56059 88360="}, {"year": 2026, "month": 7, "day": 24, "hour": 7, "minute": 0, "report": "AAXX 24074 87162 42970 81802 10149 20140 30078 40150 57004 86077 333 56055 86360 88270="}, {"year": 2026, "month": 7, "day": 24, "hour": 6, "minute": 0, "report": "AAXX 24064 87162 12970 81602 10148 20139 30080 40151 57008 60001 83077 333 56055 83360 88270="}, {"year": 2026, "month": 7, "day": 24, "hour": 5, "minute": 0, "report": "AAXX 24054 87162 42970 81402 10151 20139 30081 40152 57012 86077 333 56055 86360 88270="}, {"year": 2026, "month": 7, "day": 24, "hour": 4, "minute": 0, "report": "AAXX 24044 87162 42470 81405 10153 20141 30082 40154 58010 8177/ 333 56359 81710 88360="}, {"year": 2026, "month": 7, "day": 24, "hour": 3, "minute": 0, "report": "AAXX 24034 87162 42470 81406 10153 20139 30088 40160 58002 8177/ 333 56359 81710 88360="}, {"year": 2026, "month": 7, "day": 24, "hour": 2, "minute": 0, "report": "AAXX 24024 87162 42470 81406 10156 20142 30093 40165 52009 8577/ 333 56359 81710 84625 88360="}, {"year": 2026, "month": 7, "day": 24, "hour": 1, "minute": 0, "report": "AAXX 24014 87162 42470 81402 10160 20141 30092 40164 52005 887// 333 56399 81710 88625="}, {"year": 2026, "month": 7, "day": 24, "hour": 0, "minute": 0, "report": "AAXX 24004 87162 12470 81604 10163 20140 30090 40163 53004 60001 887// 333 10187 20131 56299 81710 88625="}, {"year": 2026, "month": 7, "day": 23, "hour": 23, "minute": 0, "report": "AAXX 23234 87162 42470 81404 10165 20137 30084 40156 56001 885// 333 56299 88618="}, {"year": 2026, "month": 7, "day": 23, "hour": 22, "minute": 0, "report": "AAXX 23224 87162 42570 81406 10169 20134 30086 40159 56003 885// 333 56299 88620="}, {"year": 2026, "month": 7, "day": 23, "hour": 21, "minute": 0, "report": "AAXX 23214 87162 81404 10175 20129 30086 40159 55003 885// 333 56299 88620="}, {"year": 2026, "month": 7, "day": 23, "hour": 20, "minute": 0, "report": "AAXX 23204 87162 42570 71605 10183 20128 30085 40157 56016 87500 333 56200 87620="}, {"year": 2026, "month": 7, "day": 23, "hour": 19, "minute": 0, "report": "AAXX 23194 87162 42570 71405 10182 20129 30089 40161 56023 86502 333 56207 86620="}, {"year": 2026, "month": 7, "day": 23, "hour": 18, "minute": 0, "report": "AAXX 23184 87162 11570 71106 10182 20129 30089 40161 57031 69901 70152 86501 333 56207 86620="}, {"year": 2026, "month": 7, "day": 23, "hour": 17, "minute": 0, "report": "AAXX 23174 87162 42470 81404 10179 20137 30101 40173 57021 885// 333 56299 88617="}, {"year": 2026, "month": 7, "day": 23, "hour": 16, "minute": 0, "report": "AAXX 23164 87162 42470 81403 10170 20133 30112 40184 56012 885// 333 56299 88613="}, {"year": 2026, "month": 7, "day": 23, "hour": 15, "minute": 0, "report": "AAXX 23154 87162 41470 71102 10160 20130 30120 40191 58001 70152 87530 333 56460 87612="}, {"year": 2026, "month": 7, "day": 23, "hour": 14, "minute": 0, "report": "AAXX 23144 87162 41370 81403 10151 20130 30122 40194 51003 72052 886// 333 56499 88708="}, {"year": 2026, "month": 7, "day": 23, "hour": 13, "minute": 0, "report": "AAXX 23134 87162 41370 82005 10139 20132 30124 40196 51007 70252 886// 333 56499 88707="}], "87345": [{"year": 2026, "month": 7, "day": 24, "hour": 13, "minute": 0, "report": "AAXX 24134 87345 42460 82303 10100 20074 39689 40192 52024 886// 333 56499 84710 88715="}, {"year": 2026, "month": 7, "day": 24, "hour": 12, "minute": 0, "report": "AAXX 24124 87345 12360 82304 10096 20074 39680 40183 52031 69904 886// 333 10100 20075 56499 84708 88712="}, {"year": 2026, "month": 7, "day": 24, "hour": 11, "minute": 0, "report": "AAXX 24114 87345 42460 82303 10094 20072 39672 40174 52021 886// 333 56099 84710 84630="}, {"year": 2026, "month": 7, "day": 24, "hour": 10, "minute": 0, "report": "AAXX 24104 87345 42560 81802 10090 20076 39665 40166 53016 885// 333 56099 88630="}, {"year": 2026, "month": 7, "day": 24, "hour": 9, "minute": 0, "report": "AAXX 24094 87345 42560 81803 10090 20076 39649 40148 58001 885// 333 56099 88630="}, {"year": 2026, "month": 7, "day": 24, "hour": 8, "minute": 0, "report": "AAXX 24084 87345 42560 80502 10092 20074 39650 40148 54000 885// 333 56099 88630="}, {"year": 2026, "month": 7, "day": 24, "hour": 7, "minute": 0, "report": "AAXX 24074 87345 42560 80904 10090 20069 39649 40147 54000 885// 333 56099 88630="}, {"year": 2026, "month": 7, "day": 24, "hour": 6, "minute": 0, "report": "AAXX 24064 87345 12560 80504 10090 20069 39650 40148 56007 60001 885// 333 56099 88630="}, {"year": 2026, "month": 7, "day": 24, "hour": 5, "minute": 0, "report": "AAXX 24054 87345 42560 80906 10082 20056 39650 40150 55008 885// 333 56099 88630="}, {"year": 2026, "month": 7, "day": 24, "hour": 4, "minute": 0, "report": "AAXX 24044 87345 42560 70505 10080 20056 39649 40150 58012 82570 333 56000 82630 85360="}, {"year": 2026, "month": 7, "day": 24, "hour": 3, "minute": 0, "report": "AAXX 24034 87345 42560 80504 10086 20063 39657 40158 50003 885// 333 56099 88630="}, {"year": 2026, "month": 7, "day": 24, "hour": 2, "minute": 0, "report": "AAXX 24024 87345 42460 80205 10094 20072 39658 40161 50008 8467/ 333 56009 81710 83630="}, {"year": 2026, "month": 7, "day": 24, "hour": 1, "minute": 0, "report": "AAXX 24014 87345 42460 80504 10096 20074 39661 40163 52016 886// 333 56899 83710 85630="}, {"year": 2026, "month": 7, "day": 24, "hour": 0, "minute": 0, "report": "AAXX 24004 87345 12560 70905 10099 20073 39654 40157 52009 60001 83506 333 10148 20094 56000 83630 87270="}, {"year": 2026, "month": 7, "day": 23, "hour": 23, "minute": 0, "report": "AAXX 23234 87345 42560 70703 10104 20074 39650 40153 53008 84570 333 56000 84630 83360="}, {"year": 2026, "month": 7, "day": 23, "hour": 22, "minute": 0, "report": "AAXX 23224 87345 42960 80207 10114 20072 39645 40146 56003 80006 333 56006 88270="}, {"year": 2026, "month": 7, "day": 23, "hour": 21, "minute": 0, "report": "AAXX 23214 87345 42960 80505 10126 20074 39645 40146 55005 80006 333 56006 88270="}, {"year": 2026, "month": 7, "day": 23, "hour": 20, "minute": 0, "report": "AAXX 23204 87345 42560 60507 10128 20075 39642 40142 57016 81606 333 56806 81720 85270="}, {"year": 2026, "month": 7, "day": 23, "hour": 19, "minute": 0, "report": "AAXX 23194 87345 42560 60506 10144 20076 39648 40147 57023 83606 333 56806 83720 83270="}, {"year": 2026, "month": 7, "day": 23, "hour": 18, "minute": 0, "report": "AAXX 23184 87345 11560 80506 10140 20071 39650 40149 57032 69901 70252 85706 333 56406 85720 88270="}, {"year": 2026, "month": 7, "day": 23, "hour": 17, "minute": 0, "report": "AAXX 23174 87345 42560 80706 10140 20071 39658 40158 57032 85706 333 56406 85720 83270="}, {"year": 2026, "month": 7, "day": 23, "hour": 16, "minute": 0, "report": "AAXX 23164 87345 42460 80707 10121 20082 39670 40171 57021 887// 333 56899 88716="}, {"year": 2026, "month": 7, "day": 23, "hour": 15, "minute": 0, "report": "AAXX 23154 87345 41460 70505 10116 20078 39682 40183 57013 70152 87700 333 56800 87716="}, {"year": 2026, "month": 7, "day": 23, "hour": 14, "minute": 0, "report": "AAXX 23144 87345 41460 83606 10100 20080 39690 40194 50000 72055 887// 333 88716="}, {"year": 2026, "month": 7, "day": 23, "hour": 13, "minute": 0, "report": "AAXX 23134 87345 41460 80506 10096 20074 39692 40196 50001 72055 886// 333 88715="}], "87860": [{"year": 2026, "month": 7, "day": 24, "hour": 13, "minute": 0, "report": "AAXX 24134 87860 42980 62306 10048 20004 30014 40072 52005 83076 333 56066 83360 85270="}, {"year": 2026, "month": 7, "day": 24, "hour": 12, "minute": 0, "report": "AAXX 24124 87860 12980 52704 10039 21001 30014 40071 52009 60064 82056 333 10045 20009 56066 82360 85270="}, {"year": 2026, "month": 7, "day": 24, "hour": 11, "minute": 0, "report": "AAXX 24114 87860 42980 52502 10020 20004 30010 40068 52008 80006 333 56006 85270="}, {"year": 2026, "month": 7, "day": 24, "hour": 10, "minute": 0, "report": "AAXX 24104 87860 42980 30502 10023 20007 30009 40066 52005 80006 333 56006 83270="}, {"year": 2026, "month": 7, "day": 24, "hour": 9, "minute": 0, "report": "AAXX 24094 87860 42980 53503 10020 20007 30005 40062 53004 81046 333 56076 57397 81360 85270="}, {"year": 2026, "month": 7, "day": 24, "hour": 8, "minute": 0, "report": "AAXX 24084 87860 42980 49901 10033 20015 30002 40060 55001 81044 333 56076 57397 81360 83070="}, {"year": 2026, "month": 7, "day": 24, "hour": 7, "minute": 0, "report": "AAXX 24074 87860 42980 49903 10028 20004 30004 40061 55001 82044 333 56076 57397 82360 83070="}, {"year": 2026, "month": 7, "day": 24, "hour": 6, "minute": 0, "report": "AAXX 24064 87860 12980 42203 10036 20010 30001 40058 57001 60001 83031 333 56056 83360="}, {"year": 2026, "month": 7, "day": 24, "hour": 5, "minute": 0, "report": "AAXX 24054 87860 42980 42408 10043 20012 30004 40061 50001 84070 333 56050 84360="}, {"year": 2026, "month": 7, "day": 24, "hour": 4, "minute": 0, "report": "AAXX 24044 87860 42980 42510 10038 20012 30005 40062 52005 84070 333 56050 84360="}, {"year": 2026, "month": 7, "day": 24, "hour": 3, "minute": 0, "report": "AAXX 24034 87860 42980 33206 10040 20020 30002 40060 54000 83030 333 56060 83360="}, {"year": 2026, "month": 7, "day": 24, "hour": 2, "minute": 0, "report": "AAXX 24024 87860 42780 59902 10038 20023 30002 40060 54000 85020 333 56060 85550="}, {"year": 2026, "month": 7, "day": 24, "hour": 1, "minute": 0, "report": "AAXX 24014 87860 41780 52906 10040 20023 30000 40057 57003 70162 81720 333 56560 81750 84557="}, {"year": 2026, "month": 7, "day": 24, "hour": 0, "minute": 0, "report": "AAXX 24004 87860 11460 72904 10036 20024 30002 40059 57005 60041 72162 82720 333 10045 20008 56560 82715 86548="}, {"year": 2026, "month": 7, "day": 23, "hour": 23, "minute": 0, "report": "AAXX 23234 87860 41460 82903 10036 20031 30002 40060 57012 76066 8462/ 333 56569 84713 88540="}, {"year": 2026, "month": 7, "day": 23, "hour": 22, "minute": 0, "report": "AAXX 23224 87860 41440 89902 10037 20030 30002 40060 57016 76366 8662/ 333 56569 86712 88530="}, {"year": 2026, "month": 7, "day": 23, "hour": 21, "minute": 0, "report": "AAXX 23214 87860 41465 82301 10042 20037 30008 40065 57023 76166 8662/ 333 56469 86713 88550="}, {"year": 2026, "month": 7, "day": 23, "hour": 20, "minute": 0, "report": "AAXX 23204 87860 41460 82303 10040 20033 30014 40072 57024 76166 8662/ 333 56469 86716 88547="}, {"year": 2026, "month": 7, "day": 23, "hour": 19, "minute": 0, "report": "AAXX 23194 87860 41458 82302 10039 20032 30018 40076 57036 76366 8562/ 333 56459 85713 88547="}, {"year": 2026, "month": 7, "day": 23, "hour": 18, "minute": 0, "report": "AAXX 23184 87860 11460 82703 10035 20028 30030 40087 57032 60031 76166 8662/ 333 56459 86711 88550="}, {"year": 2026, "month": 7, "day": 23, "hour": 17, "minute": 0, "report": "AAXX 23174 87860 41458 82302 10034 20021 30038 40095 57028 76166 8662/ 333 56459 86712 88545="}, {"year": 2026, "month": 7, "day": 23, "hour": 16, "minute": 0, "report": "AAXX 23164 87860 41565 82901 10032 20019 30054 40112 57020 76166 8652/ 333 56579 86620 88550="}, {"year": 2026, "month": 7, "day": 23, "hour": 15, "minute": 0, "report": "AAXX 23154 87860 41570 82703 10029 20016 30062 40120 57012 76166 8552/ 333 56579 85625 88550="}, {"year": 2026, "month": 7, "day": 23, "hour": 14, "minute": 0, "report": "AAXX 23144 87860 41570 82302 10026 20005 30066 40125 58008 76066 8452/ 333 56579 84625 88545="}, {"year": 2026, "month": 7, "day": 23, "hour": 13, "minute": 0, "report": "AAXX 23134 87860 41470 82202 10018 20007 30074 40132 56004 76062 8562/ 333 56379 82715 84635 88550="}], "87043": [{"year": 2026, "month": 7, "day": 24, "hour": 13, "minute": 0, "report": "AAXX 24134 87043 41558 80902 10086 20060 38709 48503 52023 71022 885// 333 56299 88625="}, {"year": 2026, "month": 7, "day": 24, "hour": 12, "minute": 0, "report": "AAXX 24124 87043 31558 83202 10081 20059 38700 48494 52020 71022 885// 333 10096 20079 56099 88625="}, {"year": 2026, "month": 7, "day": 24, "hour": 11, "minute": 0, "report": "AAXX 24114 87043 41557 80000 10080 20062 38692 48487 51013 71022 885// 333 56099 88625="}, {"year": 2026, "month": 7, "day": 24, "hour": 10, "minute": 0, "report": "AAXX 24104 87043 41558 81802 10083 20059 38686 48482 51006 71022 885// 333 56399 88625="}, {"year": 2026, "month": 7, "day": 24, "hour": 9, "minute": 0, "report": "AAXX 24094 87043 41558 80000 10085 20061 38680 48476 56002 71022 885// 333 56099 88625="}, {"year": 2026, "month": 7, "day": 24, "hour": 1, "minute": 0, "report": "AAXX 24014 87043 42560 80902 10095 20070 38694 48490 51011 885// 333 56299 88625="}, {"year": 2026, "month": 7, "day": 24, "hour": 0, "minute": 0, "report": "AAXX 24004 87043 12560 80902 10096 20071 38690 48486 51009 60001 885// 333 10124 20088 56299 88625="}, {"year": 2026, "month": 7, "day": 23, "hour": 23, "minute": 0, "report": "AAXX 23234 87043 42560 81402 10098 20069 38686 48483 51012 885// 333 56399 88630="}, {"year": 2026, "month": 7, "day": 23, "hour": 22, "minute": 0, "report": "AAXX 23224 87043 42560 81402 10100 20069 38684 48480 51008 885// 333 56399 88625="}, {"year": 2026, "month": 7, "day": 23, "hour": 21, "minute": 0, "report": "AAXX 23214 87043 42560 81402 10105 20066 38681 48477 51007 885// 333 56399 88625="}, {"year": 2026, "month": 7, "day": 23, "hour": 20, "minute": 0, "report": "AAXX 23204 87043 41560 81405 10112 20074 38674 48471 57011 70522 885// 333 56399 88620="}, {"year": 2026, "month": 7, "day": 23, "hour": 19, "minute": 0, "report": "AAXX 23194 87043 41560 81405 10122 20077 38676 48473 57021 70522 885// 333 56399 88620="}, {"year": 2026, "month": 7, "day": 23, "hour": 18, "minute": 0, "report": "AAXX 23184 87043 11560 81405 10122 20077 38674 48471 57031 60001 70522 885// 333 56399 88620="}, {"year": 2026, "month": 7, "day": 23, "hour": 17, "minute": 0, "report": "AAXX 23174 87043 41560 81405 10114 20072 38685 48481 57031 70522 885// 333 56299 88620="}, {"year": 2026, "month": 7, "day": 23, "hour": 16, "minute": 0, "report": "AAXX 23164 87043 42565 81402 10114 20072 38697 48493 57020 885// 333 56399 88622="}, {"year": 2026, "month": 7, "day": 23, "hour": 15, "minute": 0, "report": "AAXX 23154 87043 42565 81402 10108 20072 38705 48500 57007 885// 333 56399 88622="}, {"year": 2026, "month": 7, "day": 23, "hour": 14, "minute": 0, "report": "AAXX 23144 87043 42560 80902 10101 20076 38716 48511 51003 885// 333 56299 88625="}, {"year": 2026, "month": 7, "day": 23, "hour": 13, "minute": 0, "report": "AAXX 23134 87043 42560 80902 10092 20073 38717 48512 51008 885// 333 56299 88625="}], "87344": [{"year": 2026, "month": 7, "day": 24, "hour": 13, "minute": 0, "report": "AAXX 24134 87344 42465 62109 10095 20062 39605 40194 52024 82676 333 56566 82710 83360 86270="}, {"year": 2026, "month": 7, "day": 24, "hour": 12, "minute": 0, "report": "AAXX 24124 87344 32365 62307 10082 20072 39598 40187 52033 84676 333 10087 20064 56566 84709 83360 86270="}, {"year": 2026, "month": 7, "day": 24, "hour": 11, "minute": 0, "report": "AAXX 24114 87344 42365 82004 10082 20070 39589 40179 52075 886// 333 56499 88707="}, {"year": 2026, "month": 7, "day": 24, "hour": 10, "minute": 0, "report": "AAXX 24104 87344 42365 81806 10080 20070 39581 40169 52015 886// 333 56499 88707="}, {"year": 2026, "month": 7, "day": 24, "hour": 9, "minute": 0, "report": "AAXX 24094 87344 42362 81807 10065 20059 39565 40151 51003 885// 333 56099 88609="}, {"year": 2026, "month": 7, "day": 24, "hour": 8, "minute": 0, "report": "AAXX 24084 87344 42760 82303 10076 20059 39514 40096 58053 885// 333 56099 88650="}, {"year": 2026, "month": 7, "day": 24, "hour": 7, "minute": 0, "report": "AAXX 24074 87344 42562 80000 10084 20065 39566 40150 56001 885// 333 56099 88625="}, {"year": 2026, "month": 7, "day": 24, "hour": 6, "minute": 0, "report": "AAXX 24064 87344 12762 80505 10083 20064 39562 40146 57011 60001 885// 333 56099 88650="}, {"year": 2026, "month": 7, "day": 24, "hour": 5, "minute": 0, "report": "AAXX 24054 87344 42562 80508 10081 20069 39568 40151 57011 885// 333 56099 88625="}, {"year": 2026, "month": 7, "day": 24, "hour": 4, "minute": 0, "report": "AAXX 24044 87344 42562 80507 10075 20064 39568 40152 57011 885// 333 56099 88625="}, {"year": 2026, "month": 7, "day": 24, "hour": 3, "minute": 0, "report": "AAXX 24034 87344 42562 70504 10070 20055 39573 40160 52007 83570 333 56000 83621 87360="}, {"year": 2026, "month": 7, "day": 24, "hour": 2, "minute": 0, "report": "AAXX 24024 87344 42462 80207 10083 20062 39578 40165 52005 885// 333 56099 88619="}, {"year": 2026, "month": 7, "day": 24, "hour": 1, "minute": 0, "report": "AAXX 24014 87344 42462 80205 10086 20067 39578 40167 52015 885// 333 56099 88619="}, {"year": 2026, "month": 7, "day": 24, "hour": 0, "minute": 0, "report": "AAXX 24004 87344 12762 50208 10087 20071 39566 40155 51003 60001 85500 333 10129 20076 56000 85650="}, {"year": 2026, "month": 7, "day": 23, "hour": 23, "minute": 0, "report": "AAXX 23234 87344 42562 20505 10077 20053 39573 40163 52015 82500 333 56000 82624="}, {"year": 2026, "month": 7, "day": 23, "hour": 22, "minute": 0, "report": "AAXX 23224 87344 42562 40506 10095 20064 39564 40152 57003 84500 333 56000 84623="}, {"year": 2026, "month": 7, "day": 23, "hour": 21, "minute": 0, "report": "AAXX 23214 87344 42965 50515 10116 20074 39564 40150 55004 82074 333 56077 82360 85070="}, {"year": 2026, "month": 7, "day": 23, "hour": 20, "minute": 0, "report": "AAXX 23204 87344 42565 60513 10118 20072 39558 40144 57016 82624 333 56177 82722 85070="}, {"year": 2026, "month": 7, "day": 23, "hour": 19, "minute": 0, "report": "AAXX 23194 87344 42565 60513 10118 20067 39566 40152 55020 83624 333 56177 83723 83560 85070="}, {"year": 2026, "month": 7, "day": 23, "hour": 18, "minute": 0, "report": "AAXX 23184 87344 11565 60516 10125 20071 39568 40153 57032 60001 70252 82624 333 56177 82728 83560 85070="}, {"year": 2026, "month": 7, "day": 23, "hour": 17, "minute": 0, "report": "AAXX 23174 87344 42565 60515 10128 20068 39574 40160 57029 82704 333 56107 82721 85070="}, {"year": 2026, "month": 7, "day": 23, "hour": 16, "minute": 0, "report": "AAXX 23164 87344 42465 60222 10126 20074 39586 40172 57024 84704 333 56107 84715 85070="}, {"year": 2026, "month": 7, "day": 23, "hour": 15, "minute": 0, "report": "AAXX 23154 87344 41356 80212 10104 20078 39600 40188 57011 71052 887// 333 56199 85709 88732="}, {"year": 2026, "month": 7, "day": 23, "hour": 14, "minute": 0, "report": "AAXX 23144 87344 41357 80412 10094 20078 39604 40193 58007 72052 887// 333 56099 84707 87635 96010="}, {"year": 2026, "month": 7, "day": 23, "hour": 13, "minute": 0, "report": "AAXX 23134 87344 41425 80309 10080 20067 39610 40202 52004 75052 886// 333 56099 88711 96010="}], "87448": [{"year": 2026, "month": 7, "day": 24, "hour": 13, "minute": 0, "report": "AAXX 24134 87448 42960 73203 10050 20034 39624 40209 52025 80006 333 56006 87270="}, {"year": 2026, "month": 7, "day": 24, "hour": 12, "minute": 0, "report": "AAXX 24124 87448 31958 73205 10031 20026 39614 40202 52017 71022 80006 333 10078 20000 56006 87270="}, {"year": 2026, "month": 7, "day": 24, "hour": 11, "minute": 0, "report": "AAXX 24114 87448 42960 62706 10019 20016 39612 40198 52017 80006 333 56006 86270="}, {"year": 2026, "month": 7, "day": 24, "hour": 10, "minute": 0, "report": "AAXX 24104 87448 42960 53204 10009 20001 39598 40180 51007 80006 333 56006 85270="}, {"year": 2026, "month": 7, "day": 24, "hour": 9, "minute": 0, "report": "AAXX 24094 87448 42960 53604 10013 20005 39597 40176 52007 80006 333 56006 85270="}, {"year": 2026, "month": 7, "day": 24, "hour": 8, "minute": 0, "report": "AAXX 24084 87448 42960 53202 10017 20004 39594 40177 54000 80006 333 56006 85270="}, {"year": 2026, "month": 7, "day": 24, "hour": 7, "minute": 0, "report": "AAXX 24074 87448 42960 53202 10022 20007 39592 40169 51011 80006 333 56006 85270="}, {"year": 2026, "month": 7, "day": 24, "hour": 6, "minute": 0, "report": "AAXX 24064 87448 12960 53202 10028 20013 39590 40168 50013 60001 80006 333 56006 85270="}, {"year": 2026, "month": 7, "day": 24, "hour": 5, "minute": 0, "report": "AAXX 24054 87448 42960 63602 10040 20015 39594 40169 52011 80006 333 56006 86270="}, {"year": 2026, "month": 7, "day": 24, "hour": 4, "minute": 0, "report": "AAXX 24044 87448 42960 60504 10044 20020 39581 40157 52009 80006 333 56006 86270="}, {"year": 2026, "month": 7, "day": 24, "hour": 3, "minute": 0, "report": "AAXX 24034 87448 42960 53604 10054 20026 39577 40156 50009 80006 333 56006 85270="}, {"year": 2026, "month": 7, "day": 24, "hour": 2, "minute": 0, "report": "AAXX 24024 87448 42960 32706 10062 20034 39584 40164 52019 80005 333 56006 83270="}, {"year": 2026, "month": 7, "day": 24, "hour": 1, "minute": 0, "report": "AAXX 24014 87448 42960 32406 10078 20040 39572 40153 52015 80005 333 56006 83270="}, {"year": 2026, "month": 7, "day": 24, "hour": 0, "minute": 0, "report": "AAXX 24004 87448 12960 33303 10069 20035 39568 40154 53011 60001 80005 333 10163 20006 56006 83270="}, {"year": 2026, "month": 7, "day": 23, "hour": 23, "minute": 0, "report": "AAXX 23234 87448 42960 30103 10091 20050 39565 40150 53008 80005 333 56006 83270="}, {"year": 2026, "month": 7, "day": 23, "hour": 22, "minute": 0, "report": "AAXX 23224 87448 42960 53603 10124 20051 39557 40138 51003 80005 333 56006 85270="}, {"year": 2026, "month": 7, "day": 23, "hour": 21, "minute": 0, "report": "AAXX 23214 87448 42960 53504 10149 20045 39557 40133 56005 82076 333 56056 82360 85270="}, {"year": 2026, "month": 7, "day": 23, "hour": 20, "minute": 0, "report": "AAXX 23204 87448 42960 53510 10109 20098 39557 40136 55012 82076 333 56066 82360 85270="}, {"year": 2026, "month": 7, "day": 23, "hour": 19, "minute": 0, "report": "AAXX 23194 87448 42560 53514 10157 20038 39554 40128 57024 82576 333 56776 82630 83360 85270="}, {"year": 2026, "month": 7, "day": 23, "hour": 18, "minute": 0, "report": "AAXX 23184 87448 12560 53517 10157 20043 39562 40138 52027 60001 83630 85270="}, {"year": 2026, "month": 7, "day": 23, "hour": 17, "minute": 0, "report": "AAXX 23174 87448 42560 53415 10159 20043 39569 40143 57025 83575 333 56655 83625 84360="}, {"year": 2026, "month": 7, "day": 23, "hour": 16, "minute": 0, "report": "AAXX 23164 87448 42560 60412 10139 20058 39578 40157 58012 82516 333 56655 82625 84460="}, {"year": 2026, "month": 7, "day": 23, "hour": 15, "minute": 0, "report": "AAXX 23154 87448 42960 60410 10104 20078 39589 40170 50003 84016 333 56055 84460 85270="}, {"year": 2026, "month": 7, "day": 23, "hour": 14, "minute": 0, "report": "AAXX 23144 87448 42560 60505 10085 20062 39594 40177 53005 81576 333 56550 81625 85270="}, {"year": 2026, "month": 7, "day": 23, "hour": 13, "minute": 0, "report": "AAXX 23134 87448 42960 80705 10055 20041 39590 40175 53001 84076 333 56050 84360 86270="}], "87129": [{"year": 2026, "month": 7, "day": 24, "hour": 13, "minute": 0, "report": "AAXX 24134 87129 42960 00203 10146 20092 39938 40175 52024="}, {"year": 2026, "month": 7, "day": 24, "hour": 12, "minute": 0, "report": "AAXX 24124 87129 32560 42902 10104 20079 39933 40172 52019 84650 333 10137 20098 56260 84720 84360="}, {"year": 2026, "month": 7, "day": 24, "hour": 11, "minute": 0, "report": "AAXX 24114 87129 42560 70702 10116 20092 39922 40161 52012 84650 333 56260 84720 87360="}, {"year": 2026, "month": 7, "day": 24, "hour": 10, "minute": 0, "report": "AAXX 24104 87129 42560 80803 10119 20089 39914 40152 51004 8467/ 333 56279 84720 87360="}, {"year": 2026, "month": 7, "day": 24, "hour": 9, "minute": 0, "report": "AAXX 24094 87129 42560 81002 10120 20088 39914 40150 53008 8467/ 333 56279 84720 87360="}, {"year": 2026, "month": 7, "day": 24, "hour": 8, "minute": 0, "report": "AAXX 24084 87129 42560 80903 10124 20095 39910 40147 51008 8467/ 333 56279 84720 87360="}, {"year": 2026, "month": 7, "day": 24, "hour": 7, "minute": 0, "report": "AAXX 24074 87129 42960 81102 10131 20096 39910 40145 55000 8807/ 333 56079 88360="}, {"year": 2026, "month": 7, "day": 24, "hour": 6, "minute": 0, "report": "AAXX 24064 87129 12960 81002 10131 20098 39906 40142 55011 60001 8807/ 333 56079 88360="}, {"year": 2026, "month": 7, "day": 24, "hour": 5, "minute": 0, "report": "AAXX 24054 87129 42960 80602 10125 20087 39902 40138 58011 8807/ 333 56079 88360="}, {"year": 2026, "month": 7, "day": 24, "hour": 4, "minute": 0, "report": "AAXX 24044 87129 42960 80403 10126 20089 39910 40147 58003 8807/ 333 56079 88360="}, {"year": 2026, "month": 7, "day": 24, "hour": 3, "minute": 0, "report": "AAXX 24034 87129 42960 80602 10124 20095 39917 40155 53007 8807/ 333 56079 88360="}, {"year": 2026, "month": 7, "day": 24, "hour": 2, "minute": 0, "report": "AAXX 24024 87129 42960 80602 10129 20096 39913 40151 51001 8807/ 333 56079 88360="}, {"year": 2026, "month": 7, "day": 24, "hour": 1, "minute": 0, "report": "AAXX 24014 87129 42960 83603 10132 20095 39913 40152 52003 8807/ 333 56079 88360="}, {"year": 2026, "month": 7, "day": 24, "hour": 0, "minute": 0, "report": "AAXX 24004 87129 12960 73203 10126 20099 39910 40149 50003 60001 87070 333 10177 20094 56070 87360="}, {"year": 2026, "month": 7, "day": 23, "hour": 23, "minute": 0, "report": "AAXX 23234 87129 42960 72802 10140 20106 39912 40150 52011 87070 333 56070 87360="}, {"year": 2026, "month": 7, "day": 23, "hour": 22, "minute": 0, "report": "AAXX 23224 87129 42960 83203 10154 20088 39910 40148 53004 8807/ 333 56079 88360="}, {"year": 2026, "month": 7, "day": 23, "hour": 21, "minute": 0, "report": "AAXX 23214 87129 42960 82904 10162 20089 39908 40145 55008 8807/ 333 56079 88360="}, {"year": 2026, "month": 7, "day": 23, "hour": 20, "minute": 0, "report": "AAXX 23204 87129 42960 73604 10168 20083 39901 40138 57025 83076 333 56076 83360 86270="}, {"year": 2026, "month": 7, "day": 23, "hour": 19, "minute": 0, "report": "AAXX 23194 87129 42660 70204 10173 20087 39906 40143 57036 81576 333 56176 81640 86270="}, {"year": 2026, "month": 7, "day": 23, "hour": 18, "minute": 0, "report": "AAXX 23184 87129 12660 70206 10170 20090 39916 40153 57040 60001 81276 333 56176 81640 83360="}, {"year": 2026, "month": 7, "day": 23, "hour": 17, "minute": 0, "report": "AAXX 23174 87129 42660 70507 10156 20084 39926 40164 57036 81576 333 56176 81640 86270="}, {"year": 2026, "month": 7, "day": 23, "hour": 16, "minute": 0, "report": "AAXX 23164 87129 42660 70206 10146 20078 39942 40183 57021 84576 333 56176 84640 83270="}, {"year": 2026, "month": 7, "day": 23, "hour": 15, "minute": 0, "report": "AAXX 23154 87129 42660 80506 10124 20075 39956 40198 57011 8757/ 333 56179 87640 84360="}, {"year": 2026, "month": 7, "day": 23, "hour": 14, "minute": 0, "report": "AAXX 23144 87129 42560 80205 10108 20075 39962 40206 50000 8757/ 333 56179 82630 86645="}, {"year": 2026, "month": 7, "day": 23, "hour": 13, "minute": 0, "report": "AAXX 23134 87129 42560 83404 10096 20073 39964 40207 50005 8857/ 333 56179 84630 85645="}], "87938": [{"year": 2026, "month": 7, "day": 24, "hour": 13, "minute": 0, "report": "AAXX 24134 87938 42980 53607 11038 21071 30029 40102 57001 81076 333 56099 81360 85270 95000="}, {"year": 2026, "month": 7, "day": 24, "hour": 12, "minute": 0, "report": "AAXX 24124 87938 32980 30205 11035 21067 30026 40100 57005 80005 333 11020 21043 56009 83270 95000="}, {"year": 2026, "month": 7, "day": 24, "hour": 11, "minute": 0, "report": "AAXX 24114 87938 42980 03608 11030 21073 30029 40101 56008 333 95000="}, {"year": 2026, "month": 7, "day": 24, "hour": 10, "minute": 0, "report": "AAXX 24104 87938 42980 03606 11035 21075 30030 40102 56015 333 95000="}, {"year": 2026, "month": 7, "day": 24, "hour": 9, "minute": 0, "report": "AAXX 24094 87938 42980 03406 11040 21069 30032 40104 57015 333 95000="}, {"year": 2026, "month": 7, "day": 24, "hour": 8, "minute": 0, "report": "AAXX 24084 87938 42980 03406 11036 21064 30037 40109 57016 333 95000="}, {"year": 2026, "month": 7, "day": 24, "hour": 7, "minute": 0, "report": "AAXX 24074 87938 42980 03408 11035 21067 30045 40117 57013 333 95000="}, {"year": 2026, "month": 7, "day": 24, "hour": 6, "minute": 0, "report": "AAXX 24064 87938 12980 03408 11034 21062 30046 40119 57015 60001 333 95000="}, {"year": 2026, "month": 7, "day": 24, "hour": 5, "minute": 0, "report": "AAXX 24054 87938 42980 43408 11035 21067 30053 40125 57009 80006 333 56006 84270 95000="}, {"year": 2026, "month": 7, "day": 24, "hour": 4, "minute": 0, "report": "AAXX 24044 87938 42980 43407 11032 21060 30058 40130 57004 80006 333 56006 84270 95000="}, {"year": 2026, "month": 7, "day": 24, "hour": 3, "minute": 0, "report": "AAXX 24034 87938 42980 03407 11029 21060 30061 40133 56004 333 95000="}, {"year": 2026, "month": 7, "day": 24, "hour": 2, "minute": 0, "report": "AAXX 24024 87938 42980 03408 11027 21058 30062 40135 55007 333 95000="}, {"year": 2026, "month": 7, "day": 24, "hour": 1, "minute": 0, "report": "AAXX 24014 87938 42980 03408 11022 21048 30062 40135 58007 333 95000="}, {"year": 2026, "month": 7, "day": 24, "hour": 0, "minute": 0, "report": "AAXX 24004 87938 12980 03408 11025 21048 30065 40137 57009 60001 333 10025 21025 95000="}, {"year": 2026, "month": 7, "day": 23, "hour": 23, "minute": 0, "report": "AAXX 23234 87938 42980 43409 11021 21046 30069 40141 56005 80006 333 56006 84270 95000="}, {"year": 2026, "month": 7, "day": 23, "hour": 22, "minute": 0, "report": "AAXX 23224 87938 42980 43205 11014 21047 30069 40141 56009 80006 333 56006 84270 95000="}, {"year": 2026, "month": 7, "day": 23, "hour": 21, "minute": 0, "report": "AAXX 23214 87938 42980 13404 11002 21045 30074 40146 55008 80005 333 56009 81270 92739 92831 95000="}, {"year": 2026, "month": 7, "day": 23, "hour": 20, "minute": 0, "report": "AAXX 23204 87938 41970 13204 10000 21044 30074 40147 57013 71000 80005 333 56009 81270 92739 92831 95000="}, {"year": 2026, "month": 7, "day": 23, "hour": 19, "minute": 0, "report": "AAXX 23194 87938 41670 13201 10020 21037 30078 40151 57016 71000 81505 333 56606 81648 92739 92831 95000="}, {"year": 2026, "month": 7, "day": 23, "hour": 18, "minute": 0, "report": "AAXX 23184 87938 11670 13604 10022 21045 30082 40154 58013 60001 71000 81500 333 56600 81645 92739 92831 95000="}, {"year": 2026, "month": 7, "day": 23, "hour": 17, "minute": 0, "report": "AAXX 23174 87938 41670 13606 10021 21043 30088 40160 58005 71000 81500 333 56600 81645 92739 92831 95000="}, {"year": 2026, "month": 7, "day": 23, "hour": 16, "minute": 0, "report": "AAXX 23164 87938 41670 13202 10015 21036 30094 40166 50003 71000 81500 333 56600 81645 92739 92831 95012="}, {"year": 2026, "month": 7, "day": 23, "hour": 15, "minute": 0, "report": "AAXX 23154 87938 42680 13403 10010 21029 30096 40168 53001 81500="}, {"year": 2026, "month": 7, "day": 23, "hour": 14, "minute": 0, "report": "AAXX 23144 87938 42680 13203 11002 21041 30093 40165 54000 81500 333 56600 81642 92739 92831 95015="}, {"year": 2026, "month": 7, "day": 23, "hour": 13, "minute": 0, "report": "AAXX 23134 87938 42680 22906 10000 21034 30092 40164 50001 81501 333 56606 81645 92739 92831 95015="}], "87912": [{"year": 2026, "month": 7, "day": 24, "hour": 12, "minute": 0, "report": "AAXX 24123 87912 01310 80205 10015 20015 39906 40045 57001 60114 76164 8862/ 333 10032 20014 56009 60112 87509 88710 96046="}, {"year": 2026, "month": 7, "day": 24, "hour": 0, "minute": 0, "report": "AAXX 24003 87912 11430 81115 10010 21016 39968 40109 57015 60001 7414/ 8777/ 333 10012 21048 56119 87710 88360="}, {"year": 2026, "month": 7, "day": 23, "hour": 18, "minute": 0, "report": "AAXX 23183 87912 12480 81605 11021 21042 30001 4//// 57030 60001 85555 333 56110 85615 87360 88270="}], "87127": [{"year": 2026, "month": 7, "day": 24, "hour": 13, "minute": 0, "report": "AAXX 24134 87127 42965 42704 10146 20109 39842 40175 52018 84070 333 56060 84360="}, {"year": 2026, "month": 7, "day": 24, "hour": 12, "minute": 0, "report": "AAXX 24124 87127 32665 62305 10122 20107 39838 40173 52023 86500 333 10127 20090 56500 86640="}, {"year": 2026, "month": 7, "day": 24, "hour": 2, "minute": 0, "report": "AAXX 24024 87127 42562 81906 10106 20086 39819 40154 53002 885// 333 56699 88625="}, {"year": 2026, "month": 7, "day": 24, "hour": 1, "minute": 0, "report": "AAXX 24014 87127 42562 82107 10120 20088 39820 40155 53002 885// 333 56699 88620="}, {"year": 2026, "month": 7, "day": 24, "hour": 0, "minute": 0, "report": "AAXX 24004 87127 12562 82207 10122 20090 39819 40154 53005 60001 885// 333 10152 20092 56699 88620="}, {"year": 2026, "month": 7, "day": 23, "hour": 23, "minute": 0, "report": "AAXX 23234 87127 42562 82307 10130 20099 39817 40151 50005 885// 333 56699 88630="}, {"year": 2026, "month": 7, "day": 23, "hour": 22, "minute": 0, "report": "AAXX 23224 87127 42562 83404 10140 20089 39817 40150 53002 8557/ 333 56279 83630 88365="}, {"year": 2026, "month": 7, "day": 23, "hour": 21, "minute": 0, "report": "AAXX 23214 87127 42562 83607 10142 20083 39817 40150 55006 8557/ 333 56279 85630 88365="}, {"year": 2026, "month": 7, "day": 23, "hour": 20, "minute": 0, "report": "AAXX 23204 87127 42562 83508 10150 20088 39814 40147 56016 8857/ 333 56269 83625 88365="}, {"year": 2026, "month": 7, "day": 23, "hour": 19, "minute": 0, "report": "AAXX 23194 87127 42562 80208 10146 20078 39814 40147 56034 885// 333 56299 88625="}, {"year": 2026, "month": 7, "day": 23, "hour": 18, "minute": 0, "report": "AAXX 23184 87127 12562 83608 1014 20074 39823 40156 56033 885// 333 56299 88625="}, {"year": 2026, "month": 7, "day": 23, "hour": 17, "minute": 0, "report": "AAXX 23174 87127 42562 80507 10138 20069 39833 40167 58029 885// 333 56299 88625="}, {"year": 2026, "month": 7, "day": 23, "hour": 16, "minute": 0, "report": "AAXX 23164 87127 42562 80204 10124 20075 39849 40184 58016 835// 333 56299 84625="}, {"year": 2026, "month": 7, "day": 23, "hour": 15, "minute": 0, "report": "AAXX 23154 87127 42562 80304 10108 20071 39858 40194 58010 86570 333 56260 84630 85365="}, {"year": 2026, "month": 7, "day": 23, "hour": 14, "minute": 0, "report": "AAXX 23144 87127 42662 80604 10102 20064 39863 40199 50004 83570 333 56260 84635 85365="}, {"year": 2026, "month": 7, "day": 23, "hour": 13, "minute": 0, "report": "AAXX 23134 87127 42562 80704 10094 20201 39864 40201 50005 83570 333 56260 84630 85365="}], "87641": [{"year": 2026, "month": 7, "day": 24, "hour": 13, "minute": 0, "report": "AAXX 24134 87641 41450 83207 10102 20098 30017 40196 51011 72842 8567/ 333 56189 85712 88360 96010="}, {"year": 2026, "month": 7, "day": 24, "hour": 12, "minute": 0, "report": "AAXX 24124 87641 01408 83609 10098 20094 30006 40185 54000 69944 74254 8567/ 333 10102 20082 32008 56189 69931 85712 88360="}, {"year": 2026, "month": 7, "day": 24, "hour": 11, "minute": 0, "report": "AAXX 24114 87641 41403 80204 10094 20086 30009 40188 51004 74644 8562/ 333 56189 85710 88550="}, {"year": 2026, "month": 7, "day": 24, "hour": 10, "minute": 0, "report": "AAXX 24104 87641 41405 80205 10094 20086 30006 40186 55003 74444 8562/ 333 56189 85710 88550="}, {"year": 2026, "month": 7, "day": 24, "hour": 9, "minute": 0, "report": "AAXX 24094 87641 41403 80505 10091 20089 30006 40185 57005 74454 8562/ 333 56189 85710 88550="}, {"year": 2026, "month": 7, "day": 24, "hour": 8, "minute": 0, "report": "AAXX 24084 87641 41403 80506 10091 20085 30005 40184 57011 74654 8562/ 333 56189 85710 88550="}, {"year": 2026, "month": 7, "day": 24, "hour": 7, "minute": 0, "report": "AAXX 24074 87641 41450 80206 10093 20087 30009 40188 57005 75052 8562/ 333 56180 85710 88550="}, {"year": 2026, "month": 7, "day": 24, "hour": 6, "minute": 0, "report": "AAXX 24064 87641 11465 80206 10089 20079 30012 40191 57007 69911 70252 8562/ 333 56889 85710 88550="}, {"year": 2026, "month": 7, "day": 24, "hour": 5, "minute": 0, "report": "AAXX 24054 87641 41465 80505 10087 20059 30016 40195 57003 72052 8562/ 333 56189 85715 88550="}, {"year": 2026, "month": 7, "day": 24, "hour": 4, "minute": 0, "report": "AAXX 24044 87641 41458 80506 10090 20080 30014 40195 57003 75052 8662/ 333 56189 86715 88550="}, {"year": 2026, "month": 7, "day": 24, "hour": 3, "minute": 0, "report": "AAXX 24034 87641 41458 80209 10090 20082 30018 40199 52004 72052 8662/ 333 56179 86715 88550="}, {"year": 2026, "month": 7, "day": 24, "hour": 2, "minute": 0, "report": "AAXX 24024 87641 41450 80507 10096 20084 30018 40198 52004 75052 887// 333 56099 88715="}, {"year": 2026, "month": 7, "day": 24, "hour": 1, "minute": 0, "report": "AAXX 24014 87641 42465 80211 10102 20086 30017 40197 53007 887// 333 56899 88715="}, {"year": 2026, "month": 7, "day": 24, "hour": 0, "minute": 0, "report": "AAXX 24004 87641 12458 80907 10100 20088 30014 40196 54000 60001 887// 333 10106 20045 56299 88715="}, {"year": 2026, "month": 7, "day": 23, "hour": 23, "minute": 0, "report": "AAXX 23234 87641 41458 80507 10099 20083 30014 40196 57003 71022 8552/ 333 56109 85615 88550="}, {"year": 2026, "month": 7, "day": 23, "hour": 22, "minute": 0, "report": "AAXX 23224 87641 41458 80507 10098 20082 30010 40191 57008 71022 8452/ 333 56109 84615 88550="}, {"year": 2026, "month": 7, "day": 23, "hour": 21, "minute": 0, "report": "AAXX 23214 87641 41458 80707 10099 20083 30014 40196 57015 71022 8452/ 333 56169 84612 88550="}, {"year": 2026, "month": 7, "day": 23, "hour": 20, "minute": 0, "report": "AAXX 23204 87641 41456 80509 10099 20083 30017 40199 57013 71022 8462/ 333 56169 84712 88550="}, {"year": 2026, "month": 7, "day": 23, "hour": 19, "minute": 0, "report": "AAXX 23194 87641 41450 80509 10102 20082 30018 40200 57020 71022 8562/ 333 56169 85710 88550="}, {"year": 2026, "month": 7, "day": 23, "hour": 18, "minute": 0, "report": "AAXX 23184 87641 11450 80507 10101 20076 30029 40210 57017 60001 71042 886// 333 56199 88710="}, {"year": 2026, "month": 7, "day": 23, "hour": 17, "minute": 0, "report": "AAXX 23174 87641 41450 80506 10096 20077 30030 40212 57024 71022 886// 333 56199 88710="}, {"year": 2026, "month": 7, "day": 23, "hour": 16, "minute": 0, "report": "AAXX 23164 87641 41320 80509 10084 20073 30038 40220 57019 71022 886// 333 56199 88707="}, {"year": 2026, "month": 7, "day": 23, "hour": 15, "minute": 0, "report": "AAXX 23154 87641 41215 80708 10077 20073 30046 40229 58009 72840 886// 333 56199 88706 96010="}, {"year": 2026, "month": 7, "day": 23, "hour": 14, "minute": 0, "report": "AAXX 23144 87641 41/08 90704 10066 20064 30054 40237 54000 74344="}, {"year": 2026, "month": 7, "day": 23, "hour": 13, "minute": 0, "report": "AAXX 23134 87641 41/05 90503 10054 20049 30057 40240 52007 74544="}], "87784": [{"year": 2026, "month": 7, "day": 24, "hour": 12, "minute": 0, "report": "AAXX 24124 87784 31980 12305 10036 20026 30133 40157 52013 702// 81030 333 10106 20030 56040 81360="}, {"year": 2026, "month": 7, "day": 24, "hour": 0, "minute": 0, "report": "AAXX 24004 87784 11980 63605 10104 20075 30106 40131 53016 60001 701// 83076 333 10120 20066 56046 83360 84270="}, {"year": 2026, "month": 7, "day": 23, "hour": 18, "minute": 0, "report": "AAXX 23184 87784 11680 73613 10114 20073 30101 4//// 57027 60001 702// 81576 333 56466 81640 83360 85270="}], "87640": [{"year": 2026, "month": 7, "day": 24, "hour": 13, "minute": 0, "report": "AAXX 24133 87640 41457 83602 10108 20104 30086 4//// 52017 71022 886// 333 56899 88710="}, {"year": 2026, "month": 7, "day": 24, "hour": 12, "minute": 0, "report": "AAXX 24123 87640 31460 80000 10100 20100 30082 40197 52018 702// 886// 333 10110 20091 31006 56099 88710="}, {"year": 2026, "month": 7, "day": 24, "hour": 0, "minute": 0, "report": "AAXX 24003 87640 12565 80505 10110 20094 30073 40188 53003 60001 886// 333 10127 20055 56199 88720="}, {"year": 2026, "month": 7, "day": 23, "hour": 23, "minute": 0, "report": "AAXX 23233 87640 42465 80505 10108 20088 30072 4//// 53001 886// 333 56199 88718="}, {"year": 2026, "month": 7, "day": 23, "hour": 22, "minute": 0, "report": "AAXX 23223 87640 42565 80508 10112 20088 30072 4//// 55003 885// 333 56100 88620="}, {"year": 2026, "month": 7, "day": 23, "hour": 21, "minute": 0, "report": "AAXX 23213 87640 42465 80508 10120 20090 30070 4//// 56012 885// 333 56199 88618="}, {"year": 2026, "month": 7, "day": 23, "hour": 20, "minute": 0, "report": "AAXX 23203 87640 42565 80508 10123 20085 30070 4//// 57020 885// 333 56199 88620="}, {"year": 2026, "month": 7, "day": 23, "hour": 19, "minute": 0, "report": "AAXX 23193 87640 42465 80510 10125 20083 30074 4//// 57023 885// 333 56199 88618="}, {"year": 2026, "month": 7, "day": 23, "hour": 18, "minute": 0, "report": "AAXX 23183 87640 31465 80513 10124 20075 30082 4//// 57019 60001 70242 885// 333 56199 88618="}, {"year": 2026, "month": 7, "day": 23, "hour": 17, "minute": 0, "report": "AAXX 23173 87640 42465 80513 10126 20071 30090 4//// 57016 885// 333 56199 88618="}, {"year": 2026, "month": 7, "day": 23, "hour": 16, "minute": 0, "report": "AAXX 23163 87640 42462 80510 10120 20084 30097 4//// 57013 888// 333 56199 83815 87620="}, {"year": 2026, "month": 7, "day": 23, "hour": 15, "minute": 0, "report": "AAXX 23153 87640 41459 80508 10102 20090 30101 4//// 57013 71042 886// 333 56199 88712="}, {"year": 2026, "month": 7, "day": 23, "hour": 14, "minute": 0, "report": "AAXX 23143 87640 41350 80505 10084 20080 30106 4//// 58005 72844 886// 333 56199 88708 96010="}, {"year": 2026, "month": 7, "day": 23, "hour": 13, "minute": 0, "report": "AAXX 23133 87640 41308 80505 10068 20068 30110 4//// 58007 74244 886// 333 56199 88708="}], "87616": [{"year": 2026, "month": 7, "day": 24, "hour": 12, "minute": 0, "report": "AAXX 24123 87616 31/01 93605 10040 20040 39810 40190 52027 74742 333 10096 20038="}, {"year": 2026, "month": 7, "day": 24, "hour": 0, "minute": 0, "report": "AAXX 24003 87616 12982 80508 10096 20075 39766 40142 52013 60001 85077 333 10132 20076 56066 85360 88270="}, {"year": 2026, "month": 7, "day": 23, "hour": 18, "minute": 0, "report": "AAXX 23183 87616 12582 83613 10124 20068 39762 40135 57025 60001 8657/ 333 56869 86630 88360="}], "87803": [{"year": 2026, "month": 7, "day": 24, "hour": 13, "minute": 0, "report": "AAXX 24134 87803 42680 39901 10010 21014 39186 4//// 51012 82579 333 56666 82635 83170="}, {"year": 2026, "month": 7, "day": 24, "hour": 12, "minute": 0, "report": "AAXX 24124 87803 11659 33604 10004 21009 39186 40131 52017 69914 71600 83500 333 10048 20004 56600 83635="}, {"year": 2026, "month": 7, "day": 24, "hour": 11, "minute": 0, "report": "AAXX 24114 87803 42680 29906 10020 21017 39182 40120 52018 82570 333 56660 82635="}, {"year": 2026, "month": 7, "day": 24, "hour": 10, "minute": 0, "report": "AAXX 24104 87803 42680 22506 10022 21015 39174 40112 52010 82500 333 56000 82635="}, {"year": 2026, "month": 7, "day": 24, "hour": 9, "minute": 0, "report": "AAXX 24094 87803 42680 19904 10036 21035 39169 40102 52006 81500 333 56000 81635="}, {"year": 2026, "month": 7, "day": 24, "hour": 0, "minute": 0, "report": "AAXX 24004 87803 11780 69904 10039 21018 39142 40079 52019 69901 70181 86800 333 10087 20021 56600 85650="}, {"year": 2026, "month": 7, "day": 23, "hour": 23, "minute": 0, "report": "AAXX 23234 87803 42780 79902 10056 21021 39140 40072 52027 86840 333 56690 57390 85656="}, {"year": 2026, "month": 7, "day": 23, "hour": 22, "minute": 0, "report": "AAXX 23224 87803 42780 39904 10061 21018 39129 40060 51025 82844 333 56696 57394 81650="}, {"year": 2026, "month": 7, "day": 23, "hour": 21, "minute": 0, "report": "AAXX 23214 87803 41780 49903 10062 20007 39124 40056 53023 70182 83240 333 56640 57344 83850="}, {"year": 2026, "month": 7, "day": 23, "hour": 20, "minute": 0, "report": "AAXX 23204 87803 41668 62606 10083 20006 39113 4//// 53012 71682 86240 333 56770 57315 84640 83845="}, {"year": 2026, "month": 7, "day": 23, "hour": 19, "minute": 0, "report": "AAXX 23194 87803 41680 69905 10079 20028 39104 4//// 55002 72582 85240 333 56770 57310 84635 83847="}, {"year": 2026, "month": 7, "day": 23, "hour": 18, "minute": 0, "report": "AAXX 23184 87803 11680 79904 10079 20030 39101 4//// 54000 69911 70362 86840 333 56770 57310 85642 83856="}, {"year": 2026, "month": 7, "day": 23, "hour": 17, "minute": 0, "report": "AAXX 23174 87803 41480 63609 10072 20030 39101 4//// 50003 70162 85840 333 56770 57312 84618="}, {"year": 2026, "month": 7, "day": 23, "hour": 16, "minute": 0, "report": "AAXX 23164 87803 41580 70211 10048 20025 39106 4//// 52011 72166 86740 333 56770 57380 81726 85646="}, {"year": 2026, "month": 7, "day": 23, "hour": 15, "minute": 0, "report": "AAXX 23154 87803 41568 80210 10039 20023 39101 4//// 55001 76062 8677/ 333 56779 81725 86736="}, {"year": 2026, "month": 7, "day": 23, "hour": 14, "minute": 0, "report": "AAXX 23144 87803 41468 80310 10035 20013 39098 4//// 55007 76062 8777/ 333 56779 83719 87720 85360="}, {"year": 2026, "month": 7, "day": 23, "hour": 13, "minute": 0, "report": "AAXX 23134 87803 42580 70510 10030 20010 39096 4//// 57016 85540 333 56770 57342 81723 85647="}], "87480": [{"year": 2026, "month": 7, "day": 24, "hour": 13, "minute": 0, "report": "AAXX 24134 87480 41559 72002 10132 20119 30168 40198 52021 72842 86584 333 56877 82628 85644 85360="}, {"year": 2026, "month": 7, "day": 24, "hour": 12, "minute": 0, "report": "AAXX 24124 87480 11930 62302 10101 20097 30156 40186 52017 69904 74142 85084 333 10140 20094 30007 56087 85360 85070="}, {"year": 2026, "month": 7, "day": 24, "hour": 11, "minute": 0, "report": "AAXX 24114 87480 41558 70702 10112 20108 30152 40181 52019 71142 85574 333 56176 85621 83360 87070="}, {"year": 2026, "month": 7, "day": 24, "hour": 10, "minute": 0, "report": "AAXX 24104 87480 42465 71803 10111 20087 30146 40176 53007 85504 333 56106 85615 87070="}, {"year": 2026, "month": 7, "day": 24, "hour": 9, "minute": 0, "report": "AAXX 24094 87480 42665 70703 10114 20108 30138 40169 50003 85504 333 56106 85643 87070="}, {"year": 2026, "month": 7, "day": 24, "hour": 8, "minute": 0, "report": "AAXX 24084 87480 42565 70504 10117 20107 30133 40163 55005 85504 333 56106 85623 87070="}, {"year": 2026, "month": 7, "day": 24, "hour": 7, "minute": 0, "report": "AAXX 24074 87480 42465 80203 10121 20112 30140 40170 55007 885// 333 56100 88617="}, {"year": 2026, "month": 7, "day": 24, "hour": 6, "minute": 0, "report": "AAXX 24064 87480 12465 60505 10122 20111 30136 40166 58008 60001 86504 333 56106 86617="}, {"year": 2026, "month": 7, "day": 24, "hour": 5, "minute": 0, "report": "AAXX 24054 87480 42565 60504 10126 20113 30138 40169 58003 86504 333 56106 86626="}, {"year": 2026, "month": 7, "day": 24, "hour": 4, "minute": 0, "report": "AAXX 24044 87480 42565 80203 10126 20111 30146 40176 52007 885// 333 56199 88623="}, {"year": 2026, "month": 7, "day": 24, "hour": 3, "minute": 0, "report": "AAXX 24034 87480 42565 80704 10132 20109 30144 40173 53004 885// 333 56199 88623="}, {"year": 2026, "month": 7, "day": 24, "hour": 2, "minute": 0, "report": "AAXX 24024 87480 42565 80504 10132 20109 30141 40171 56003 885// 333 56199 88623="}, {"year": 2026, "month": 7, "day": 24, "hour": 1, "minute": 0, "report": "AAXX 24014 87480 42565 80507 10134 20108 30140 40170 58001 885// 333 56199 88621="}, {"year": 2026, "month": 7, "day": 24, "hour": 0, "minute": 0, "report": "AAXX 24004 87480 12565 80506 10132 20113 30140 40170 58004 60001 885// 333 10148 20099 56199 88621="}, {"year": 2026, "month": 7, "day": 23, "hour": 23, "minute": 0, "report": "AAXX 23234 87480 42565 80504 10137 20107 30144 40174 55001 885// 333 56299 85625 88638="}, {"year": 2026, "month": 7, "day": 23, "hour": 22, "minute": 0, "report": "AAXX 23224 87480 42565 80505 10138 20106 30141 40171 56005 885// 333 56299 82626 88639="}, {"year": 2026, "month": 7, "day": 23, "hour": 21, "minute": 0, "report": "AAXX 23214 87480 42665 80505 10140 20104 30144 40173 56005 885// 333 56299 88634="}, {"year": 2026, "month": 7, "day": 23, "hour": 20, "minute": 0, "report": "AAXX 23204 87480 42565 80209 10143 20099 30145 40175 56011 885// 333 56299 88631="}, {"year": 2026, "month": 7, "day": 23, "hour": 19, "minute": 0, "report": "AAXX 23194 87480 41565 80509 10144 20098 30146 40177 56021 70252 885// 333 56299 88630="}, {"year": 2026, "month": 7, "day": 23, "hour": 18, "minute": 0, "report": "AAXX 23184 87480 11462 83608 10139 20103 30149 40179 57020 69901 72052 887// 333 56299 83714 84719 88629="}, {"year": 2026, "month": 7, "day": 23, "hour": 17, "minute": 0, "report": "AAXX 23174 87480 41460 80208 10131 20100 30156 40186 57021 75052 887// 333 56299 85713 86717 88629="}, {"year": 2026, "month": 7, "day": 23, "hour": 16, "minute": 0, "report": "AAXX 23164 87480 41460 80509 10130 20099 30168 40198 56012 75052 887// 333 56299 85714 88621="}, {"year": 2026, "month": 7, "day": 23, "hour": 15, "minute": 0, "report": "AAXX 23154 87480 42465 80710 10128 20099 30169 40199 57010 887// 333 56400 85710 88624="}, {"year": 2026, "month": 7, "day": 23, "hour": 14, "minute": 0, "report": "AAXX 23144 87480 41359 80807 10118 20099 30177 40207 56003 71052 887// 333 56299 85707 87628="}, {"year": 2026, "month": 7, "day": 23, "hour": 13, "minute": 0, "report": "AAXX 23134 87480 41259 70908 10112 20098 30178 40208 58001 75055 87700 333 56200 82705 87628="}], "87761": [{"year": 2026, "month": 7, "day": 24, "hour": 13, "minute": 0, "report": "AAXX 24134 87761 41430 80000 10014 20009 39226 4//// 52005 76876 885// 333 56099 88610="}, {"year": 2026, "month": 7, "day": 24, "hour": 12, "minute": 0, "report": "AAXX 24124 87761 01456 80000 10016 20011 39228 40154 51007 60074 76362 885// 333 10040 20015 56299 60032 88615="}, {"year": 2026, "month": 7, "day": 24, "hour": 11, "minute": 0, "report": "AAXX 24114 87761 41558 80000 10020 20010 39229 40153 52010 76162 885// 333 56099 88630="}, {"year": 2026, "month": 7, "day": 24, "hour": 10, "minute": 0, "report": "AAXX 24104 87761 42565 80000 10022 20007 39221 40142 54000 88570 333 56600 88630="}, {"year": 2026, "month": 7, "day": 24, "hour": 9, "minute": 0, "report": "AAXX 24094 87761 42565 50000 10022 20007 39221 40140 52004 85570 333 56660 85630="}, {"year": 2026, "month": 7, "day": 24, "hour": 0, "minute": 0, "report": "AAXX 24004 87761 11565 52906 10030 20016 39198 40124 52020 69921 70252 85600 333 10070 20004 56600 81720 85730="}, {"year": 2026, "month": 7, "day": 23, "hour": 23, "minute": 0, "report": "AAXX 23234 87761 41565 52506 10038 20019 39194 40117 52024 70252 85600 333 56600 81720 85730="}, {"year": 2026, "month": 7, "day": 23, "hour": 22, "minute": 0, "report": "AAXX 23224 87761 41565 52807 10050 20022 39186 40108 52027 72052 85600 333 56600 81720 85730="}, {"year": 2026, "month": 7, "day": 23, "hour": 21, "minute": 0, "report": "AAXX 23214 87761 41565 52511 10062 20031 39178 40096 52019 75055 85600 333 56600 85720="}, {"year": 2026, "month": 7, "day": 23, "hour": 20, "minute": 0, "report": "AAXX 23204 87761 41265 52508 10068 20032 39170 4//// 53004 75052 85600 333 56600 81705 85720="}, {"year": 2026, "month": 7, "day": 23, "hour": 19, "minute": 0, "report": "AAXX 23194 87761 41258 62411 10066 20040 39160 4//// 58004 75052 86600 333 56600 81705 85720="}, {"year": 2026, "month": 7, "day": 23, "hour": 18, "minute": 0, "report": "AAXX 23184 87761 11258 72507 10058 20036 39159 4//// 58002 60041 75065 86670 333 56660 81705 85720 87360="}, {"year": 2026, "month": 7, "day": 23, "hour": 17, "minute": 0, "report": "AAXX 23174 87761 41258 72405 10048 20030 39166 4//// 52006 76062 86670 333 56660 83705 85720 87360="}, {"year": 2026, "month": 7, "day": 23, "hour": 16, "minute": 0, "report": "AAXX 23164 87761 41265 72207 10044 20030 39164 4//// 52004 76062 86670 333 56660 81705 85720 87360="}, {"year": 2026, "month": 7, "day": 23, "hour": 15, "minute": 0, "report": "AAXX 23154 87761 41258 80000 10032 20023 39161 4//// 52005 76162 8767/ 333 56669 81705 87720 88360="}, {"year": 2026, "month": 7, "day": 23, "hour": 14, "minute": 0, "report": "AAXX 23144 87761 41258 82703 10024 20014 39160 4//// 53002 76162 8667/ 333 56669 81705 86725 88360="}, {"year": 2026, "month": 7, "day": 23, "hour": 13, "minute": 0, "report": "AAXX 23134 87761 41265 82206 10008 20003 39160 4//// 56002 70362 8667/ 333 56559 81705 84725 88360="}], "87360": [{"year": 2026, "month": 7, "day": 24, "hour": 12, "minute": 0, "report": "AAXX 24123 87360 31950 60000 10088 20088 30057 40177 52013 71022 86070 333 10103 20088 3//// 56060 86360="}, {"year": 2026, "month": 7, "day": 24, "hour": 9, "minute": 0, "report": "AAXX 24093 87360 42560 60505 10097 20087 30044 40163 5//// 86500 333 56100 86625="}, {"year": 2026, "month": 7, "day": 24, "hour": 0, "minute": 0, "report": "AAXX 24003 87360 12560 30502 10103 20076 30045 40167 57007 60001 83500 333 10157 20095 56100 83625="}, {"year": 2026, "month": 7, "day": 23, "hour": 21, "minute": 0, "report": "AAXX 23213 87360 42560 83608 10144 20094 30052 40173 54000 885// 333 56899 88620="}, {"year": 2026, "month": 7, "day": 23, "hour": 18, "minute": 0, "report": "AAXX 23183 87360 12560 80508 10155 20094 30052 40173 57021 60001 88500 333 56199 88615="}, {"year": 2026, "month": 7, "day": 23, "hour": 15, "minute": 0, "report": "AAXX 23153 87360 42460 80905 10136 20106 30073 40194 57001 886// 333 56299 88710="}]};
    const EMBED_HOURS = 24;
    const BUILT_AT = "2026-07-24 13:43 UTC";
    const AUTO_RELOAD_PAGE = true;
    const REFRESH_MS = 120000;
    const OGIMET_URL = "https://www.ogimet.com/cgi-bin/getsynop";

    const CORS_PROXIES = [
      (url) => `https://api.allorigins.win/raw?url=${encodeURIComponent(url)}`,
      (url) => `https://corsproxy.io/?${encodeURIComponent(url)}`,
    ];

    let selectedStation = null;
    let mapInitialized = false;
    let mapView = { center: { lat: -38.5, lon: -63.5 }, zoom: 3.4 };
    let runtimeSynops = {};
    let liveFetchInFlight = null;
    let lastDataSource = "embebidos";
    const plotConfig = {
      responsive: true,
      displayModeBar: true,
      scrollZoom: true,
      doubleClick: "reset",
      modeBarButtonsToRemove: [],
    };

    function debugLog(...lines) {
      const panel = document.getElementById("debugPanel");
      const ts = new Date().toISOString().slice(11, 19);
      panel.textContent += `[${ts}] ${lines.join("\n")}\n`;
      panel.scrollTop = panel.scrollHeight;
    }

    function clearDebug() {
      document.getElementById("debugPanel").textContent = "";
    }

    document.getElementById("debugToggle").addEventListener("change", (ev) => {
      document.getElementById("debugPanel").classList.toggle("visible", ev.target.checked);
    });

    function pad(n) { return String(n).padStart(2, "0"); }

    function utcRange(hoursBack) {
      const end = new Date();
      end.setUTCMinutes(0, 0, 0);
      const start = new Date(end.getTime() - hoursBack * 3600 * 1000);
      const fmt = (d) => (
        d.getUTCFullYear().toString()
        + pad(d.getUTCMonth() + 1)
        + pad(d.getUTCDate())
        + pad(d.getUTCHours())
        + pad(d.getUTCMinutes())
      );
      return { begin: fmt(start), end: fmt(end) };
    }

    async function fetchText(url, { quiet = false } = {}) {
      const isFile = location.protocol === "file:" || location.origin === "null";
      if (!quiet) debugLog(`fetchText() → ${url}`);
      if (!isFile) {
        try {
          const res = await fetch(url);
          if (res.ok) return await res.text();
        } catch (err) {
          if (!quiet) debugLog(`  ✗ directo: ${err.message}`);
        }
      }

      let lastError = null;
      for (let i = 0; i < CORS_PROXIES.length; i += 1) {
        const proxyUrl = CORS_PROXIES[i](url);
        try {
          const res = await fetch(proxyUrl);
          if (!res.ok) throw new Error(`HTTP ${res.status}`);
          const text = await res.text();
          if (!text || text.length < 20 || !text.includes("WMO_ID")) {
            throw new Error("respuesta inválida");
          }
          if (!quiet) debugLog(`  ✓ proxy ${i + 1} OK`);
          return text;
        } catch (err) {
          lastError = err;
          if (!quiet) debugLog(`  ✗ proxy ${i + 1}: ${err.message}`);
        }
      }

      try {
        const jsonUrl = `https://api.allorigins.win/get?url=${encodeURIComponent(url)}`;
        const res = await fetch(jsonUrl);
        if (!res.ok) throw new Error(`HTTP ${res.status}`);
        const payload = await res.json();
        if (payload.contents && payload.contents.includes("WMO_ID")) return payload.contents;
      } catch (err) {
        lastError = err;
      }

      throw new Error(lastError?.message || "sin conexión a OGIMET (CORS)");
    }

    async function fetchSynops(wmoId, hoursBack, { quiet = false } = {}) {
      const { begin, end } = utcRange(hoursBack);
      const ind = wmoId.length === 5 ? `0${wmoId}` : wmoId;
      const params = new URLSearchParams({ begin, end, ind, header: "yes", lang: "eng" });
      const url = `${OGIMET_URL}?${params}`;
      if (!quiet) debugLog(`fetchSynops(${wmoId}, ${hoursBack}h)`);
      const csv = await fetchText(url, { quiet });
      return parseOgimetCsv(csv).filter((row) => row.wmoId === wmoId);
    }

    function embeddedRows(wmoId, hoursBack) {
      const rows = EMBEDDED_SYNOPS[wmoId] || [];
      const cutoff = Date.now() - hoursBack * 3600 * 1000;
      return rows
        .filter((r) => {
          const t = Date.UTC(r.year, r.month - 1, r.day, r.hour, r.minute);
          return t >= cutoff;
        })
        .map((r) => ({
          ...r,
          wmoId,
          datetimeUtc: new Date(Date.UTC(r.year, r.month - 1, r.day, r.hour, r.minute)),
        }));
    }

    function renderReports(rows, station, sourceLabel) {
      const container = document.getElementById("reports");
      container.innerHTML = "";
      rows.forEach((row) => {
        const decoded = synopToAeromet(row.report, station.name, station.alt || 0);
        const card = document.createElement("div");
        card.className = "report-card";
        const ts = row.datetimeUtc.toISOString().replace("T", " ").slice(0, 16) + " UTC";
        card.innerHTML = `
          <time>${ts}</time>
          <div class="aeromet">${decoded.aeromet}</div>
          <div class="synop-raw">${decoded.raw}</div>
        `;
        container.appendChild(card);
      });
      setStatus("ok", `${rows.length} parte(s) — ${sourceLabel}`);
    }

    function renderMap() {
      const trace = {
        type: "scattermapbox",
        lat: STATIONS.map((s) => s.lat),
        lon: STATIONS.map((s) => s.lon),
        text: STATIONS.map((s) => `${s.name}<br>WMO ${s.wmo_id}`),
        customdata: STATIONS.map((s) => s.wmo_id),
        mode: "markers",
        marker: {
          size: 9,
          color: STATIONS.map((s) => (selectedStation && s.wmo_id === selectedStation.wmo_id ? "#f5a623" : "#3b9eff")),
          opacity: 0.9,
        },
        hovertemplate: "%{text}<extra></extra>",
      };

      const layout = {
        mapbox: {
          style: "open-street-map",
          center: { ...mapView.center },
          zoom: mapView.zoom,
        },
        margin: { t: 0, b: 0, l: 0, r: 0 },
        paper_bgcolor: "#0f1419",
        plot_bgcolor: "#0f1419",
        font: { color: "#e8eef7" },
        dragmode: "pan",
        uirevision: "argentina-map",
      };

      if (mapInitialized) {
        Plotly.react("map", [trace], layout, plotConfig);
      } else {
        Plotly.newPlot("map", [trace], layout, plotConfig);
        mapInitialized = true;
        const mapEl = document.getElementById("map");
        mapEl.on("plotly_relayout", (ev) => {
          if (ev["mapbox.zoom"] != null) mapView.zoom = ev["mapbox.zoom"];
          if (ev["mapbox.center"]) {
            mapView.center = { lat: ev["mapbox.center"].lat, lon: ev["mapbox.center"].lon };
          }
          if (ev["mapbox.center.lat"] != null) {
            mapView.center = { lat: ev["mapbox.center.lat"], lon: ev["mapbox.center.lon"] };
          }
        });
      }

      document.getElementById("map").on("plotly_click", (ev) => {
        const idx = ev.points[0].pointIndex;
        selectStation(STATIONS[idx]);
      });
    }

    function setStatus(kind, message) {
      const el = document.getElementById("panelStatus");
      el.className = `status ${kind}`;
      el.textContent = message;
    }

    function rowsForStation(wmoId, hoursBack) {
      const cutoff = Date.now() - hoursBack * 3600 * 1000;
      const fromEmbedded = embeddedRows(wmoId, hoursBack);
      const fromLive = (runtimeSynops[wmoId] || []).filter((r) => r.datetimeUtc.getTime() >= cutoff);
      const merged = new Map();
      [...fromEmbedded, ...fromLive].forEach((r) => {
        const key = r.datetimeUtc.toISOString();
        merged.set(key, r);
      });
      return [...merged.values()].sort((a, b) => b.datetimeUtc - a.datetimeUtc);
    }

    function updateLastUpdateLabel(source) {
      lastDataSource = source;
      const el = document.getElementById("lastUpdate");
      const now = new Date().toISOString().slice(11, 16) + " UTC";
      el.textContent = source === "vivo"
        ? `vivo ${now}`
        : `embebido ${BUILT_AT}`;
    }

    async function refreshSelectedStation({ quiet = false } = {}) {
      if (!selectedStation) return;
      const station = selectedStation;
      const hours = Math.min(
        Number(document.getElementById("hours").value) || 3,
        EMBED_HOURS,
      );

      const cached = rowsForStation(station.wmo_id, hours);
      if (cached.length) {
        renderReports(cached, station, lastDataSource === "vivo" ? "OGIMET en vivo" : `embebidos (hasta ${EMBED_HOURS}h)`);
      }

      if (liveFetchInFlight) return liveFetchInFlight;

      liveFetchInFlight = (async () => {
        try {
          const rows = await fetchSynops(station.wmo_id, hours, { quiet });
          if (rows.length) {
            runtimeSynops[station.wmo_id] = rows;
            renderReports(rowsForStation(station.wmo_id, hours), station, "OGIMET en vivo");
            updateLastUpdateLabel("vivo");
            if (!quiet) debugLog(`  ✓ ${rows.length} parte(s) en vivo`);
          } else if (!cached.length) {
            setStatus("error", `Sin SYNOP en las últimas ${hours} h.`);
          }
        } catch (err) {
          if (!quiet) debugLog(`  en vivo no disponible: ${err.message}`);
          if (cached.length) {
            setStatus(
              "ok",
              `${cached.length} parte(s) — embebidos (${BUILT_AT}). En vivo bloqueado por CORS; regenerá el HTML en Colab cada ~2 min.`,
            );
            updateLastUpdateLabel("embebido");
          } else if (!quiet) {
            setStatus("error", `Sin datos embebidos ni en vivo: ${err.message}`);
          }
        } finally {
          liveFetchInFlight = null;
        }
      })();

      return liveFetchInFlight;
    }

    async function selectStation(station) {
      selectedStation = station;
      renderMap();

      const hours = Math.min(Number(document.getElementById("hours").value) || 3, EMBED_HOURS);
      document.getElementById("panelTitle").textContent = station.name;
      document.getElementById("panelMeta").textContent = (
        `WMO ${station.wmo_id} · ${station.lat.toFixed(3)}°, ${station.lon.toFixed(3)}°`
        + (station.alt != null ? ` · ${station.alt} m` : "")
        + ` · embebido hasta ${EMBED_HOURS}h`
      );
      clearDebug();
      if (document.getElementById("debugToggle").checked) {
        debugLog(`selectStation() → refreshSelectedStation() → fetchSynops() → fetchText()`);
        debugLog(`  estación ${station.name} (${station.wmo_id}), mostrar ${hours}h`);
      }

      const cached = rowsForStation(station.wmo_id, hours);
      if (cached.length) {
        renderReports(cached, station, `embebidos (hasta ${EMBED_HOURS}h)`);
        updateLastUpdateLabel("embebido");
      } else {
        setStatus("loading", `Buscando SYNOP (últimas ${hours} h)…`);
      }

      await refreshSelectedStation({ quiet: !document.getElementById("debugToggle").checked });
    }

    document.getElementById("refreshBtn").addEventListener("click", () => {
      if (selectedStation) refreshSelectedStation({ quiet: false });
    });

    document.getElementById("hours").addEventListener("change", () => {
      const h = Math.min(Number(document.getElementById("hours").value) || 3, EMBED_HOURS);
      document.getElementById("hours").value = h;
      document.getElementById("hoursLabel").textContent = h;
      if (selectedStation) refreshSelectedStation({ quiet: true });
    });

    setInterval(() => {
      if (selectedStation) refreshSelectedStation({ quiet: true });
    }, REFRESH_MS);

    if (AUTO_RELOAD_PAGE) {
      document.getElementById("hostingHint").style.display = "block";
      setInterval(() => location.reload(), REFRESH_MS);
    }

    renderMap();
  </script>
</body>
</html>
